{"type":"Topology","arcs":[[[5569,6089],[46,-21],[39,36],[51,39],[13,70],[-5,72],[-55,26],[-9,60],[58,14],[36,39],[19,40],[52,35],[54,105],[33,27],[6,50],[85,60],[8,21],[109,-13],[19,39],[33,-60],[69,-17],[52,-57],[45,-4],[26,-37],[2,-71],[-63,-126],[-5,-52],[39,-26],[115,50],[39,-23],[3,-88],[-26,-51],[-33,-151],[-2,-177],[-22,-66],[-13,-112],[47,-118],[30,-100],[42,-55],[23,-14],[99,7],[102,97],[180,127],[197,27],[66,132],[104,71],[83,26],[32,59],[35,0],[54,43],[48,-12],[76,21],[74,-30],[80,4],[-3,-71],[-59,-26],[-23,-45],[124,-11],[71,48],[129,27],[53,50],[58,17],[63,-9],[49,-30],[63,12],[76,-25],[49,-72],[-46,-32],[-35,52],[-53,-38],[-92,4],[-24,-82],[43,-39],[-8,-44],[-59,-8],[-64,-66],[-75,-2],[-35,-58],[-96,3],[-39,52],[-53,-16],[-64,19],[-84,-19],[-86,6],[-131,-15],[-55,7],[-89,-33],[-216,-11],[-34,-33],[-146,-24],[-40,-30],[14,-36],[-66,-12],[-5,-38],[-89,-37],[-11,-28],[-63,-1],[-2,-81],[-87,63],[-13,-7],[-30,-96],[-131,-105],[-85,-91],[-12,-32]],[[6248,4962],[-42,-26],[-55,-146],[-12,-96],[-20,-23],[-51,-8],[1,-100],[-16,-21],[-64,13],[-38,40],[-24,-50],[-60,-19],[7,101],[-55,63],[-70,19],[-53,-27]],[[5696,4682],[16,128],[-14,30]],[[5698,4840],[108,71],[-8,56],[39,68],[-21,79],[15,26],[-12,17],[-29,15],[-104,0],[-26,9],[-64,88],[19,50],[-7,71],[-54,35],[19,25],[-31,66],[8,107],[35,43],[27,22],[14,25],[-65,134],[-6,50],[-18,105],[32,87]],[[1297,4374],[30,38],[142,84],[44,11],[16,86],[-21,55],[90,47],[-87,100],[12,36],[109,-4],[92,23],[63,46],[77,13],[173,48]],[[2037,4957],[-5,-66],[-35,-82],[5,-40],[-28,-51],[47,-27],[24,-133],[37,-11],[51,9],[54,-14],[15,-50],[88,15],[10,-69],[-19,-76],[110,-27],[58,9]],[[2449,4344],[45,-60],[139,-75],[25,-58],[-9,-83],[-33,-53],[-120,-22],[-52,-40],[-61,24],[-52,-8],[-19,-33]],[[2312,3936],[-93,19],[-67,-1],[-42,-51],[-33,7],[-66,-57],[-79,-28],[-97,37],[-15,-10],[-51,5],[-54,49],[-119,23],[-23,-7],[-3,-13],[-79,16],[-29,-60],[-113,26],[-13,31],[41,80],[-67,54],[23,55],[-69,50],[-7,24],[25,97],[29,42],[-14,50]],[[4430,4536],[71,93],[-5,16],[-27,67],[73,68],[23,39],[13,104],[51,56],[82,60],[-110,80],[-5,27],[-69,95],[-19,-2],[-34,66],[13,33]],[[4487,5338],[2,16]],[[4489,5354],[81,-15],[65,8],[114,-29],[56,15],[60,-79],[76,-10],[29,1],[37,-13],[79,-75]],[[5086,5157],[40,-34],[96,-7],[136,83],[6,0],[29,-97],[19,9],[4,-105],[77,-69],[38,-145]],[[5531,4792],[-46,-62],[-44,-9],[-37,-129],[-113,-65],[-35,12],[-83,-42],[-52,-17]],[[5121,4480],[-45,21],[-78,-52],[-24,-76],[-93,36],[-47,-62],[-106,-72],[5,-35],[-100,5],[-38,-19],[-53,14],[-52,-40]],[[4490,4200],[-84,14],[-24,72],[16,67],[38,37],[9,73],[-15,73]],[[3358,5938],[30,-22],[73,-1],[95,37],[150,-11],[58,33],[56,-13],[38,-67],[66,-35],[28,-46],[144,62],[24,-32],[97,-2],[37,-25],[9,-80],[45,-11],[82,-104]],[[4390,5621],[21,-24],[20,-125],[42,-33],[25,-65],[-9,-20]],[[4487,5338],[-86,7],[-79,24],[-66,-13],[-50,44],[-64,10],[-47,-16],[-73,-16],[-1,-45],[10,-95],[-11,-60],[-17,-16],[-11,-93],[-94,-36],[-47,-55],[-3,-48],[27,-51],[-52,-16],[-1,-41],[-54,-37],[-17,-63]],[[3751,4722],[-60,-22],[-51,-12],[-42,28],[-91,-27],[1,18],[43,55],[33,85],[-11,83],[-17,101],[-61,77],[-9,35],[-34,-14],[-33,35],[-38,57],[0,43],[75,25],[-10,64]],[[3446,5353],[60,1],[-50,92],[51,57],[37,17],[-58,131],[-6,39],[28,87],[-43,49],[-14,48],[-78,28],[-15,36]],[[3721,4472],[52,-26],[250,83],[24,-4],[65,16],[97,-19],[62,24],[46,-20],[113,10]],[[4490,4200],[40,-100],[5,-65]],[[4535,4035],[-75,-35],[-28,-46],[-57,-19],[-19,-42],[-7,5],[-26,-8],[-115,38],[-20,-13],[-120,18],[-78,-5],[-26,-39],[18,-52],[-33,-22],[-19,-59],[88,5],[34,-36],[-38,-31],[76,-21],[-51,-57],[-38,-8],[31,-69]],[[4032,3539],[-21,0],[-37,-86],[-20,-1]],[[3954,3452],[-178,-74],[-20,43],[-59,26],[-88,-25],[-74,38],[-43,31],[-3,70],[23,56],[-9,46]],[[3503,3663],[56,127],[53,74],[22,54],[-93,79],[5,45],[-95,82]],[[3451,4124],[16,41],[-52,83],[-45,42],[8,66],[36,-30],[131,-11],[60,22],[34,82],[82,53]],[[2756,2967],[88,59],[79,101],[57,40],[23,45],[-37,46],[-46,-10],[-58,74],[40,89],[64,22],[-70,79],[-1,44],[70,-10],[54,25],[-17,134],[61,-17],[57,16],[66,-29],[44,33],[71,-18],[87,11],[13,-32],[102,-6]],[[3954,3452],[-15,-29],[87,-61],[-19,-65],[-48,-22],[-70,-84],[-85,-17],[-100,-39],[-14,-27]],[[3690,3108],[-68,-44],[-66,31],[-78,8],[-85,-18],[-44,71],[-41,23],[-26,-10],[-31,57],[-35,1],[-58,-51],[-23,2],[-49,-66],[45,-44],[41,-9],[11,-47],[-76,-77],[-3,-37],[5,-103],[62,7],[36,-25],[-13,-59],[-23,-30],[-28,-42],[-35,3],[-55,43],[-22,55],[-72,57],[-57,-10],[-34,-49],[-38,33]],[[2830,2778],[8,93],[-82,96]],[[241,3068],[181,-24],[139,17],[48,45],[56,-33],[120,-19],[-10,-86],[-49,-63],[59,-82],[-106,-115],[-57,-113],[71,-8],[52,17],[67,88],[23,-79],[77,-6],[57,64],[57,24],[56,2],[72,39],[33,-33],[35,34],[174,76],[105,-1],[-17,96],[53,20],[-7,68],[-36,59],[11,51],[48,30],[19,3]],[[1572,3139],[59,-76],[-31,-87],[151,-21],[53,42],[133,7],[22,42],[51,36],[54,-52],[28,-111],[43,-40],[38,-69],[92,-13],[43,58],[49,-18],[48,34],[63,-2]],[[2468,2869],[-8,-71],[-94,-90],[8,-88],[-114,-44],[-31,-61],[-30,-17],[16,-46],[-66,-71],[-76,-13],[-40,-22],[25,-54],[-65,-32],[-75,-65],[-46,-3],[-50,-67],[-56,-21]],[[1766,2104],[-103,24],[-83,7],[-43,6],[-28,-71],[0,-69],[-39,-38],[-88,-21],[-82,-41],[-88,102],[-34,30],[-51,-41],[-220,-27],[-50,-33],[-47,-53],[-9,-86],[-77,-99],[-53,-37],[13,-63],[-35,-5],[-12,-91]],[[637,1498],[-439,72],[-25,166],[11,254],[28,119],[-38,202],[-20,51],[-42,109],[-47,243],[-27,81],[30,73],[112,128],[15,61],[46,11]],[[2037,4957],[36,49],[64,48],[64,-8],[21,42],[76,25],[85,102],[27,47],[-10,143],[52,120],[53,94],[-5,27],[-20,115],[145,81],[76,19],[82,0],[86,33]],[[2869,5894],[41,-42],[-39,-32],[-46,-95],[-4,-111],[58,-94],[2,-47],[-10,-34],[-18,-37],[34,-38],[-7,-101],[23,-72],[-108,7],[-40,-64],[-36,-121],[14,-27],[10,-6],[-15,-83],[107,-33],[86,16],[15,38]],[[2936,4918],[110,27],[28,-55],[23,-90],[-76,-22],[-27,-81],[-53,5],[-42,-49],[-3,-55],[-29,-98],[-11,-17],[28,-109]],[[2884,4374],[-24,-19],[-28,-32],[-70,46],[-67,13],[-70,-14],[-136,-1],[-40,-23]],[[4032,3539],[71,13],[32,40],[62,14],[55,-45],[98,-11],[56,53],[37,-27],[0,-115],[66,-33],[34,-54],[-67,-70],[76,-99],[93,44],[61,-42],[57,32],[33,49]],[[4796,3288],[41,-65],[-9,-56],[11,-7]],[[4839,3160],[-7,-73],[31,-80]],[[4863,3007],[-30,-16],[-56,-71],[-26,-66],[-29,-28],[-50,-42],[-42,-30],[17,-46],[-25,-35],[-76,-90],[-31,-57],[-54,-33],[-69,-8],[-63,77],[-45,-62],[-16,-32],[74,-71],[69,-70],[23,-84],[-19,-93],[14,-61],[-10,-73]],[[4419,2016],[-84,-4],[-61,45],[-47,7],[-27,86],[-34,20],[87,47],[-15,43],[-86,68],[2,8],[26,58],[-61,49],[-86,116],[23,33],[-31,47],[-132,67],[-47,48],[-5,-78],[-46,-34]],[[3795,2642],[-78,19],[27,105],[25,22],[29,132],[-74,-13],[-16,72],[31,11],[-49,118]],[[1572,3139],[18,19],[163,43],[-7,69],[25,39],[-5,68],[-97,108],[63,66],[23,69],[-19,28],[165,3],[31,-32],[40,10],[55,-19],[96,100],[29,5],[-8,75],[54,4],[77,43],[41,-17],[-12,76],[8,40]],[[2884,4374],[24,-16],[94,34],[81,-109],[85,-40],[89,15],[21,-118],[29,-47],[144,31]],[[2756,2967],[-70,-7],[-89,-72],[-40,1],[-28,-43],[-61,23]],[[1191,14],[5,58],[34,27],[10,315],[61,150],[18,63],[43,14],[77,112],[27,65],[42,38],[-22,60],[-7,53],[61,63],[-6,104],[47,59],[33,76],[24,17],[17,11],[4,87],[-20,35],[19,63],[3,88],[23,243],[23,37],[32,36],[58,115],[-31,101]],[[2830,2778],[-34,-33],[-65,-123],[14,-85],[-10,-71],[55,-32],[-29,-237]],[[2761,2197],[-50,-86],[-26,-121],[-67,14],[-39,-28],[-2,-47],[-8,-31],[-48,-8],[-21,-38],[-4,-97],[21,-22],[-37,-165],[-15,-159],[-1,-24],[-26,-248],[-4,-121],[-4,-257],[-16,-132],[6,-21],[-33,-108],[-21,-152],[-34,-202]],[[2332,144],[-140,-37],[-49,-29],[-30,-78],[-43,22],[-212,45],[-68,14],[-599,-67]],[[241,3068],[-16,32],[-116,4],[-72,39],[-17,32],[2,81],[16,42],[-38,191],[12,66],[87,119],[136,-4],[-41,47],[-24,70],[-38,48],[90,30],[51,39],[11,67],[38,77],[-6,71],[23,33],[25,112],[-27,60],[-1,60],[58,22],[-2,79],[56,103],[-5,51],[54,15],[11,-43],[118,-98],[112,-19],[111,32],[23,-6],[33,-9],[52,-69],[66,-34],[35,-112],[89,99],[59,-43],[91,22]],[[2869,5894],[6,1],[48,2],[16,41],[96,141],[94,-39],[116,-33],[54,-53],[59,-16]],[[3446,5353],[-26,-37],[-75,-16],[-70,23],[-86,-34],[-48,2],[-51,-29],[-20,-70],[-110,-53],[-23,-23],[-34,-98],[46,2],[-13,-102]],[[4881,3906],[10,36],[20,64],[6,19],[0,14],[8,14],[29,65],[25,-7],[82,-13],[28,11],[69,-28],[-9,-47],[50,-41],[32,-115],[49,14],[31,37]],[[5311,3929],[79,8],[24,82],[68,41],[17,19]],[[5499,4079],[6,-85],[-33,-17],[-15,-128],[2,-107]],[[5459,3742],[-44,7],[-164,-149],[-5,-40]],[[5246,3560],[-8,-9],[-53,58],[-51,108],[-87,-43],[-104,20]],[[4943,3694],[-2,61],[-8,0],[-54,32],[-10,66],[12,53]],[[2761,2197],[115,-39],[12,2],[6,114],[78,116],[22,-13],[23,-73],[41,-16],[23,31],[125,-14],[24,34],[48,-5],[23,-49],[87,30]],[[3388,2315],[34,-10],[55,62],[55,-44],[16,-44],[-33,-48],[-50,-21],[-54,-76],[-11,-54],[13,-142],[-27,-62],[-69,-46],[1,-26],[63,-69],[66,11],[21,31],[75,12],[38,44],[67,-45],[64,12],[81,-51],[24,-7],[81,32],[80,-97],[49,-1],[6,-59],[77,-38],[24,7]],[[4134,1586],[41,-86],[57,18],[22,-62],[-226,-91],[-71,-8],[-64,34],[-59,-24],[-62,71],[-76,-33],[-60,-41],[-25,-94],[-64,-79],[-109,-27],[-61,-271],[11,-52],[29,-23],[-18,-171],[-55,-137],[83,-68],[-72,-91],[-258,-89],[-436,-149],[-289,42],[-40,-11]],[[5131,4313],[86,-11],[68,3],[91,7],[59,-68]],[[5435,4244],[7,-25],[59,-85],[3,-31],[-5,-24]],[[5311,3929],[-18,84],[6,86],[-10,21],[-49,23],[-94,45],[-18,24],[1,37],[3,14],[-1,50]],[[5199,2898],[20,13],[69,91],[10,31],[-2,54],[-48,-5],[4,27],[36,95],[65,-6],[72,-44],[69,47],[26,9],[36,31]],[[5556,3241],[83,-26],[26,-56],[-16,-60],[21,-41],[53,-40],[18,-64],[-87,-81],[-59,-12],[-34,-60],[-54,-21],[-76,16],[-74,-23],[-56,0],[-47,-60]],[[5254,2713],[-86,23],[-2,11],[37,54],[-16,41],[12,56]],[[5887,4191],[46,103],[81,-40],[11,-15],[98,18],[29,-13],[52,25],[37,83],[9,70],[100,39],[50,-17],[6,38],[83,65]],[[6489,4547],[29,-34],[-66,-94],[53,-63],[-5,-65],[-55,-37],[12,-49],[-45,-55],[-55,-23],[-49,-30],[-33,-67],[-89,-86],[15,-33],[-52,-51]],[[6149,3860],[-125,-5],[-36,-21],[-8,7],[14,30],[-52,12],[-9,33],[10,81],[-11,32],[-21,16]],[[5911,4045],[7,43],[-31,103]],[[4390,5621],[91,67],[46,-7],[28,79],[141,42],[44,23],[32,58],[170,37],[85,-104],[87,-69],[37,18]],[[5151,5765],[4,-149],[-15,-68],[-18,-8],[-27,-100],[18,-25],[-4,-86],[-42,-24],[34,-108],[-15,-40]],[[5435,4244],[8,47],[44,5],[43,55]],[[5530,4351],[33,-41],[2,-47],[71,-10],[30,-20],[10,-45],[28,-43],[82,-17],[59,5],[42,58]],[[5911,4045],[-69,-48],[-1,-39],[10,-34],[-30,-49],[-59,-71],[-28,-18],[-107,-23],[-58,-26],[-45,20],[-65,-15]],[[4796,3288],[38,28],[5,13],[-20,51],[28,45],[50,27],[-43,28],[19,115],[37,29],[33,70]],[[5246,3560],[148,74],[84,-115],[2,-33]],[[5480,3486],[-44,21],[-40,-48],[-58,32],[-82,-16],[-15,-61],[-38,-25],[-19,-27],[-23,-16],[-84,-75],[-58,-31],[-39,-81],[-141,1]],[[4535,4035],[19,1],[11,-55],[45,-75],[95,57],[87,-39],[89,-18]],[[6149,3860],[-1,-81],[49,-13],[38,-51],[-31,-93],[6,-57],[-34,-41],[7,-34],[-99,-39],[-18,-28],[-95,-7],[-122,-11],[-53,13],[-133,12],[-27,23],[-85,25],[-58,-6]],[[5493,3472],[-13,14]],[[1191,14],[-48,-6],[-531,200],[-404,150],[374,506],[165,216],[-7,62],[28,85],[0,49],[-31,91],[1,66],[-42,55],[-59,10]],[[6248,4962],[75,-60],[91,-102],[9,-54],[35,-20],[-31,-69],[70,-44],[-8,-66]],[[5530,4351],[6,64],[-36,43],[132,80],[17,63],[33,14],[14,67]],[[5493,3472],[-27,-85],[34,-29],[32,-95],[24,-22]],[[5199,2898],[-51,-18],[-52,31],[-16,-36],[-54,-21],[-53,-48],[-27,24],[10,80],[-21,89],[-72,8]],[[5254,2713],[1,-68],[5,-25],[-38,-68],[7,-109],[-48,-71],[-54,-25],[-23,-49],[23,-76],[-5,-148],[31,-169],[-20,-12],[-56,-54],[-45,-109],[-92,-39],[-30,-39],[-69,21],[-36,53],[-12,56],[-91,38],[23,-51],[-15,-29],[-83,31],[-85,1],[-8,34],[-50,11],[-39,-51]],[[4445,1766],[-59,64],[34,107],[-1,79]],[[5531,4792],[88,9],[42,59],[37,-20]],[[5131,4313],[-25,-2],[15,169]],[[3721,4472],[71,95],[-16,61],[35,63],[-60,31]],[[5151,5765],[45,35],[10,99],[-25,61],[11,53],[39,32],[32,65],[115,-3],[136,24],[55,-42]],[[3795,2642],[14,-45],[-51,-27],[-114,-30],[-36,-38],[-89,9],[-15,-34],[-61,-30],[-55,-132]],[[4445,1766],[-81,-81],[-69,-12],[-82,-82],[-79,-5]]],"transform":{"scale":[0.0017088255202758957,0.0013424195197407189],"translate":[60.5176034,29.378317]},"objects":{"af_slim":{"type":"GeometryCollection","geometries":[{"arcs":[[0,1,2,3]],"type":"Polygon","properties":{"srid":"4326","id":"1674535","name":"Badakhshan","localname":"ولایت بدخشان","official_name":"","boundary":"adminstrative","admin_level":"4","note":"","wikidata":"Q165376","wikipedia":"en:Badakhshan Province","timestamp":"2018-08-01 11:14:15","rpath":"1674535,303427,0","alltags":{"name":"ولایت بدخشان","is_in":"Afghanistan","name:ar":"ولاية بدخشان","name:az":"Bədəxşan","name:be":"Правінцыя Бадахшан","name:bg":"Бадахшан","name:bn":"বাদাখশন প্রদেশ","name:ca":"Província de Badakhxan","name:cs":"Badachšán","name:cy":"Badakhshan","name:da":"Badakhshan","name:de":"Badachschan","name:el":"Μπανταχσάν","name:en":"Badakhshan","name:eo":"Provinco Badaĥŝan","name:es":"Provincia de Badajshán","name:et":"Badakhshāni provints","name:eu":"Badakhshan probintzia","name:fa":"ولایت بدخشان","name:fi":"Badahšan","name:fr":"Badakhchan","name:gl":"Badaghxán","name:hi":"बदख़्शान प्रान्त","name:hr":"Provincija Badakhšan","name:id":"Provinsi Badakhshan","name:ja":"バダフシャーン州","name:ko":"바다흐샨 주","name:lt":"Badachšanas","name:nl":"Badachsjan","name:no":"Badakhshan","name:pl":"Badachszan","name:ps":"بدخشان ولايت","name:pt":"Badakhshan","name:ru":"Бадахшан","name:sr":"Провинција Бадахсан","name:su":"Propinsi Badakhshan","name:sv":"Badakhshan","name:tg":"Вилояти Бадахшон","name:th":"จังหวัดบาดัคชาน","name:tr":"Badahşan Vilayeti","name:uk":"Бадахшан","name:vi":"Badakhshan","name:zh":"巴达赫尚省","boundary":"administrative","wikidata":"Q165376","ISO3166-2":"AF-BDS","wikipedia":"en:Badakhshan Province","admin_level":"4","is_in:country":"Afghanistan","is_in:continent":"Asia","is_in:country_code":"AF"}}},{"arcs":[[4,5,6,7]],"type":"Polygon","properties":{"srid":"4326","id":"1674811","name":"Badghis","localname":"بادغیس","official_name":"","boundary":"adminstrative","admin_level":"4","note":"","wikidata":"Q172052","wikipedia":"en:Badghis Province","timestamp":"2018-08-01 11:14:15","rpath":"1674811,303427,0","alltags":{"name":"بادغیس","is_in":"Afghanistan","name:ar":"بادغيس","name:cs":"Badgís","name:de":"Badghis","name:en":"Badghis","name:es":"Provincia de Bādgīs","name:fa":"ولایت بادغیس","name:fr":"Bâdghîs","name:ja":"バードギース州","name:lt":"Badgiso provincija","name:ps":"بادغيس ولايت","name:ru":"Бадгис","name:tr":"Badgis","name:uk":"Бадгіс","alt_name":"Badghis Province","boundary":"administrative","wikidata":"Q172052","ISO3166-2":"AF-BDG","wikipedia":"en:Badghis Province","admin_level":"4","alt_name:cs":"Bádghís","description":"Badghis Province","is_in:country":"Afghanistan","is_in:continent":"Asia","is_in:country_code":"AF"}}},{"arcs":[[8,9,10,11,12,13,14]],"type":"Polygon","properties":{"srid":"4326","id":"1674785","name":"Baghlan","localname":"بغلان","official_name":"","boundary":"adminstrative","admin_level":"4","note":"","wikidata":"Q170309","wikipedia":"ps:بغلان ولايت","timestamp":"2018-08-01 11:14:15","rpath":"1674785,303427,0","alltags":{"name":"بغلان","is_in":"أفغانستان","name:ar":"ولاية بغلان","name:cs":"Baghlán","name:de":"Baglan","name:en":"Baghlan","name:es":"Provincia de Baghlan","name:fa":"ولایت بغلان","name:fr":"Baghlân","name:it":"Baghlan","name:ja":"バグラーン州","name:lt":"Baglano provincija","name:ps":"بغلان ولايت","name:ru":"Баглан","name:tg":"Вилояти Бағлон","name:tr":"Beğlan","name:uk":"Баглан","alt_name":"بغلان","boundary":"administrative","wikidata":"Q170309","ISO3166-2":"AF-BGL","wikipedia":"ps:بغلان ولايت","admin_level":"4","description":"ولایت بغلان","is_in:country":"Afghanistan","is_in:continent":"Asia","is_in:country_code":"AF"}}},{"arcs":[[15,16,-10,17,18,19]],"type":"Polygon","properties":{"srid":"4326","id":"1674795","name":"Balkh","localname":"بلخ","official_name":"","boundary":"adminstrative","admin_level":"4","note":"","wikidata":"Q121104","wikipedia":"en:Balkh Province","timestamp":"2018-08-01 11:14:15","rpath":"1674795,303427,0","alltags":{"name":"بلخ","is_in":"Afghanistan","name:af":"بلخ","name:ar":"بلخ","name:de":"Balch","name:en":"Balkh","name:es":"Provincia de Balj","name:fa":"ولایت بلخ","name:fr":"Balkh","name:ja":"バルフ州","name:lt":"Balcho provincija","name:pl":"Balch","name:ps":"بلخ ولايت","name:ru":"Балх","name:tg":"Вилояти Балх","name:uk":"Балх","boundary":"administrative","wikidata":"Q121104","ISO3166-2":"AF-BAL","wikipedia":"en:Balkh Province","admin_level":"4","description":"Balkh Province","is_in:country":"Afghanistan","is_in:continent":"Asia","is_in:country_code":"AF"}}},{"arcs":[[20,-15,21,22,23,24,25,26]],"type":"Polygon","properties":{"srid":"4326","id":"1674849","name":"Bamyan","localname":"بامیان","official_name":"","boundary":"adminstrative","admin_level":"4","note":"","wikidata":"Q171382","wikipedia":"ps:باميان ولايت","timestamp":"2018-08-01 11:14:15","rpath":"1674849,303427,0","alltags":{"name":"بامیان","is_in":"Afghanistan","name:ar":"باميان","name:cs":"Bamján","name:de":"Bamiyan","name:el":"Μπαμιάν","name:en":"Bamyan","name:es":"Provincia de Bamiyan","name:fa":"ولایت بامیان","name:fr":"Bâmiyân","name:hi":"बामयान प्रान्त","name:ja":"バーミヤーン州","name:lt":"Bamijano provincija","name:pl":"Bamian","name:ps":"باميان ولايت","name:ru":"Бамиан","name:tg":"Вилояти Бомиён","name:uk":"Баміан","name:ur":"صوبہ بامیان","alt_name":"Bamiyan","boundary":"administrative","wikidata":"Q171382","ISO3166-2":"AF-BAM","wikipedia":"ps:باميان ولايت","admin_level":"4","description":"Bamyan Province","is_in:country":"Afghanistan","is_in:continent":"Asia","is_in:country_code":"AF"}}},{"arcs":[[27,-25,28,29,30]],"type":"Polygon","properties":{"srid":"4326","id":"1674833","name":"Daykundi","localname":"دایکندی","official_name":"","boundary":"adminstrative","admin_level":"4","note":"","wikidata":"Q181220","wikipedia":"ps:دايکندي ولايت","timestamp":"2018-08-01 11:14:15","rpath":"1674833,303427,0","alltags":{"name":"دایکندی","is_in":"Afghanistan","name:ar":"دايكندي","name:cs":"Dájkundí","name:de":"Daikondi","name:en":"Daykundi","name:es":"Provincia de Daikondi","name:fa":"دایکندی","name:fr":"Deykandi","name:ja":"ダーイクンディー州","name:lt":"Daikondžio provincija","name:pl":"Dajkondi","name:ps":"دايکندي ولايت","name:ru":"Дайкунди","name:uk":"Дайкунді","boundary":"administrative","wikidata":"Q181220","ISO3166-2":"AF-DAY","wikipedia":"ps:دايکندي ولايت","admin_level":"4","description":"Daykundi Province","long_name:ar":"ولاية دايكندي","is_in:country":"Afghanistan","is_in:continent":"Asia","is_in:country_code":"AF"}}},{"arcs":[[31,32,33,34,35]],"type":"Polygon","properties":{"srid":"4326","id":"1674802","name":"Farah","localname":"فراه","official_name":"","boundary":"adminstrative","admin_level":"4","note":"","wikidata":"Q180330","wikipedia":"en:Farah Province","timestamp":"2018-08-01 11:14:15","rpath":"1674802,303427,0","alltags":{"name":"فراه","is_in":"Afghanistan","name:ar":"فراه","name:de":"Farah","name:en":"Farah","name:es":"Provincia de Farāh","name:fr":"Farâh","name:ja":"ファラー州","name:lt":"Farahas","name:ru":"Фарах","name:uk":"Фарах","boundary":"administrative","wikidata":"Q180330","ISO3166-2":"AF-FRA","wikipedia":"en:Farah Province","admin_level":"4","description":"Farah Province","is_in:country":"Afghanistan","is_in:continent":"Asia","is_in:country_code":"AF"}}},{"arcs":[[36,37,38,39,-6]],"type":"Polygon","properties":{"srid":"4326","id":"1674814","name":"Faryab","localname":"فاریاب","official_name":"","boundary":"adminstrative","admin_level":"4","note":"","wikidata":"Q173830","wikipedia":"en:Faryab Province","timestamp":"2018-08-01 11:14:15","rpath":"1674814,303427,0","alltags":{"name":"فاریاب","is_in":"Afghanistan","name:ar":"ولاية فارياب","name:de":"Faryab","name:en":"Faryab","name:es":"Provincia de Fāryāb","name:fa":"ولایت فاریاب","name:fr":"Fâryâb","name:ja":"ファーリヤーブ州","name:lt":"Farjabo provincija","name:pl":"Farjab","name:ps":"فارياب ولايت","name:ru":"Фарьяб","name:tg":"Вилояти Фориёб","name:uk":"Фар'яб","alt_name":"Farjab","boundary":"administrative","wikidata":"Q173830","ISO3166-2":"AF-FYB","wikipedia":"en:Faryab Province","admin_level":"4","description":"Faryab Province","is_in:country":"Afghanistan","is_in:continent":"Asia","is_in:country_code":"AF"}}},{"arcs":[[-29,-24,40,41,42,43,44,45]],"type":"Polygon","properties":{"srid":"4326","id":"1675048","name":"Ghazni","localname":"غزني","official_name":"","boundary":"adminstrative","admin_level":"4","note":"","wikidata":"Q180415","wikipedia":"en:Ghazni Province","timestamp":"2018-08-01 11:14:15","rpath":"1675048,303427,0","alltags":{"name":"غزني","is_in":"Afghanistan","name:ar":"ولاية غزني","name:cs":"Ghazní","name:de":"Ghazni","name:en":"Ghazni","name:es":"Provincia de Gazni","name:fa":"ولایت غزنی","name:fr":"Ghazni","name:ja":"ガズニー州","name:lt":"Gaznio provincija","name:ps":"غزني ولايت","name:ru":"Газни","name:uk":"Газні","name:ur":"صوبہ غزنی","boundary":"administrative","wikidata":"Q180415","ISO3166-2":"AF-GHA","wikipedia":"en:Ghazni Province","admin_level":"4","description":"Ghazni Province","is_in:country":"Afghanistan","is_in:continent":"Asia","is_in:country_code":"AF"}}},{"arcs":[[46,-7,-40,47,-26,-28,48,-33]],"type":"Polygon","properties":{"srid":"4326","id":"1674816","name":"Ghor","localname":"غور","official_name":"","boundary":"adminstrative","admin_level":"4","note":"","wikidata":"Q186392","wikipedia":"en:Ghor Province","timestamp":"2018-08-01 11:14:15","rpath":"1674816,303427,0","alltags":{"name":"غور","is_in":"Afghanistan","name:az":"Qövr","name:de":"Ghor","name:en":"Ghor","name:es":"Provincia de Ġawr","name:fa":"ولایت غور","name:fr":"Ghôr","name:ja":"ゴール州","name:lt":"Goro provincija","name:ps":"غور ولايت","name:ru":"Гор","name:tr":"Gur","name:uk":"Гор","alt_name":"Ghowr;Ghur;Ghor Province;ولایت غور","boundary":"administrative","name:prs":"ولایت غور","wikidata":"Q186392","ISO3166-2":"AF-GHO","wikipedia":"en:Ghor Province","admin_level":"4","description":"Ghor Province","is_in:country":"Afghanistan","is_in:continent":"Asia","is_in:country_code":"AF"}}},{"arcs":[[49,-34,-49,-31,50,51,52]],"type":"Polygon","properties":{"srid":"4326","id":"1674573","name":"Helmand","localname":"هلمند","official_name":"","boundary":"adminstrative","admin_level":"4","note":"\"name\" set to Pashto","wikidata":"Q173821","wikipedia":"en:Helmand Province","timestamp":"2018-08-01 11:14:15","rpath":"1674573,303427,0","alltags":{"name":"هلمند","note":"\"name\" set to Pashto","is_in":"Afghanistan","name:ar":"هلمند","name:cs":"Hílmand","name:de":"Helmand","name:en":"Helmand","name:es":"Provincia de Helmand","name:fa":"ولایت هلمند","name:fr":"Helmand","name:ja":"ヘルマンド州","name:ps":"هلمند ولايت","name:ru":"Гильменд","name:tr":"Helmend","name:uk":"Гільменд","alt_name":"Hilmand;Helmund;هلمند","boundary":"administrative","wikidata":"Q173821","ISO3166-2":"AF-HEL","wikipedia":"en:Helmand Province","admin_level":"4","long_name:ar":"ولاية هلمند","is_in:country":"Afghanistan","is_in:continent":"Asia","is_in:country_code":"AF"}}},{"arcs":[[-8,-47,-32,53]],"type":"Polygon","properties":{"srid":"4326","id":"1674803","name":"Herat","localname":"هرات","official_name":"","boundary":"adminstrative","admin_level":"4","note":"","wikidata":"Q182844","wikipedia":"en:Herat Province","timestamp":"2018-08-01 11:14:15","rpath":"1674803,303427,0","alltags":{"name":"هرات","is_in":"Afghanistan","name:cs":"Herát","name:de":"Herat","name:el":"Χεράτ","name:en":"Herat","name:es":"Provincia de Herāt","name:fa":"ولایت هرات","name:fr":"Hérât","name:ja":"ヘラート州","name:ps":"هرات ولايت","name:ru":"Герат","name:tr":"Herat","name:uk":"Герат","alt_name":"Hirat;Herat Province","boundary":"administrative","wikidata":"Q182844","ISO3166-2":"AF-HER","wikipedia":"en:Herat Province","admin_level":"4","description":"Herat Province","is_in:country":"Afghanistan","is_in:continent":"Asia","is_in:country_code":"AF"}}},{"arcs":[[54,-20,55,-38]],"type":"Polygon","properties":{"srid":"4326","id":"1674800","name":"Jowzjan","localname":"ولایت جوزجان","official_name":"","boundary":"adminstrative","admin_level":"4","note":"","wikidata":"Q183036","wikipedia":"en:Jowzjan Province","timestamp":"2018-08-01 11:14:15","rpath":"1674800,303427,0","alltags":{"name":"ولایت جوزجان","is_in":"Afghanistan","name:de":"Dschuzdschan","name:en":"Jowzjan","name:es":"Provincia de Jawzjān","name:fa":"ولایت جوزجان","name:fr":"Djôzdjân","name:ja":"ジョウズジャーン州","name:lt":"Džouzdžano provincija","name:pl":"Dżozdżan","name:ps":"جوزجان ولايت","name:ru":"Джаузджан","name:tg":"Вилояти Ҷӯзҷон","name:tr":"Cüzcan","name:uk":"Джаузджан","name:uz":"Joʻzjon","boundary":"administrative","wikidata":"Q183036","ISO3166-2":"AF-JOW","wikipedia":"en:Jowzjan Province","admin_level":"4","description":"Jowzjan Province","is_in:country":"Afghanistan","is_in:continent":"Asia","is_in:country_code":"AF"}}},{"arcs":[[56,57,58,59,60,61]],"type":"Polygon","properties":{"srid":"4326","id":"1674876","name":"Kabul","localname":"كابل","official_name":"","boundary":"adminstrative","admin_level":"4","note":"","wikidata":"Q188933","wikipedia":"ps:کابل ولايت","timestamp":"2018-08-01 11:14:15","rpath":"1674876,303427,0","alltags":{"name":"كابل","is_in":"Afghanistan","name:ar":"كابل","name:cs":"Kábul","name:de":"Kabul","name:en":"Kabul","name:es":"Provincia de Kabul","name:fr":"Kaboul","name:ja":"カーブル州","name:lt":"Kabulo provincija","name:ru":"Кабул","name:uk":"Кабул","boundary":"administrative","wikidata":"Q188933","ISO3166-2":"AF-KAB","wikipedia":"ps:کابل ولايت","admin_level":"4","is_in:country":"Afghanistan","is_in:continent":"Asia","is_in:country_code":"AF"}}},{"arcs":[[-52,62,63,64]],"type":"Polygon","properties":{"srid":"4326","id":"1674567","name":"Kandahar","localname":"کندهار - قندهار","official_name":"","boundary":"adminstrative","admin_level":"4","note":"","wikidata":"Q173808","wikipedia":"en:Kandahar Province","timestamp":"2018-08-01 11:14:15","rpath":"1674567,303427,0","alltags":{"name":"کندهار - قندهار","name:ar":"قندهار","name:cs":"Kandahár","name:de":"Kandahar","name:en":"Kandahar","name:es":"Provincia de Kandahar","name:fa":"ولایت قندهار","name:fr":"Kandahâr","name:ja":"カンダハール州","name:lt":"Kandaharas","name:ps":"کندهار ولايت","name:ru":"Кандагар","name:tr":"Kandehar","name:uk":"Кандагар","name:ur":"صوبہ قندہار","boundary":"administrative","wikidata":"Q173808","ISO3166-2":"AF-KAN","wikipedia":"en:Kandahar Province","admin_level":"4","is_in:country":"Afghanistan","is_in:continent":"Asia","is_in:country_code":"AF"}}},{"arcs":[[65,66,-58,67]],"type":"Polygon","properties":{"srid":"4326","id":"1674767","name":"Kapisa","localname":"کاپیس","official_name":"","boundary":"adminstrative","admin_level":"4","note":"","wikidata":"Q173816","wikipedia":"en:Kapisa Province","timestamp":"2018-08-01 11:14:15","rpath":"1674767,303427,0","alltags":{"name":"کاپیس","is_in":"Afghanistan","name:ar":"ولاية كابيسا","name:de":"Kapisa","name:el":"Καπίσα","name:en":"Kapisa","name:es":"Provincia de Kāpīsā","name:fa":"ولایت کاپیسا","name:fr":"Kâpîssâ","name:hi":"कापीसा प्रान्त","name:ja":"カーピーサー州","name:lt":"Kapisos provincija","name:ps":"کاپيسا ولايت","name:ru":"Каписа","name:tr":"Kapisa","name:uk":"Капіса","name:ur":"صوبہ کاپیس","name:zh":"卡比萨省","alt_name":"Kapisa Province;Kapissa","boundary":"administrative","wikidata":"Q173816","ISO3166-2":"AF-KAP","wikipedia":"en:Kapisa Province","admin_level":"4","description":"Kapisa Province","is_in:country":"Afghanistan","is_in:continent":"Asia","is_in:country_code":"AF"}}},{"arcs":[[68,69,70]],"type":"Polygon","properties":{"srid":"4326","id":"1674878","name":"Khost","localname":"خوست","official_name":"","boundary":"adminstrative","admin_level":"4","note":"","wikidata":"Q185752","wikipedia":"en:Khost Province","timestamp":"2018-08-01 11:14:15","rpath":"1674878,303427,0","alltags":{"name":"خوست","is_in":"Afghanistan","name:ar":"خوست","name:de":"Chost","name:en":"Khost","name:es":"Provincia de Jost","name:fa":"ولایت خوست","name:fr":"Khôst","name:it":"Khowst","name:ja":"ホースト州","name:pl":"Chost","name:ps":"خوست ولايت","name:ru":"Хост","name:tg":"Вилояти Хуст","name:tr":"Host","name:uk":"Хост","name:ur":"صوبہ خوست","boundary":"administrative","wikidata":"Q185752","ISO3166-2":"AF-KHO","wikipedia":"en:Khost Province","admin_level":"4","description":"Khost Province","is_in:country":"Afghanistan","is_in:continent":"Asia","is_in:country_code":"AF"}}},{"arcs":[[71,72,73,74]],"type":"Polygon","properties":{"srid":"4326","id":"1674607","name":"Kunar","localname":"کونړ","official_name":"","boundary":"adminstrative","admin_level":"4","note":"","wikidata":"Q188147","wikipedia":"en:Kunar Province","timestamp":"2018-08-01 11:14:15","rpath":"1674607,303427,0","alltags":{"name":"کونړ","is_in":"Afghanistan","name:ar":"كنر","name:cs":"Kunar","name:de":"Kunar","name:en":"Kunar","name:es":"Kunar","name:fa":"ولایت کنر","name:fr":"Kounar","name:hi":"कुनर प्रान्त","name:ja":"クナル州","name:lt":"Kunaro provincija","name:ps":"کونړ ولايت","name:ru":"Кунар","name:tr":"Kunar","name:uk":"Кунар","name:zh":"库纳尔省","boundary":"administrative","wikidata":"Q188147","ISO3166-2":"AF-KNR","wikipedia":"en:Kunar Province","admin_level":"4","description":"Province Kunar","long_name:ar":"ولاية كنر","is_in:country":"Afghanistan","is_in:continent":"Asia","is_in:country_code":"AF"}}},{"arcs":[[75,76,-11,-17]],"type":"Polygon","properties":{"srid":"4326","id":"1674564","name":"Kunduz","localname":"کندز","official_name":"","boundary":"adminstrative","admin_level":"4","note":"","wikidata":"Q186418","wikipedia":"en:Kunduz Province","timestamp":"2018-08-01 11:14:15","rpath":"1674564,303427,0","alltags":{"name":"کندز","is_in":"Afghanistan","name:de":"Kunduz","name:en":"Kunduz","name:es":"Provincia de Qundūz","name:fa":"ولایت کندز","name:fr":"Kondôz","name:ja":"クンドゥーズ州","name:lt":"Kundūzo provincija","name:ps":"کندوز ولايت","name:ru":"Кундуз","name:tg":"Вилояти Кундуз","name:uk":"Кундуз","boundary":"administrative","wikidata":"Q186418","ISO3166-2":"AF-KDZ","wikipedia":"en:Kunduz Province","admin_level":"4","is_in:country":"Afghanistan","is_in:continent":"Asia","is_in:country_code":"AF"}}},{"arcs":[[77,78,-75,79,-59,-67]],"type":"Polygon","properties":{"srid":"4326","id":"1674766","name":"Laghman","localname":"لغمان","official_name":"","boundary":"adminstrative","admin_level":"4","note":"","wikidata":"Q185442","wikipedia":"ps:لغمان ولايت","timestamp":"2018-08-01 11:14:15","rpath":"1674766,303427,0","alltags":{"name":"لغمان","is_in":"Afghanistan","name:ar":"لغمان","name:de":"Laghman","name:el":"Λαγκμάν","name:en":"Laghman","name:es":"Provincia de Laġmān","name:fa":"ولایت لغمان","name:fr":"Laghmân","name:hi":"लग़मान प्रान्त","name:ja":"ラグマーン州","name:lt":"Lagmano provincija","name:ps":"لغمان ولايت","name:ru":"Лагман","name:tg":"Вилояти Лағмон","name:uk":"Лагман","name:ur":"صوبہ لغمان","boundary":"administrative","wikidata":"Q185442","ISO3166-2":"AF-LAG","wikipedia":"ps:لغمان ولايت","admin_level":"4","description":"Laghman Province","long_name:ar":"ولاية لغمان","is_in:country":"Afghanistan","is_in:continent":"Asia","is_in:country_code":"AF"}}},{"arcs":[[80,-61,81,82,-42]],"type":"Polygon","properties":{"srid":"4326","id":"1674874","name":"Logar","localname":"لوګر","official_name":"","boundary":"adminstrative","admin_level":"4","note":"","wikidata":"Q6667298","wikipedia":"ps:لوگر ولايت","timestamp":"2018-08-01 11:14:15","rpath":"1674874,303427,0","alltags":{"name":"لوګر","is_in":"Afghanistan","name:ar":"ولاية لوكر","name:de":"Lugar","name:en":"Logar","name:es":"Provincia de Lawgar","name:fa":"ولایت لوگر","name:fr":"Lôgar","name:hi":"लोगर प्रान्त","name:ja":"ローガル州","name:lt":"Logaro provincija","name:nl":"Lowgar","name:ps":"لوگر ولايت","name:ru":"Логар","name:tr":"Lovgar","name:uk":"Логар","name:ur":"صوبہ لوگر","name:uz":"Luvgar","alt_name":"لوگ;لوګر","boundary":"administrative","wikidata":"Q6667298","ISO3166-2":"AF-LOG","wikipedia":"ps:لوگر ولايت","admin_level":"4","alt_name:en":"Logar Province","description":"Logar Province","is_in:country":"Afghanistan","is_in:continent":"Asia","is_in:country_code":"AF"}}},{"arcs":[[83,-62,-81,-41,-23]],"type":"Polygon","properties":{"srid":"4326","id":"1759757","name":"Maidan Wardak","localname":"ميدان وردگ","official_name":"","boundary":"adminstrative","admin_level":"4","note":"","wikidata":"Q183056","wikipedia":"en:Maidan Wardak Province","timestamp":"2018-08-01 11:14:15","rpath":"1759757,303427,0","alltags":{"name":"ميدان وردگ","is_in":"Afghanistan","name:ar":"وردك","name:de":"Wardak","name:el":"Βαρντάκ","name:en":"Maidan Wardak","name:es":"Provincia de Vardak","name:fa":"ولایت وردک","name:fr":"Wardak","name:ja":"ヴァルダク州","name:lt":"Vardako provincija","name:ps":"ميدان وردگ ولايت","name:ru":"Вардак","name:tg":"Вилояти Вардак","name:tr":"Vardak","name:uk":"Вардак","alt_name":"Wardak;Maidan Wardak;Maidan Wardak Province;Maidan Vardak;وردگ","boundary":"administrative","wikidata":"Q183056","ISO3166-2":"AF-WAR","wikipedia":"en:Maidan Wardak Province","admin_level":"4","description":"Wardak Province","long_name:ar":"ولاية وردك","is_in:country":"Afghanistan","is_in:continent":"Asia","is_in:country_code":"AF"}}},{"arcs":[[-80,-74,84,85,-82,-60]],"type":"Polygon","properties":{"srid":"4326","id":"1674770","name":"Nangarhar","localname":"ننگرهار","official_name":"","boundary":"adminstrative","admin_level":"4","note":"","wikidata":"Q178471","wikipedia":"ps:ننگرهار ولايت","timestamp":"2018-08-01 11:14:15","rpath":"1674770,303427,0","alltags":{"name":"ننگرهار","is_in":"Afghanistan","name:ar":"ننكرهار","name:de":"Nangarhar","name:en":"Nangarhar","name:es":"Provincia de Nangarhar","name:fa":"ولایت ننگرهار","name:fr":"Nangarhâr","name:ja":"ナンガルハール州","name:lt":"Nangarharo provincija","name:ps":"ننگرهار ولايت","name:ru":"Нангархар","name:uk":"Нангархар","name:ur":"صوبہ ننگرہار","alt_name":"Nangahar","boundary":"administrative","wikidata":"Q178471","ISO3166-2":"AF-NAN","wikipedia":"ps:ننگرهار ولايت","admin_level":"4","description":"Nangarhar Province","long_name:ar":"ولاية ننكرهار","is_in:country":"Afghanistan","is_in:continent":"Asia","is_in:country_code":"AF"}}},{"arcs":[[-35,-50,86]],"type":"Polygon","properties":{"srid":"4326","id":"1674664","name":"Nimruz","localname":"نیمروز","official_name":"","boundary":"adminstrative","admin_level":"4","note":"","wikidata":"Q183021","wikipedia":"en:Nimruz Province","timestamp":"2018-08-01 11:14:15","rpath":"1674664,303427,0","alltags":{"name":"نیمروز","is_in":"Afghanistan","name:ar":"نيمروز","name:de":"Nimrus","name:en":"Nimruz","name:es":"Provincia de Nimruz","name:fa":"ولایت نیمروز","name:fr":"Nimrôz","name:ja":"ニームルーズ州","name:lt":"Nimrūzas","name:ps":"نیمروز ولایت","name:ru":"Нимроз","name:uk":"Німроз","alt_name":"Nimruz Province;Nimroz","boundary":"administrative","wikidata":"Q183021","ISO3166-2":"AF-NIM","wikipedia":"en:Nimruz Province","admin_level":"4","description":"Nimruz Province","is_in:country":"Afghanistan","is_in:continent":"Asia","is_in:country_code":"AF"}}},{"arcs":[[-2,87,-72,-79,88]],"type":"Polygon","properties":{"srid":"4326","id":"1674544","name":"Nuristan","localname":"نورستان","official_name":"","boundary":"adminstrative","admin_level":"4","note":"","wikidata":"Q167485","wikipedia":"en:Nuristan Province","timestamp":"2018-08-01 11:14:15","rpath":"1674544,303427,0","alltags":{"name":"نورستان","is_in":"Afghanistan","name:ar":"نورستان","name:de":"Nuristan","name:el":"Νουρεστάν","name:en":"Nuristan","name:es":"Provincia de Nūristān","name:fa":"ولایت نورستان","name:fr":"Nouristan","name:ja":"ヌーリスターン州","name:lt":"Nuristano provincija","name:nl":"Nooristan","name:ps":"نورستان ولايت","name:ru":"Нуристан","name:tg":"Вилояти Нуристон","name:uk":"Нуристан","name:ur":"صوبہ نورستان","name:zh":"努尔斯坦省","alt_name":"Nurestan;Nooristan;Nurestan","boundary":"administrative","wikidata":"Q167485","ISO3166-2":"AF-NUR","wikipedia":"en:Nuristan Province","admin_level":"4","long_name:ar":"ولاية نورستان","is_in:country":"Afghanistan","is_in:continent":"Asia","is_in:country_code":"AF"}}},{"arcs":[[-83,-86,89,-69,90,-43]],"type":"Polygon","properties":{"srid":"4326","id":"1674882","name":"Paktia","localname":"پکتيا","official_name":"","boundary":"adminstrative","admin_level":"4","note":"","wikidata":"Q182493","wikipedia":"en:Paktia Province","timestamp":"2018-08-01 11:14:15","rpath":"1674882,303427,0","alltags":{"name":"پکتيا","is_in":"Afghanistan","name:ar":"بكتيا","name:de":"Paktia","name:el":"Πακτιά","name:en":"Paktia","name:es":"Provincia de Paktiyā","name:fa":"ولایت پکتیا","name:fr":"Paktiyâ","name:ja":"パクティヤー州","name:pl":"Paktija","name:ps":"پکتيا ولايت","name:ru":"Пактия","name:tg":"Вилояти Пактиё","name:uk":"Пактія","name:ur":"صوبہ پکتی","alt_name":"Paktyā;Paktiyā","boundary":"administrative","wikidata":"Q182493","ISO3166-2":"AF-PIA","wikipedia":"en:Paktia Province","admin_level":"4","description":"Paktia Province","long_name:ar":"ولاية بكتيا","is_in:country":"Afghanistan","is_in:continent":"Asia","is_in:country_code":"AF"}}},{"arcs":[[-91,-71,91,92,-44]],"type":"Polygon","properties":{"srid":"4326","id":"1675047","name":"Paktika","localname":"پکتیکا","official_name":"","boundary":"adminstrative","admin_level":"4","note":"","wikidata":"Q185575","wikipedia":"en:Paktika Province","timestamp":"2018-08-01 11:14:15","rpath":"1675047,303427,0","alltags":{"name":"پکتیکا","is_in":"Afghanistan","name:ar":"بكتيكا","name:de":"Paktika","name:el":"Πακτικά","name:en":"Paktika","name:es":"Provincia de Paktīkā","name:fa":"ولایت پکتیکا","name:fr":"Paktîkâ","name:ja":"パクティーカー州","name:ps":"پکتيکا ولايت","name:ru":"Пактика","name:uk":"Пактика","alt_name":"پکتیکا","boundary":"administrative","wikidata":"Q185575","ISO3166-2":"AF-PKA","wikipedia":"en:Paktika Province","admin_level":"4","description":"Paktika Province","long_name:ar":"ولاية بكتيكا","is_in:country":"Afghanistan","is_in:continent":"Asia","is_in:country_code":"AF"}}},{"arcs":[[-13,93,-3,-89,-78,-66,94]],"type":"Polygon","properties":{"srid":"4326","id":"1675032","name":"Panjshir","localname":"پنجشیر","official_name":"","boundary":"adminstrative","admin_level":"4","note":"","wikidata":"Q181235","wikipedia":"ps:پنجشېر ولايت","timestamp":"2018-08-01 11:14:15","rpath":"1675032,303427,0","alltags":{"name":"پنجشیر","is_in":"Afghanistan","name:ar":"بانشير","name:de":"Pandschschir","name:el":"Παντζσίρ","name:en":"Panjshir","name:es":"Provincia de Panjshīr","name:fr":"Pandjchir","name:ja":"パンジシール州","name:lt":"Pandžširo provincija","name:pl":"Pandższir","name:ru":"Панджшер","name:uk":"Панджшер","boundary":"administrative","wikidata":"Q181235","ISO3166-2":"AF-PAN","wikipedia":"ps:پنجشېر ولايت","admin_level":"4","description":"Panjshir Province","long_name:ar":"ولاية بانشير","is_in:country":"Afghanistan","is_in:continent":"Asia","is_in:country_code":"AF"}}},{"arcs":[[-14,-95,-68,-57,-84,-22]],"type":"Polygon","properties":{"srid":"4326","id":"1674782","name":"Parwan","localname":"پروان","official_name":"","boundary":"adminstrative","admin_level":"4","note":"","wikidata":"Q188157","wikipedia":"en:Parwan Province","timestamp":"2018-08-01 11:14:15","rpath":"1674782,303427,0","alltags":{"name":"پروان","is_in":"Afghanistan","name:ar":"بروان","name:cs":"Parván","name:de":"Parwan","name:el":"Παρβάν","name:en":"Parwan","name:es":"Parwān","name:fa":"ولایت پروان","name:fr":"Parwân","name:it":"Parvan","name:ja":"パルヴァーン州","name:lt":"Parvano provincija","name:ps":"پروان ولايت","name:pt":"Parwan","name:ru":"Парван","name:tg":"Вилояти Парвон","name:tr":"Parvan","name:uk":"Парван","name:ur":"صوبہ پروان","name:zh":"帕尔旺省","alt_name":"Parvān;Perwan;پروان","boundary":"administrative","wikidata":"Q188157","ISO3166-2":"AF-PAR","wikipedia":"en:Parwan Province","admin_level":"4","description":"Parwan","long_name:ar":"ولاية بروان","is_in:country":"Afghanistan","is_in:continent":"Asia","is_in:country_code":"AF"}}},{"arcs":[[95,-18,-9,-21]],"type":"Polygon","properties":{"srid":"4326","id":"1674791","name":"Samangan","localname":"سمنگان‎","official_name":"","boundary":"adminstrative","admin_level":"4","note":"","wikidata":"Q183015","wikipedia":"en:Samangan Province","timestamp":"2018-08-01 11:14:15","rpath":"1674791,303427,0","alltags":{"name":"سمنگان‎","is_in":"Afghanistan","name:ar":"ولاية سمنكان","name:de":"Samangan","name:el":"Σαμανγκάν","name:en":"Samangan","name:es":"Samangān","name:fa":"ولایت سمنگان","name:fr":"Samangân","name:it":"Samangan","name:ja":"サマンガーン州","name:lt":"Samangano provincija","name:ps":"سمنگان ولايت","name:ru":"Саманган","name:tg":"Вилояти Самангон","name:uk":"Саманган","boundary":"administrative","wikidata":"Q183015","ISO3166-2":"AF-SAM","wikipedia":"en:Samangan Province","admin_level":"4","description":"Samangan Province","is_in:country":"Afghanistan","is_in:continent":"Asia","is_in:country_code":"AF"}}},{"arcs":[[-56,-19,-96,-27,-48,-39]],"type":"Polygon","properties":{"srid":"4326","id":"1674994","name":"Sar-e Pol","localname":"سرپل","official_name":"","boundary":"adminstrative","admin_level":"4","note":"","wikidata":"Q182487","wikipedia":"en:Sar-e Pol Province","timestamp":"2018-08-01 11:14:15","rpath":"1674994,303427,0","alltags":{"name":"سرپل","is_in":"Afghanistan","name:ar":"ولاية سربل","name:de":"Sar-i Pul","name:en":"Sar-e Pol","name:es":"Provincia de Sar-e Pul","name:fa":"ولایت سرپل","name:fr":"Sar-é Pol","name:ja":"サーレポル州","name:lt":"Sari Pulio provincija","name:ps":"سرپل ولايت","name:ru":"Сари-Пуль","name:tg":"Вилояти Сарипул","name:tr":"Sar-i Pol","name:uk":"Сарі-Пуль","boundary":"administrative","wikidata":"Q182487","ISO3166-2":"AF-SAR","wikipedia":"en:Sar-e Pol Province","population":"87670","admin_level":"4","description":"ولایت سرپل","is_in:country":"Afghanistan","is_in:continent":"Asia","is_in:country_code":"AF"}}},{"arcs":[[96,-4,-94,-12,-77]],"type":"Polygon","properties":{"srid":"4326","id":"1674541","name":"Takhar","localname":"تخار‎‎","official_name":"","boundary":"adminstrative","admin_level":"4","note":"","wikidata":"Q186395","wikipedia":"en:Takhar Province","timestamp":"2018-08-01 11:14:15","rpath":"1674541,303427,0","alltags":{"name":"تخار‎‎","is_in":"Afghanistan","name:de":"Tachar","name:el":"Ταχάρ","name:en":"Takhar","name:es":"Provincia de Tahār","name:fa":"تخار","name:fr":"Takhâr","name:ja":"タハール州","name:lt":"Tacharo provincija","name:pl":"Tachar","name:ps":"تخار ولايت","name:ru":"Тахар","name:tg":"Вилояти Тахор","name:tr":"Tahar","name:uk":"Тахар","alt_name":"Takhar Province","boundary":"administrative","wikidata":"Q186395","ISO3166-2":"AF-TAK","wikipedia":"en:Takhar Province","admin_level":"4","is_in:country":"Afghanistan","is_in:continent":"Asia","is_in:country_code":"AF"}}},{"arcs":[[-30,-46,97,-63,-51]],"type":"Polygon","properties":{"srid":"4326","id":"1674993","name":"Urōzgān","localname":"روزگان","official_name":"","boundary":"adminstrative","admin_level":"4","note":"","wikidata":"Q183028","wikipedia":"en:Urozgan Province","timestamp":"2018-08-01 11:14:15","rpath":"1674993,303427,0","alltags":{"name":"روزگان","is_in":"Afghanistan","name:ar":"أروزكان","name:de":"Urusgan","name:el":"Ουροζγκάν","name:en":"Urōzgān","name:es":"Provincia de Urūzgān","name:fa":"ولایت اروزگان","name:fr":"Orozgân","name:ja":"ウルーズガーン州","name:pl":"Oruzgan","name:ps":"روزگان ولايت","name:ru":"Урузган","name:tg":"Вилояти Урӯзгон","name:tr":"Uruzgan","name:uk":"Урузган","alt_name":"Orūzgān;Orozgan;Rozgan;Uruzgan","boundary":"administrative","wikidata":"Q183028","ISO3166-2":"AF-URU","wikipedia":"en:Urozgan Province","admin_level":"4","description":"Orūzgān Province","long_name:ar":"ولاية أروزكان","is_in:country":"Afghanistan","is_in:continent":"Asia","is_in:country_code":"AF"}}},{"arcs":[[-98,-45,-93,98,-64]],"type":"Polygon","properties":{"srid":"4326","id":"1674841","name":"Zabul","localname":"زابل","official_name":"","boundary":"adminstrative","admin_level":"4","note":"","wikidata":"Q139126","wikipedia":"en:Zabul Province","timestamp":"2018-08-01 11:14:15","rpath":"1674841,303427,0","alltags":{"name":"زابل","is_in":"افغانستان","name:ar":"زابل","name:de":"Zabul","name:el":"Ζαμπούλ","name:en":"Zabul","name:es":"Provincia de Zābul","name:fa":"ولایت زاب","name:fr":"Zabol","name:ja":"ザーブル州","name:pl":"Zabol","name:ps":"زابل ولايت","name:pt":"Zabol","name:ru":"Забуль","name:tr":"Zabul","name:uk":"Забуль","name:ur":"صوبہ زاب","alt_name":"زابل","boundary":"administrative","wikidata":"Q139126","ISO3166-2":"AF-ZAB","wikipedia":"en:Zabul Province","admin_level":"4","description":"ولایت زاب","is_in:country":"Afghanistan","is_in:continent":"Asia","is_in:country_code":"AF"}}}]}}}