{"type":"Topology","arcs":[[[18153,24135],[43,41],[15,32],[106,128],[41,33],[79,12],[29,-22],[77,-33],[83,37],[19,34],[-8,27],[79,10],[33,-19],[51,-1],[18,-22],[69,0],[-2,37],[25,24],[52,15],[-1,32],[35,47],[0,26],[18,51],[-32,-10],[-40,13],[-15,28],[61,64],[25,14],[135,20],[20,16],[155,9],[73,-41],[76,-79],[51,-41],[65,-35],[15,-29],[95,-101],[106,-77],[82,-79],[108,-161],[64,-37],[16,-31],[30,-29],[28,-44],[44,-44],[60,-28],[20,7],[10,33],[38,-6],[54,8],[64,30],[51,-6],[71,22],[63,-26],[6,-15],[82,-83],[78,-54],[12,-19],[85,-4],[16,41],[32,32],[106,26],[39,-14],[132,11],[71,-30],[10,-15],[79,-65],[-1,-22],[39,-50],[66,-35],[34,-63],[29,-28],[59,-27],[61,-39],[41,-45],[41,-70],[36,-34],[20,-49],[113,-132],[108,-60],[59,-54],[29,-68],[61,-48],[64,-34],[107,-74],[88,-4],[43,-27],[36,-66],[58,-38],[28,-35],[47,-33],[17,-30],[27,-8],[31,-34],[58,-15],[35,-43],[103,-78],[84,-81],[102,-121],[29,-43],[20,-5],[101,-157],[15,-35],[54,-52],[21,-74],[1,-33],[27,-32],[15,-46],[25,-40],[-9,-31],[30,-60],[19,-17],[-4,-37],[14,-75],[57,-84],[34,-97],[13,-66],[-7,-129],[17,-53],[27,-42],[62,-45],[-4,-35],[13,-43],[-12,-20],[-9,-106],[25,-55],[4,-28],[-29,-29],[-22,-52],[23,-62],[-2,-25],[-48,-37],[-33,-53],[-14,-65],[11,-58],[-42,-47],[-73,-47],[-16,-31],[17,-102],[21,-64],[8,-103],[29,-71],[-27,-75],[-2,-37],[-73,-57],[-32,-52],[1,-72],[28,-65],[60,-58],[47,-26],[-38,-69],[7,-38],[-14,-18],[18,-60],[1,-36],[32,-19],[5,-31],[45,-15],[8,-26],[39,-7],[39,-24],[4,-19],[-54,-42],[-53,25],[-62,87],[-100,77],[-144,62],[-50,9],[-51,28],[-47,3],[-74,26],[-104,-1],[-53,9],[-138,12],[-25,8],[-56,-3],[-80,-59],[-37,-14],[-42,-38],[-38,-78],[-4,-23],[-62,-56],[-25,-40],[-33,-29],[19,126],[2,51],[-9,53],[-55,133],[-33,53],[-107,154],[-58,61],[-142,106],[-79,45],[-176,78],[-116,37],[-147,11],[-108,-7],[-32,7],[-53,34],[-137,46],[-53,67],[-88,81],[-52,19],[-213,98],[-107,35],[-94,77],[-100,34],[-63,48],[-73,8],[-57,42],[-118,-3],[-59,15],[-138,16],[-41,1],[-153,-26],[-126,-46],[-163,-67],[-173,-78],[-111,-67],[-40,-31],[-83,-75],[-48,-35],[-51,-7],[-78,28],[-35,42],[-31,70],[-1,117],[21,98],[42,121],[30,46],[12,47],[96,207],[55,130],[21,42],[11,58],[9,116],[51,140],[38,160],[6,59],[-13,106],[-12,44],[-34,66],[-26,92],[-9,135],[-39,173],[-16,85],[-20,64],[-44,118],[-23,48],[-40,62],[-56,53],[-163,103],[-46,48],[-28,66],[-27,134],[-43,125],[-75,135],[-59,40],[-79,114],[-179,118],[-89,44],[-136,75],[-154,78],[-13,32],[55,56],[78,66],[132,61],[74,56],[47,45],[47,68],[29,27]],[[28,367],[72,-1],[56,-28],[50,-38],[-5,-22],[4,-73],[33,-42],[-32,-7],[-9,-61],[-27,-38],[-40,-36],[-60,-21],[-55,18],[-15,23],[12,87],[21,59],[3,44],[-19,70],[1,51],[10,15]]],"transform":{"scale":[0.00002607469141021316,0.00003215315198966827],"translate":[-62.3482342,16.9322964]},"objects":{"ag_slim":{"type":"GeometryCollection","geometries":[{"arcs":[[0]],"type":"Polygon","properties":{"srid":"4326","id":"7742426","name":"Barbuda","localname":"Barbuda","official_name":"","boundary":"adminstrative","admin_level":"4","note":"","wikidata":"Q238752","wikipedia":"en:Barbuda","timestamp":"2019-01-23 03:58:01","rpath":"7742426,536900,0","alltags":{"ref":"AG-10","name":"Barbuda","name:ar":"باربودا","name:be":"Барбу́да","name:br":"Barbuda","name:ca":"Barbuda","name:cs":"Barbuda","name:cy":"Barbiwda","name:de":"Barbuda","name:el":"Μπαρμπούντα","name:en":"Barbuda","name:eo":"Barbudo","name:es":"Barbuda","name:et":"Barbuda","name:eu":"Barbuda","name:fa":"بارابودا","name:fi":"Barbuda","name:fr":"Barbuda","name:gl":"Barbuda","name:he":"ברבודה","name:hi":"बारबूडा","name:hu":"Barbuda","name:id":"Barbuda","name:it":"Barbuda","name:ja":"バーブーダ島","name:ko":"바부다 섬","name:la":"Barbuda","name:lt":"Barbuda","name:mk":"Барбуда","name:ml":"ബാർബുഡ","name:nl":"Barbuda","name:no":"Barbuda","name:oc":"Barbuda","name:pl":"Barbuda","name:pt":"Barbuda","name:ro":"Barbuda","name:ru":"Барбу́да","name:sr":"Барбуда","name:sv":"Barbuda","name:ta":"பர்புடா","name:th":"บาร์บูดา","name:tl":"Barbuda","name:tr":"Barbuda","name:uk":"Барбу́да","name:ur":"باربوڈا","name:vi":"Barbuda","name:yo":"Bàrbúdà","name:zh":"巴布達島","boundary":"administrative","maritime":"yes","name:ceb":"Barbuda","name:lmo":"Barbuda","name:pms":"Barbuda","name:sco":"Barbuda","name:xmf":"ბარბუდა","name:yue":"巴布達島","wikidata":"Q238752","ISO3166-2":"AG-10","wikipedia":"en:Barbuda","admin_level":"4"}}},{"arcs":[[1]],"type":"Polygon","properties":{"srid":"4326","id":"7742427","name":"Redonda","localname":"Redonda","official_name":"","boundary":"adminstrative","admin_level":"4","note":"","wikidata":"Q457261","wikipedia":"en:Redonda","timestamp":"2019-01-23 03:58:01","rpath":"7742427,536900,0","alltags":{"ref":"AG-11","name":"Redonda","name:be":"Рэдо́нда","name:br":"Redonda","name:ca":"Redonda","name:cs":"Redonda","name:de":"Redonda","name:el":"Ρεντόντα","name:en":"Redonda","name:eo":"Redondo","name:es":"Redonda","name:et":"Redonda","name:eu":"Redonda","name:fi":"Redonda","name:fr":"Redonda","name:ga":"Redonda","name:gl":"Redonda","name:he":"רדונדה","name:hi":"रेडोन्डा","name:hu":"Redonda","name:it":"Redonda","name:ja":"レドンダ島","name:kk":"Редонда","name:ko":"레돈다 섬","name:la":"Redonda","name:lt":"Redonda","name:mk":"Редонда","name:nl":"Redonda","name:no":"Redonda","name:pl":"Redonda","name:pt":"Redonda","name:ro":"Redonda","name:ru":"Редо́нда","name:sr":"Редонда","name:sv":"Redonda","name:tl":"Redonda","name:uk":"Редо́нда","name:ur":"ریدوندا","name:vi":"Redonda","name:zh":"雷东达岛","boundary":"administrative","maritime":"yes","name:ast":"Redonda","name:ceb":"Redonda","wikidata":"Q457261","ISO3166-2":"AG-11","wikipedia":"en:Redonda","admin_level":"4"}}}]}}}