{"type":"Topology","arcs":[[[2927,3605],[-8,-8],[-176,7],[-107,-32],[-31,-76],[-129,-8],[-24,-56],[-46,-4],[-109,-79],[-48,16],[-30,67],[-37,44]],[[2182,3476],[6,86],[58,20],[-22,41],[-126,114],[-13,47],[-50,9],[-144,-41],[-64,34]],[[1827,3786],[31,83],[-17,57],[-76,-16],[24,67],[104,129],[18,51],[58,-3],[11,136],[35,82],[-7,111],[34,100],[-44,95],[-29,21],[-80,102],[-42,86],[7,93]],[[1854,4980],[68,14],[86,-36],[19,29],[55,1],[41,-38],[85,-29],[101,-15],[49,-22],[110,11]],[[2468,4895],[50,-68]],[[2518,4827],[-8,-228],[82,-38],[29,-69],[15,-101],[104,-76],[-43,-57],[6,-54],[33,-92],[18,-243],[28,-57],[13,-98],[33,-50],[54,-13],[45,-46]],[[2182,3476],[-26,-5],[-43,-88],[-57,-13],[-37,-48],[-58,42],[-94,31],[-50,61]],[[1817,3456],[-14,54],[-7,120],[-16,46]],[[1780,3676],[47,110]],[[1634,3180],[-111,44],[-48,0],[-143,-59],[-88,19],[-68,0],[-54,-18],[-115,11],[-68,-41],[-54,22],[-57,-8],[-68,55],[-65,17],[-2,31],[-67,24],[-48,39],[-61,-15],[-91,48],[-41,44],[-14,51],[24,61],[96,18],[-32,80],[-79,94],[47,6],[9,33],[-21,65]],[[415,3801],[78,6],[34,38],[44,7],[56,-29],[160,-21],[58,-69],[67,-50],[78,-27],[171,-41],[165,-5],[23,18],[-10,165],[33,-5],[43,-45],[45,13],[30,39],[88,-30],[202,-89]],[[1817,3456],[-74,14],[-50,-19],[-29,16],[-56,-33],[-7,-35],[46,-91],[-13,-128]],[[415,3801],[-58,19],[-11,59],[-82,137],[16,69],[38,70],[0,63],[-42,50]],[[276,4268],[107,26],[124,127],[70,7],[68,28],[68,-35],[80,17],[61,-38],[51,0],[56,35],[66,-11],[43,-49],[75,18],[100,-11],[124,60],[10,56],[-42,53],[-2,78],[22,63],[-88,14],[-7,81],[-56,95],[5,78],[61,63],[94,14],[8,92]],[[1374,5129],[49,7],[105,-41],[87,-52],[29,11],[97,-58],[19,-52],[32,-1],[62,37]],[[276,4268],[-94,103],[22,43],[97,51],[31,63],[33,19],[-3,47],[79,82],[53,120],[20,72],[38,30],[3,147],[-76,238],[-53,65],[-16,182],[3,64],[-136,125],[-63,25],[-69,51],[-77,12],[-29,38],[6,99],[-45,83],[21,56],[131,37],[71,31],[53,-42],[161,12],[122,-66],[79,79],[88,59],[71,8],[108,33],[46,-30],[90,55],[41,8]],[[1082,6267],[-26,-78],[2,-152],[22,-28],[85,-35],[22,-70],[46,-43],[-5,-98],[39,-25],[68,11],[29,-18],[-32,-85],[-48,-49],[0,-42],[-44,-46],[-65,-13],[-61,-47],[-17,-39],[7,-126],[39,-78],[61,11],[56,-28],[2,-50],[85,7],[27,-17]],[[1082,6267],[76,20],[90,-27],[68,8],[44,145],[56,-27],[38,16],[63,-70],[84,0],[53,-28],[-1,64],[77,-13],[45,-53],[120,-53],[64,36],[30,51],[43,-49],[42,22],[41,-29],[16,102],[21,24],[55,-19],[33,11],[70,-60],[42,27],[45,-14],[78,1],[44,-18],[126,-26],[33,20]],[[2678,6328],[-4,-41],[-54,-20],[-38,-41],[30,-38],[106,-56],[53,-55],[7,-69],[-28,-58],[-140,-58],[-77,-13],[-23,-56],[9,-65],[49,-44],[70,-12],[70,-41],[17,-78],[-33,0],[-38,-47],[-8,-124],[-61,-81],[-142,-109],[-12,-48],[64,-59],[-40,-38],[-1,-45],[68,-66],[-54,-71]],[[3078,2727],[-55,-44],[-35,-83],[-7,-70]],[[2981,2530],[-33,2],[-22,-49],[-47,-24],[-7,-33],[-47,-17],[-72,-47],[-43,2],[-57,56],[-64,-32],[-148,-48],[-47,-5],[-4,72],[-41,-4],[-22,75],[-108,68],[-61,82],[-44,-6],[-6,94],[-50,29],[-27,46],[7,36],[-32,54],[-31,0],[-72,123],[-45,9],[-68,79],[-72,10],[-54,64],[-30,14]],[[2927,3605],[11,-22],[-27,-158],[0,-82],[155,-262],[-2,-123],[11,-92],[-11,-104],[14,-35]],[[3890,4826],[-27,-79],[-40,-18],[-9,-50],[-51,12],[-22,115],[50,70],[52,3],[47,-53]],[[3962,3106],[-133,19],[-14,-47],[-43,-38],[-92,-26],[-211,-12],[-174,-70],[-96,-82],[-76,-95],[-45,-28]],[[2518,4827],[82,4],[21,28],[91,64],[145,-54],[87,8],[40,23],[114,114],[44,30],[104,26],[110,-28],[58,-31],[93,-98],[43,-12]],[[3550,4901],[-22,-60],[64,-66],[-19,-30],[34,-52],[31,8],[67,-55],[-42,-50],[4,-115],[26,-54],[50,-22],[58,-96],[88,-72],[56,6],[26,-45],[62,-48],[27,-77],[83,0],[72,-34],[91,-68],[158,-56],[43,-42],[65,13],[54,-57],[2,-113],[32,-29],[1,-86],[-14,-72],[-30,-76],[13,-31],[-74,-22],[-33,-29],[15,-77],[-58,-146],[-52,-15],[-34,-67],[-69,94],[-29,-7],[-77,22],[-74,-17],[-34,25],[-36,-31],[-72,-4],[-41,-42]],[[4359,2724],[-50,-36],[-75,-109],[-37,-73],[-5,-80],[21,-71],[-30,-107],[0,-51],[-51,-143],[12,-22]],[[4144,2032],[-46,-48],[-32,-7],[-59,-51],[-60,18],[-34,-18],[-25,-54],[-43,0],[-13,-41],[-67,-43],[-37,-56],[-48,31],[-20,58],[-65,32],[-106,16],[-25,46],[-32,11],[-20,47],[10,83],[-116,-1],[-31,-22],[-24,-57],[-75,30],[3,91],[23,58],[-24,40],[26,34],[-74,94],[-48,128],[-77,74],[-24,5]],[[3962,3106],[23,-83],[72,6],[93,-22],[61,-56],[85,-1],[35,-29],[11,-48],[-30,-31],[43,-82],[4,-36]],[[2678,6328],[-65,20],[-35,31],[-46,4],[-30,49],[2,99],[45,30],[38,-66],[85,1],[27,-45],[88,-1],[31,64],[67,41],[52,-94],[18,-58],[-12,-64],[11,-60],[88,-6],[51,23],[100,-92],[29,3],[9,-75],[-53,-50],[-43,-15],[-94,17],[-45,-62],[2,-75],[-18,-41],[87,5],[35,21],[-2,84],[49,-25],[16,-94],[29,5],[61,-36],[8,-35],[58,-31],[52,59],[36,-23],[27,-66],[102,15],[50,39],[52,-2],[30,-26],[-61,-70],[38,-70],[48,24],[41,-104],[48,-8],[70,-76],[113,-42],[11,-85],[-29,-79],[-85,-125],[-74,-13],[-29,-40],[-110,-22],[-63,-81],[15,-36],[-46,-27],[-7,-41]],[[2944,5943],[-77,78],[-58,-16],[-23,-73],[54,-16],[41,-62],[42,14],[21,75]],[[3286,5776],[-48,26],[-42,-33],[22,-30],[66,-37],[2,74]],[[4359,2724],[21,-96],[78,-19],[133,-84],[52,12],[68,-107],[40,-21],[13,-54],[35,-22],[49,-82],[29,7],[64,-86],[45,-12],[30,-96],[45,-34],[99,-3],[156,93],[68,1],[39,-47],[37,32],[16,-89],[-16,-45],[39,-31],[101,48],[60,-7],[83,-33],[29,-59],[-15,-23],[-117,-43],[-9,-113],[-46,-32],[-41,-57],[-48,19],[-74,-3],[-12,-144],[14,-49],[101,-117],[42,-21],[42,12],[81,-72],[-33,-28],[50,-103],[42,-11],[37,-54],[-25,-50],[-17,-77],[-42,-33],[-54,49],[-40,-26],[-57,40],[-55,-25],[15,-52],[85,-85],[31,-91],[51,-27],[18,-85],[-9,-68],[19,-90],[-50,-22],[8,-66],[-27,-22],[7,-70],[45,-82],[-20,-54],[-112,9],[-62,15],[-17,-30],[-52,55],[-57,34],[-49,-2],[-35,-37],[-64,-3],[-64,-71],[-59,-26],[-53,-56],[-78,-3],[0,158],[-28,35],[-5,57],[-32,48],[-15,166],[-45,38],[-13,128],[-71,39],[-27,60],[17,29],[-67,199],[-5,120],[33,30],[-12,93],[-50,11],[-111,91],[-26,6],[-65,66],[-94,12],[-32,21],[20,158],[22,4],[41,103],[-45,44],[22,54],[-9,59],[-40,118],[-40,39],[-78,16],[-68,30]]],"transform":{"scale":[0.0005431305910819218,0.00037439599146471596],"translate":[43.4471395,38.84219890000001]},"objects":{"admin_level_4":{"type":"GeometryCollection","geometries":[{"arcs":[[0,1,2,3,4,5]],"type":"Polygon","properties":{"name":"Կոտայք","name:de":"Kotajk","name:en":"Kotayk","name:hy":"Կոտայք","name:ja":"コタイク","name:ru":"Котайк","boundary":"administrative","wikidata":"Q4511","ISO3166-2":"AM-KT","admin_level":"4"},"id":364084},{"arcs":[[6,7,8,-2]],"type":"Polygon","properties":{"name":"Երևան","is_in":"Armenia","place":"city","capital":"yes","name:am":"ዬሬቫን","name:an":"Erevan","name:ar":"يريفان","name:az":"İrəvan","name:be":"Ерэван","name:bg":"Ереван","name:bn":"ইয়েরেভান","name:bo":"ཡེ་རེ་ཝན།","name:br":"Yerevan","name:bs":"Erevan","name:ca":"Erevan","name:ce":"Ереван","name:cs":"Jerevan","name:cv":"Ереван","name:cy":"Yerevan","name:da":"Jerevan","name:de":"Jerewan","name:el":"Γιερεβάν","name:en":"Yerevan","name:eo":"Erevano","name:es":"Ereván","name:et":"Jerevan","name:eu":"Erevan","name:fa":"ایروان","name:fi":"Jerevan","name:fr":"Erevan","name:fy":"Jerevan","name:ga":"Eireaván","name:gd":"Yerevan","name:gl":"Iereván - Երեվան","name:gv":"Yerevan","name:he":"ירוואן","name:hr":"Erevan","name:ht":"Erevàn","name:hu":"Jereván","name:hy":"Երևան","name:id":"Yerevan","name:ie":"Jerevan","name:io":"Yerevan","name:is":"Jerevan","name:it":"Yerevan","name:ja":"エレバン","name:jv":"Yerevan","name:ka":"ერევანი","name:kk":"Ереван","name:ko":"예레반","name:ku":"Êrîvan","name:kv":"Ереван","name:ky":"Ереван","name:la":"Erevanum","name:lb":"Eriwan","name:lt":"Jerevanas","name:lv":"Erevāna","name:mi":"Yerevan","name:mk":"Ереван","name:mn":"Ереван","name:mr":"येरेव्हान","name:ms":"Yerevan","name:ne":"येरवान प्रान्त","name:nl":"Jerevan","name:nn":"Jerevan","name:no":"Jerevan","name:oc":"Erevan","name:os":"Ереван","name:pl":"Erywań","name:pt":"Erevan","name:qu":"Yiriwan","name:ro":"Erevan","name:ru":"Ереван","name:rw":"Yerevan","name:sa":"येरेवान","name:sh":"Erevan","name:sk":"Jerevan","name:sl":"Erevan","name:sq":"Jerevani","name:sr":"Јереван","name:su":"Yérévan","name:sv":"Jerevan","name:sw":"Yerevan","name:ta":"யெரெவான்","name:tg":"Ереван","name:th":"เยเรวาน","name:tl":"Yerevan","name:tr":"Erivan","name:tt":"Ереван","name:ug":"يېرېۋان","name:uk":"Єреван","name:ur":"یریوان","name:uz":"Yerevan","name:vi":"Yerevan","name:vo":"Yerevan","name:yi":"יערעוואן","name:yo":"Yerevan","name:zh":"葉里溫","boundary":"administrative","int_name":"Yerevan","name:ckb":"یەریڤان","name:diq":"Yerêvan","name:frp":"Yèrèvan","name:gag":"Erivan","name:hif":"Yerevan","name:hsb":"Jerjewan","name:ilo":"Yerevan","name:lad":"Djerevan","name:lez":"Ереван","name:lij":"Erevan","name:lmo":"Erevan","name:mdf":"Ереван ошсь","name:mhr":"Ереван","name:myv":"Ереван ош","name:mzn":"ایروان","name:nah":"Erevan","name:nov":"Yerevan","name:pms":"Erevan","name:pnb":"یریوان","name:sah":"Ереван","name:scn":"Erevan","name:sco":"Yerevan","name:udm":"Ереван","name:vec":"Èrevan","name:vep":"Jerevan","name:war":"Yerevan","name:xmf":"ერევანი","name:zea":"Jerevan","ISO3166-2":"AM-ER","wikipedia":"en:Yerevan","admin_level":"4","name:simple":"Yerevan","name:fiu-vro":"Jerevan","name:be-tarask":"Ерэван","is_in:continent":"Asia"},"id":364087},{"arcs":[[9,10,-8,11]],"type":"Polygon","properties":{"name":"Արմավիր","name:de":"Armawir","name:en":"Armavir","name:hy":"Արմավիր","name:ja":"アルマヴィル","name:pl":"Armawir","name:ru":"Армавир","boundary":"administrative","wikidata":"Q201147","ISO3166-2":"AM-AV","admin_level":"4"},"id":364086},{"arcs":[[-9,-11,12,13,14,-3]],"type":"Polygon","properties":{"name":"Արագածոտնի մարզ","name:de":"Aragatsotn","name:en":"Aragatsotn region","name:hy":"Արագածոտնի մարզ","name:ja":"アラガツォトゥン","name:ru":"Арагацотн","boundary":"administrative","wikidata":"Q17915","ISO3166-2":"AM-AG","admin_level":"4"},"id":3917110},{"arcs":[[15,16,-14]],"type":"Polygon","properties":{"name":"Շիրակ","name:en":"Shirak","name:hy":"Շիրակ","name:ja":"シラク","name:ru":"Ширак","boundary":"administrative","wikidata":"Q201063","ISO3166-2":"AM-SH","admin_level":"4","is_in:country_code":"AM"},"id":364077},{"arcs":[[-4,-15,-17,17,18]],"type":"Polygon","properties":{"name":"Լոռի","name:en":"Lori","name:hy":"Լոռի","name:ja":"ロリ","name:ru":"Лори","boundary":"administrative","wikidata":"Q200350","ISO3166-2":"AM-LO","admin_level":"4","is_in:country_code":"AM"},"id":364078},{"arcs":[[19,20,-12,-7,-1,21]],"type":"Polygon","properties":{"name":"Արարատ","name:de":"Ararat","name:en":"Ararat","name:hy":"Արարատ","name:ja":"アララト","name:lt":"Araratas","name:ru":"Арарат","boundary":"administrative","int_name":"Ararat","wikidata":"Q199880","ISO3166-2":"AM-AR","admin_level":"4"},"id":364083},{"arcs":[[[22]],[[23,-22,-6,24,25]]],"type":"MultiPolygon","properties":{"name":"Գեղարքունիք","name:cs":"Gegharkunik","name:de":"Gegharkunik","name:en":"Gegharkunik","name:hy":"Գեղարքունիք","name:ja":"ゲガルクニク","name:ru":"Гегархуник","boundary":"administrative","int_name":"Gegharkunik","wikidata":"Q199905","ISO3166-2":"AM-GR","admin_level":"4"},"id":364080},{"arcs":[[26,27,-20,-24,28]],"type":"Polygon","properties":{"name":"Վայոց Ձոր","name:de":"Wajoz Dsor","name:en":"Vayots Dzor","name:hy":"Վայոց Ձոր","name:ja":"ヴァヨツ・ゾル","name:ru":"Вайотс Дзор","boundary":"administrative","wikidata":"Q200124","ISO3166-2":"AM-VD","admin_level":"4"},"id":364081},{"arcs":[[-25,-5,-19,29],[30],[31]],"type":"Polygon","properties":{"name":"Տավուշ","name:cs":"Tavuš","name:de":"Tawusch","name:en":"Tavush","name:hy":"Տավուշ","name:ja":"タヴシュ","name:ru":"Тавуш","boundary":"administrative","wikidata":"Q201140","ISO3166-2":"AM-TV","admin_level":"4","is_in:country_code":"AM"},"id":364079},{"arcs":[[-27,32]],"type":"Polygon","properties":{"name":"Սյունիք","name:en":"Syunik","name:hy":"Սյունիք","name:ja":"シュニク","name:ru":"Сюник","boundary":"administrative","ISO3166-2":"AM-SU","wikipedia":"ru:Сюникская область","admin_level":"4"},"id":364082}]}}}