{"type":"Topology","arcs":[[[2249,8050],[-52,30],[-55,-50],[-26,13],[-9,40],[-35,7],[-36,80],[-2,62],[-41,21],[72,107],[6,51],[-56,38],[-38,-9],[23,123]],[[2000,8563],[102,-40],[8,70],[37,9],[136,-42],[25,-23],[43,25],[79,1]],[[2430,8563],[-9,-45],[7,-91],[-23,5],[-33,-93],[-27,-52],[-11,-50],[-42,-44],[6,-80],[-14,-43],[-35,-20]],[[2088,6879],[-56,0],[-48,-22],[-52,-8],[-83,21]],[[1849,6870],[-38,33],[-19,52],[-22,0],[-41,75],[-4,66],[11,73],[-53,65],[-28,15],[-51,71],[-4,32],[-82,66],[-81,87],[-65,39],[-96,8],[-56,-6],[9,56],[-7,80],[23,15],[-12,58],[14,24],[-68,29],[-11,49],[-46,44],[-72,16]],[[1050,7917],[30,18],[20,45],[35,8],[39,55],[23,53]],[[1197,8096],[77,10],[23,-18],[48,7],[27,-24],[-6,-39],[86,-29],[52,0],[40,-72],[31,10],[98,-23],[44,2],[21,34],[137,-9],[17,-98],[28,-13],[1,-58],[79,-22],[76,-73],[73,-190],[39,-88]],[[2188,7403],[-33,-107],[-67,-166],[0,-251]],[[1701,9312],[60,207],[-51,55],[45,47],[-4,34],[66,31],[12,59],[102,32],[19,13],[12,87],[44,-12],[41,-29],[32,-43],[166,-2]],[[2245,9791],[-26,-98],[-17,-33],[20,-110],[55,-43],[-3,-57],[48,-30],[7,-42],[51,6],[39,-20],[25,-34],[24,35],[53,0],[-1,-164],[-6,-58],[-36,-48],[-27,9],[-61,-64],[-53,43],[-23,-39],[-41,12],[-30,30],[-109,12],[-22,31],[-21,76],[-62,25],[-9,47],[9,90],[-50,29],[-37,-47],[-17,-52],[7,-81],[-7,-29],[-36,-24],[-28,5],[-57,35],[-103,109]],[[2272,5951],[0,-292],[-416,-1]],[[1856,5658],[24,106],[-6,19],[23,101],[-21,122],[-54,83],[-6,94],[15,8],[11,80],[-50,31],[-70,109],[-13,134],[2,58],[-41,137]],[[1670,6740],[-27,47],[-9,101],[60,-6],[28,14],[127,-26]],[[2088,6879],[39,-3],[102,-56],[9,-70],[77,0],[1,-85],[-21,-116],[-38,-57],[13,-261],[2,-280]],[[3177,8035],[-69,-450],[-44,-287]],[[3064,7298],[-11,40],[-93,1],[-22,44],[12,39],[-62,29],[-5,44],[-175,17],[-2,28],[-69,2],[-16,22],[-132,25],[-147,-22]],[[2342,7567],[10,52],[-15,19],[-16,147],[-60,36],[8,73],[-4,85],[-16,71]],[[2430,8563],[61,154],[65,-16],[5,24],[142,-11],[15,18]],[[2718,8732],[212,0],[245,0],[0,-296],[2,-401]],[[454,4168],[-22,89],[22,18],[7,62],[49,26],[-46,46],[34,27],[29,64],[-32,53],[68,42],[19,94],[-10,102],[85,44],[49,3],[23,66],[-36,29],[-13,59],[10,42],[-35,45],[-26,78],[25,60],[-26,58],[32,55],[-22,79],[33,66],[45,64],[47,-7],[2,46],[36,29],[39,5],[7,31]],[[847,5643],[16,-84],[37,-32],[75,-103],[39,-38],[6,-45],[61,-31],[68,9],[57,-24],[16,-44],[134,-25],[17,-26],[49,-8]],[[1422,5192],[2,-332],[30,-18],[19,-47],[-133,-50],[-25,-38],[-42,-24],[-12,-29],[-121,-76],[-11,-20],[-157,-70],[-19,-28],[-20,-107],[-27,-29],[-126,-29],[-56,-1],[-70,-48],[24,-52],[-30,-37],[-40,-13],[-40,17],[-114,7]],[[4011,8243],[-69,-49],[-7,-44],[19,-24],[-5,-79],[-19,-38]],[[3930,8009],[1,25],[-231,0],[-284,0],[-239,1]],[[2718,8732],[289,374],[0,84]],[[3007,9190],[55,-33],[47,-4],[52,-22],[43,-35],[40,-55],[69,-14],[20,-48],[51,-54],[74,-47],[34,-3],[83,-94],[13,-46],[43,-17],[36,-32],[54,-84],[72,-24],[9,-45],[53,4],[61,-28],[29,-35],[42,-23],[83,-83]],[[4070,8368],[-31,-19],[-16,-50],[-25,-5],[13,-51]],[[1670,6740],[-52,39],[-84,1],[-39,39],[-129,-14],[0,-29],[-54,-30],[-68,0],[0,66],[-56,35],[-50,-28],[-38,5],[-38,-21],[-34,-51],[5,-53],[-32,-20],[-48,11],[-32,-15]],[[921,6675],[-26,75],[-27,20],[-1,39],[31,50],[-67,35],[-3,41],[-26,67],[20,102],[48,27],[-2,34],[34,129],[64,32],[33,49],[-35,40],[20,53],[4,60],[-18,18],[-7,67],[-14,26],[39,57],[22,2],[7,62],[17,51],[16,106]],[[2342,7567],[-34,-5],[14,-88],[-59,-56],[-75,-15]],[[1197,8096],[11,52],[30,30],[27,107],[14,15],[62,-3],[56,24],[20,38],[-84,123],[8,61],[47,32],[-26,140],[-26,83],[19,77]],[[1355,8875],[172,-21],[262,-2],[68,7],[10,-44],[23,-9],[-14,-65],[-22,-29],[-55,-3],[7,-80],[63,-47],[11,-58],[50,-7],[41,72],[29,-26]],[[2862,6138],[-136,1],[2,-184]],[[2728,5955],[-456,-4]],[[3064,7298],[77,-79],[-76,-259],[-30,-24],[19,-86],[-7,-38],[41,-43],[66,-152],[2,-69],[-35,-34],[-259,-376]],[[1355,8875],[44,17],[-32,65],[-29,28],[49,93],[37,26],[248,108],[29,100]],[[2245,9791],[52,0],[122,-62],[-8,-24],[42,-57],[-7,-21],[46,-33],[6,54],[83,168],[302,0],[-2,-39],[49,-51],[77,-47]],[[3007,9679],[0,-307],[0,-182]],[[2729,4670],[-42,9],[-98,57],[-29,31],[-95,36],[-119,19],[-94,4],[-58,-15],[-51,21],[-23,-13],[-129,26],[-57,-5],[-70,23],[-1,36],[-142,59],[-12,40],[-68,-9],[-58,16],[-20,37],[-46,28],[46,39],[-28,67],[-113,16]],[[1422,5192],[1,381],[-8,86],[441,-1]],[[2728,5955],[0,-292],[0,-217],[0,-280],[0,-283],[1,-213]],[[2887,4167],[-88,-40],[-179,0],[-201,87],[-56,14],[-28,29],[-47,-14],[-37,-58],[3,-59],[41,-97],[-19,-150]],[[2276,3879],[-285,-2],[-283,0],[-240,0],[-358,0],[-250,0],[-381,0]],[[479,3877],[3,64],[-33,53],[13,51],[-20,28],[24,83],[-12,12]],[[2729,4670],[0,-410],[52,-3],[64,-31],[42,-59]],[[3930,8009],[-47,-15],[-9,-30],[17,-77],[-9,-50],[-37,-117],[-79,-62],[-18,-56],[-9,-85],[-13,-24],[25,-56],[-28,-99]],[[3723,7338],[12,-104],[-50,-73],[-80,-139],[-97,-86],[-43,-12],[-15,-61],[4,-110],[-24,-54],[27,-123],[45,-65],[50,-16],[14,-23]],[[3566,6472],[-71,-115],[-62,18],[-44,0],[-110,-131],[-104,-106],[-313,0]],[[4068,6257],[-66,-16],[-29,27],[-81,33],[-55,10],[-77,50],[-65,8],[-13,23],[-58,24],[-58,56]],[[3723,7338],[68,8],[45,-14],[66,43],[28,-8],[84,26],[60,-32],[42,-6],[37,-42],[15,-55],[55,-32]],[[4223,7226],[0,-57],[-46,-139],[-27,-22],[27,-39],[-28,-69],[-33,-14],[19,-47],[-12,-36],[20,-28],[-26,-65],[32,-160],[-86,-53],[-11,-108],[16,-132]],[[2618,98],[-84,-31],[-34,12],[-106,-34],[-27,29],[120,22],[131,2]],[[2264,119],[-75,-85],[-245,-15],[-58,-19],[-64,28],[-105,20],[-143,2],[-154,27],[-92,-29],[0,270],[0,394],[86,-88],[-67,-56],[22,-46],[74,-5],[70,-99],[89,-54],[71,-65],[154,-61],[76,-67],[161,-47],[200,-5]],[[4011,8243],[93,11],[101,-5],[46,-13],[58,-37],[47,8],[22,-14],[71,-11],[31,-31],[46,17],[37,33],[37,-48],[29,53],[39,28],[33,1]],[[4701,8235],[-8,-38],[59,-99],[9,-56],[48,-49]],[[4809,7993],[-20,-24],[8,-36],[-51,-4],[-6,-35],[-141,-149],[-5,-31],[-45,-14],[-29,-69],[-113,-121],[-32,-7],[-23,-54],[-41,-45],[-45,-24],[3,-38],[-60,-43],[-7,-31],[21,-42]],[[1599,2689],[-354,0],[-334,0],[-399,0]],[[512,2689],[-39,100],[30,45],[56,5],[2,32],[38,24],[-44,48],[-19,49],[-67,17],[-33,-6],[-20,48],[89,-1],[49,14],[58,-21],[37,101],[-61,23],[-118,-9],[0,69],[38,85],[-25,17],[18,65],[-50,23],[-5,68],[44,42],[-82,49],[-32,59],[12,62],[24,56],[-44,74],[34,16],[35,-22],[54,19],[-12,37]],[[2276,3879],[471,-1],[-36,-33],[25,-39],[10,-112],[-16,-68],[-70,-47],[-117,-22],[-70,-49],[-117,-45],[-9,-29],[-68,-67],[40,-99],[-19,-56],[11,-42],[-24,-68],[-75,-53],[17,-52],[-42,-308],[-588,0]],[[3007,9679],[56,-98],[32,-33],[8,-35],[62,-45],[68,-71],[47,-17],[62,-43],[28,-61],[135,-39],[48,-26],[72,8],[152,-97],[32,-42],[60,-41],[42,-14],[80,-50],[63,-14],[26,-35],[28,21],[28,-25],[67,-20],[29,-23],[20,-48],[39,-39],[-7,-36],[-43,-24],[-31,-107],[-61,-30],[-20,-44],[-10,-117],[-49,-66]],[[847,5643],[-6,53],[29,16],[-28,57],[0,81],[-44,22],[59,43],[-3,27],[31,67],[-14,15],[56,85],[23,21],[-4,37],[63,13],[-20,31],[8,39],[-17,70],[28,144],[-55,-10],[-17,69],[18,61],[-29,25],[-4,66]],[[4701,8235],[35,-6],[42,-30],[37,32],[-4,38],[37,29],[15,35],[49,15],[80,77],[41,16],[45,125],[-15,57],[22,59],[-17,39],[27,30],[48,-2],[58,15],[40,-7],[40,-28],[5,-81],[54,-83],[-17,-54],[-10,-75],[16,-80],[-43,-74],[-31,2],[-69,-68],[-52,-5],[-12,-22],[-121,-48],[-8,-39],[-70,-25],[-51,-38],[-44,-52],[-19,6]],[[4078,6065],[-48,-7],[18,38]],[[4048,6096],[30,-31]],[[4068,6257],[25,-57],[42,-28],[-100,-51],[13,-25]],[[4078,6065],[43,-32],[85,-27],[98,-58],[76,-74],[19,-66],[-57,-74],[-2,-68],[25,-46],[72,-58],[72,3],[11,-30],[9,-139],[-87,-121],[-36,-60],[-77,-73],[-27,-39],[-8,-68],[-83,-58],[-113,-50],[-197,-64],[-492,-89],[-73,-6],[-186,2],[-63,18],[-25,33],[-63,24],[-40,-23],[54,-23],[-9,-65],[20,-45],[40,-8],[17,-64],[-16,-104],[-49,-5],[-9,-96],[-38,-38],[18,-41],[63,-33],[-34,-87],[-108,-50],[-21,4]],[[1599,2689],[0,-85],[42,-78],[81,-46],[96,-90],[158,-24],[58,4],[61,-38],[2,-90],[-32,-73],[4,-42],[-35,-62],[-39,-6],[-60,-47],[-2,-21],[-76,-23],[-65,-49],[-68,-27],[-17,-39],[-76,-40],[-43,-55],[-25,-191],[-43,-62],[-41,-25],[-76,-15],[-21,-19],[-127,-44],[-52,-66],[-18,-56],[1,-98],[47,-163],[67,-106],[95,-106],[-129,18],[-95,38],[-79,0],[-138,44],[-514,0],[-9,38],[-74,49],[-32,56],[24,82],[-39,32],[37,30],[-7,111],[-52,17],[-69,-7],[-57,-34],[-101,51],[-8,80],[-43,45],[23,37],[-33,23],[29,47],[130,0],[0,187],[-9,30],[125,76],[-9,82],[89,62],[-51,104],[-26,19],[27,72],[21,7],[18,65],[62,23],[26,75],[0,83],[80,36],[-29,100],[-1,71],[30,33]]],"transform":{"scale":[0.0037297509737827697,0.003367617485066316],"translate":[-73.5591798,-55.0560369]},"objects":{"admin_level_4":{"type":"GeometryCollection","geometries":[{"arcs":[[0,1,2]],"type":"Polygon","properties":{"ref":"TU","name":"Tucumán","name:he":"טוקומאן","name:ru":"Тукуман","boundary":"administrative","timezone":"America/Argentina/Tucuman","ISO3166-2":"AR-T","wikipedia":"es:Provincia de Tucumán","short_name":"TU","admin_level":"4","is_in:country":"Argentina"},"id":153558},{"arcs":[[3,4,5,6,7]],"type":"Polygon","properties":{"ref":"LR","name":"La Rioja","name:he":"לה ריוחה","name:ru":"Ла-Риоха","boundary":"administrative","timezone":"America/Argentina/La_Rioja","ISO3166-2":"AR-F","wikipedia":"es:Provincia de La Rioja (Argentina)","short_name":"LR","admin_level":"4","is_in:country":"Argentina"},"id":153536},{"arcs":[[8,9]],"type":"Polygon","properties":{"ref":"JJY","name":"Jujuy","name:he":"חוחוי","name:ru":"Жужуй","name:uk":"Жужуй","boundary":"administrative","timezone":"America/Argentina/Jujuy","wikidata":"Q44764","ISO3166-2":"AR-Y","wikipedia":"es:Provincia de Jujuy","short_name":"JJY","admin_level":"4","alt_name:ru":"Хухуй","is_in:country":"Argentina"},"id":153556},{"arcs":[[10,11,12,-4,13]],"type":"Polygon","properties":{"ref":"SL","name":"San Luis","name:he":"סן לואיס","name:ru":"Сан-Луис","name:uk":"Сан-Луїс","boundary":"administrative","timezone":"America/Argentina/San_Luis","wikidata":"Q44818","ISO3166-2":"AR-D","wikipedia":"es:Provincia de San Luis","admin_level":"4","is_in:country":"Argentina","official_name":"Provincia de San Luis"},"id":153538},{"arcs":[[14,15,16,-3,17,18]],"type":"Polygon","properties":{"ref":"SDE","name":"Santiago del Estero","name:he":"סנטיאגו דל אסטרו","name:ru":"Сантьяго-дель-Эстеро","name:uk":"Сантьяго-дель-Естеро","boundary":"administrative","timezone":"America/Argentina/Cordoba","wikidata":"Q44827","ISO3166-2":"AR-G","wikipedia":"es:Provincia de Santiago del Estero","short_name":"SDE","admin_level":"4","is_in:country":"Argentina"},"id":153544},{"arcs":[[19,20,21]],"type":"Polygon","properties":{"ref":"NQN","name":"Neuquén","name:he":"נאוקן","name:ru":"Неукен","name:uk":"Неукен","boundary":"administrative","timezone":"America/Argentina/Salta","wikidata":"Q44800","ISO3166-2":"AR-Q","wikipedia":"es:Provincia del Neuquén","short_name":"NQN","admin_level":"4","is_in:country":"Argentina"},"id":1606727},{"arcs":[[22,23,-19,24,25,26]],"type":"Polygon","properties":{"ref":"CCO","name":"Chaco","name:he":"צ'אקו","name:ru":"Чако","name:uk":"Чако","boundary":"administrative","timezone":"America/Argentina/Cordoba","wikidata":"Q44757","ISO3166-2":"AR-H","wikipedia":"es:Provincia del Chaco","short_name":"CCO","admin_level":"4","is_in:country":"Argentina"},"id":153554},{"arcs":[[-13,27,28,-5]],"type":"Polygon","properties":{"ref":"SJ","name":"San Juan","name:he":"סן חואן","name:ru":"Сан-Хуан","boundary":"administrative","timezone":"America/Argentina/San_Juan","ISO3166-2":"AR-J","wikipedia":"es:Provincia de San Juan (Argentina)","short_name":"SJ","admin_level":"4","is_in:country":"Argentina"},"id":153539},{"arcs":[[29,-7,30,31,-1,-17]],"type":"Polygon","properties":{"ref":"CTM","name":"Catamarca","name:he":"קטמרקה","name:ru":"Катамарка","boundary":"administrative","timezone":"America/Argentina/Catamarca","ISO3166-2":"AR-K","wikipedia":"es:Provincia de Catamarca","short_name":"CTM","admin_level":"4","is_in:country":"Argentina"},"id":153545},{"arcs":[[32,33,-14,-8,-30,-16,34]],"type":"Polygon","properties":{"ref":"CBA","name":"Córdoba","name:de":"Provinz Córdoba","name:en":"Córdoba","name:pl":"Córdoba","name:pt":"Córdova","name:ru":"Кордова","name:uk":"Кордова","boundary":"administrative","timezone":"America/Argentina/Cordoba","wikidata":"Q44759","ISO3166-2":"AR-X","wikipedia":"es:Provincia de Córdoba (Argentina)","short_name":"Cba.","admin_level":"4","is_in:country":"Argentina","official_name":"Provincia de Córdoba"},"id":3592494},{"arcs":[[-25,-18,-2,-32,35,-10,36,37]],"type":"Polygon","properties":{"ref":"SA","name":"Salta","name:he":"סלטה","name:ru":"Сальта","name:uk":"Сальта","boundary":"administrative","timezone":"America/Argentina/Salta","wikidata":"Q44803","ISO3166-2":"AR-A","wikipedia":"es:Provincia de Salta","short_name":"SA","admin_level":"4","is_in:country":"Argentina"},"id":2405230},{"arcs":[[38,39,-11,-34,40]],"type":"Polygon","properties":{"ref":"LP","name":"La Pampa","name:he":"לה פמפה","name:ru":"Ла-Пампа","name:uk":"Ла-Пампа","boundary":"administrative","timezone":"America/Argentina/Salta","wikidata":"Q44795","ISO3166-2":"AR-L","wikipedia":"es:Provincia de La Pampa","short_name":"LP","admin_level":"4","is_in:country":"Argentina"},"id":153541},{"arcs":[[41,42,43,-22,-39,44]],"type":"Polygon","properties":{"ref":"RN","name":"Río Negro","name:he":"ריו נגרו","name:ru":"Рио-Негро","name:uk":"Ріо-Неґро","boundary":"administrative","wikidata":"Q44802","ISO3166-2":"AR-R","wikipedia":"es:Provincia de Río Negro","short_name":"RN","admin_level":"4","is_in:country":"Argentina"},"id":153547},{"arcs":[[45,46,47,-35,-15,-24]],"type":"Polygon","properties":{"ref":"SF","name":"Santa Fe","name:he":"סנטה פה","name:ru":"Санта-Фе","name:uk":"Санта-Фе","boundary":"administrative","timezone":"America/Argentina/Cordoba","wikidata":"Q44823","ISO3166-2":"AR-S","wikipedia":"es:Provincia de Santa Fe","short_name":"Sta. Fe","admin_level":"4","is_in:country":"Argentina","official_name":"Provincia de Santa Fe"},"id":153543},{"arcs":[[48,-47,49,50]],"type":"Polygon","properties":{"ref":"ER","name":"Entre Ríos","name:he":"אנטרה ריוס","name:ru":"Междуречье","boundary":"administrative","timezone":"America/Argentina/Cordoba","ISO3166-2":"AR-E","wikipedia":"es:Provincia de Entre Ríos","short_name":"ER.","admin_level":"4","is_in:country":"Argentina","official_name":"Provincia de Entre Ríos"},"id":153551},{"arcs":[[[51]],[[52]]],"type":"MultiPolygon","properties":{"ref":"TDF","name":"Tierra del Fuego","name:de":"Feuerland","name:he":"טיירה דל פואגו","name:it":"Terra del Fuoco","name:pl":"Ziemia Ognista, Antarktyda i Wyspy Południowego Atlantyku","name:pt":"Terra do Fogo","name:ru":"Огненная Земля, Антарктида и острова Южной Атлантики","name:uk":"Вогняна Земля, Антарктида та острови Південної Атлантики","boundary":"administrative","wikidata":"Q44832","ISO3166-2":"AR-V","wikipedia":"es:Provincia de Tierra del Fuego, Antártida e Islas del Atlántico Sur","short_name":"TDF","admin_level":"4","alt_name:he":"ארץ האש","is_in:country":"Argentina"},"id":153550},{"arcs":[[-50,-46,-23,53,54,55]],"type":"Polygon","properties":{"ref":"CRR","name":"Corrientes","name:he":"קוריינטס","name:ru":"Корриентес","name:uk":"Коррієнтес","boundary":"administrative","timezone":"America/Argentina/Cordoba","wikidata":"Q44758","ISO3166-2":"AR-W","wikipedia":"es:Provincia de Corrientes","population":"314546","short_name":"Ctes.","admin_level":"4","is_in:country":"Argentina"},"id":153552},{"arcs":[[56,57,-43,58]],"type":"Polygon","properties":{"ref":"CHB","name":"Chubut","name:he":"צ'ובוט","name:ru":"Чубут","name:uk":"Чубут","boundary":"administrative","wikidata":"Q45007","ISO3166-2":"AR-U","wikipedia":"es:Provincia del Chubut","short_name":"CHB","admin_level":"4","is_in:country":"Argentina"},"id":153548},{"arcs":[[-26,-38,59]],"type":"Polygon","properties":{"ref":"FSA","name":"Formosa","name:he":"פורמוסה","name:ru":"Формоса","name:uk":"Формоса","boundary":"administrative","timezone":"America/Argentina/Cordoba","wikidata":"Q44761","ISO3166-2":"AR-P","wikipedia":"es:Provincia de Formosa","population":"234354","short_name":"FSA","admin_level":"4","is_in:country":"Argentina"},"id":2849847},{"arcs":[[-40,-21,60,-28,-12]],"type":"Polygon","properties":{"ref":"MZA","name":"Mendoza","name:he":"מנדוסה","name:ru":"Мендоса","boundary":"administrative","timezone":"America/Argentina/Mendoza","ISO3166-2":"AR-M","wikipedia":"es:Provincia de Mendoza","short_name":"Mza.","admin_level":"4","is_in:country":"Argentina"},"id":153540},{"arcs":[[-55,61]],"type":"Polygon","properties":{"ref":"MIS","name":"Misiones","name:he":"מיסיונס","alt_name":"Provincia de Misiones","boundary":"administrative","timezone":"America/Argentina/Cordoba","wikidata":"Q44798","ISO3166-2":"AR-N","wikipedia":"es:Provincia de Misiones","short_name":"Mnes.","admin_level":"4","is_in:country":"Argentina"},"id":153553},{"arcs":[[62,63]],"type":"Polygon","properties":{"ref":"CABA","name":"Ciudad Autónoma de Buenos Aires","name:en":"Autonomous City of Buenos Aires","name:es":"Ciudad Autónoma de Buenos Aires","name:he":"בואנוס אירס","name:ru":"Буэнос-Айрес","name:uk":"Буенос-Айрес","alt_name":"Capital Federal","boundary":"administrative","timezone":"America/Argentina/Buenos_Aires","wikidata":"Q1486","ISO3166-2":"AR-C","wikipedia":"es:Buenos Aires","population":"2890151","short_name":"CABA","admin_level":"4","is_in:country":"Argentina","official_name":"Ciudad Autónoma de Buenos Aires","official_name:ru":"Федеральная столица Буэнос-Айрес"},"id":3082668},{"arcs":[[-45,-41,-33,-48,-49,64,-63,65]],"type":"Polygon","properties":{"ref":"BA","name":"Buenos Aires","name:en":"Buenos Aires","name:he":"בואנוס איירס","name:pl":"Buenos Aires","name:ru":"Буэнос-Айрес","name:uk":"Буенос-Айрес","boundary":"administrative","wikidata":"Q44754","ISO3166-2":"AR-B","wikipedia":"es:Provincia de Buenos Aires","short_name":"Bs. As.","admin_level":"4","is_in:country":"Argentina","official_name":"Provincia de Buenos Aires"},"id":1632167},{"arcs":[[-57,66]],"type":"Polygon","properties":{"ref":"SC","name":"Santa Cruz","name:he":"סנטה קרוס","name:ru":"Санта-Крус","name:uk":"Санта-Крус","boundary":"administrative","wikidata":"Q44821","ISO3166-2":"AR-Z","wikipedia":"es:Provincia de Santa Cruz","short_name":"SC","admin_level":"4"},"id":153549}]}}}