{"transform":{"scale":[0.0006246284728472842,0.0003557695369536939],"translate":[44.76337010000001,38.39295510000001]},"objects":{"admin_level_4":{"geocoding":{"license":"ODbL (see http://www.openstreetmap.org/copyright)","generator":{"package":"fences-builder","author":{"name":"Mapzen"},"version":"0.1.2"},"creation_date":"2016-01-09"},"geometries":[{"properties":{"admin_level":"4","name:az":"Xankəndi","name:ru":"Ханкенди","name:en":"Khankendi","ISO3166-2":"AZ-XA","name":"Xankəndi","boundary":"administrative"},"id":4269682,"arcs":[[-1]],"osm_type":"relation","name":"Xankəndi","type":"Polygon"},{"properties":{"admin_level":"4","name:hy":"Ստեփանակերտ","name:ru":"Степанакерт","name:en":"Stepanakert","name:az":"Xankəndi","name":"Ստեփանակերտ (Stepanakert)","wikidata":"Q129352","boundary":"administrative"},"id":1861810,"arcs":[[-1]],"osm_type":"relation","name":"Ստեփանակերտ (Stepanakert)","type":"Polygon"},{"properties":{"name:ja":"サダラク地区","name:az":"Sədərək rayonu","name:ru":"Садаракский район","admin_level":"4","ISO3166-2":"AZ-SAD","name":"Sədərək rayonu","wikidata":"Q641468","boundary":"administrative"},"id":3789859,"arcs":[[-2,-3]],"osm_type":"relation","name":"Sədərək rayonu","type":"Polygon"},{"properties":{"name:ja":"シャルル地区","name:az":"Şərur rayonu","name:ru":"Шарурский район","admin_level":"4","ISO3166-2":"AZ-SAR","name":"Şərur rayonu","wikidata":"Q390820","boundary":"administrative"},"id":3789857,"arcs":[[3,4,1,5]],"osm_type":"relation","name":"Şərur rayonu","type":"Polygon"},{"properties":{"name:ja":"バベク地区","name:az":"Babək rayonu","name:ru":"Бабекский район","admin_level":"4","ISO3166-2":"AZ-BAB","name":"Babək rayonu","wikidata":"Q643895","boundary":"administrative"},"id":3789855,"arcs":[[6,7,8,9,10],[11]],"osm_type":"relation","name":"Babək rayonu","type":"Polygon"},{"properties":{"admin_level":"4","name":"Naxçıvan İnzibati Ərazisi","boundary":"administrative","type":"boundary"},"id":178265281,"arcs":[[-12]],"osm_type":"way","name":"Naxçıvan İnzibati Ərazisi","type":"Polygon"},{"properties":{"admin_level":"4","is_in":"Azerbaijan, Nakhchivan","name:ru":"Нахичевань","name":"Naxçıvan","is_in:continent":"Asia","name:de":"Nachitschewan","name:ja":"ナヒチェヴァン","name:en":"Nakhchivan","place":"city","int_name":"Nakhchivan","name:ku":"Naxciwan","wikidata":"Q230104","boundary":"administrative"},"id":2379566,"arcs":[[-12]],"osm_type":"relation","name":"Naxçıvan","type":"Polygon"},{"properties":{"name:ja":"バラキャン県","admin_level":"4","name:ru":"Белоканский район","ISO3166-2":"AZ-BAL","name":"Balakən rayonu","wikipedia":"de:Balakən (Rayon)","boundary":"administrative"},"id":3764542,"arcs":[[12,13]],"osm_type":"relation","name":"Balakən rayonu","type":"Polygon"},{"properties":{"name:ja":"ザガタラ県","admin_level":"4","name:ru":"Закатальский район","ISO3166-2":"AZ-ZAQ","name":"Zaqatala rayonu","wikipedia":"de:Zaqatala (Rayon)","boundary":"administrative"},"id":3764588,"arcs":[[-15,-16,-17,-13]],"osm_type":"relation","name":"Zaqatala rayonu","type":"Polygon"},{"properties":{"name:ja":"オグズ県","admin_level":"4","name:ru":"Огузский район","ISO3166-2":"AZ-OGU","name":"Oğuz rayonu","wikipedia":"de:Oğuz (Rayon)","boundary":"administrative"},"id":3764564,"arcs":[[17,18,19]],"osm_type":"relation","name":"Oğuz rayonu","type":"Polygon"},{"properties":{"admin_level":"4","name:ru":"Шекинская Администрация","ISO3166-2":"AZ-SAK","name":"Şəki İnzibati Ərazisi","wikipedia":"de:Şəki","boundary":"administrative"},"id":3912204,"arcs":[[-21]],"osm_type":"relation","name":"Şəki İnzibati Ərazisi","type":"Polygon"},{"properties":{"name:ja":"ガバラ県","admin_level":"4","name:ru":"Габалинский район","ISO3166-2":"AZ-QAB","name":"Qəbələ rayonu","wikipedia":"de:Qəbələ (Rayon)","boundary":"administrative"},"id":3764572,"arcs":[[-22,-23,-24,-25,-18,-26,-27,-28]],"osm_type":"relation","name":"Qəbələ rayonu","type":"Polygon"},{"properties":{"name:ja":"グバ県","admin_level":"4","name:ru":"Кубинский район","ISO3166-2":"AZ-QBA","name":"Quba rayonu","wikipedia":"de:Quba (Rayon)","boundary":"administrative"},"id":3764570,"arcs":[[28,29,27,30,31,32]],"osm_type":"relation","name":"Quba rayonu","type":"Polygon"},{"properties":{"name:ja":"イスマイル県","admin_level":"4","name:ru":"Исмаиллинский район","ISO3166-2":"AZ-ISM","name":"İsmayıllı rayonu","boundary":"administrative"},"id":3764591,"arcs":[[33,34,35,21,-30,36]],"osm_type":"relation","name":"İsmayıllı rayonu","type":"Polygon"},{"properties":{"name:ja":"シャマフ県","admin_level":"4","name:ru":"Шемахинский район","ISO3166-2":"AZ-SMI","name":"Şamaxı rayonu","wikipedia":"de:Şamaxı (Rayon)","boundary":"administrative"},"id":3764593,"arcs":[[37,38,-37,-29,39,40,41]],"osm_type":"relation","name":"Şamaxı rayonu","type":"Polygon"},{"properties":{"name:ja":"レンキャラン","admin_level":"4","name:ru":"Ленкоранская Администрация","ISO3166-2":"AZ-LA","name":"Lənkəran İnzibati Ərazisi","wikipedia":"de:Lənkəran (Stadt)","boundary":"administrative"},"id":3812604,"arcs":[[-43]],"osm_type":"relation","name":"Lənkəran İnzibati Ərazisi","type":"Polygon"},{"properties":{"name:ja":"マサッル県","admin_level":"4","name:ru":"Масаллинский район","ISO3166-2":"AZ-MAS","name":"Masallı rayonu","wikipedia":"de:Masallı (Rayon)","boundary":"administrative"},"id":3764562,"arcs":[[43,44,45,46,47]],"osm_type":"relation","name":"Masallı rayonu","type":"Polygon"},{"properties":{"name:ja":"レリク県","admin_level":"4","name:ru":"Лерикский район","ISO3166-2":"AZ-LER","name":"Lerik rayonu","wikipedia":"de:Lerik (Rayon)","boundary":"administrative"},"id":3764560,"arcs":[[48,49,50,-44,51]],"osm_type":"relation","name":"Lerik rayonu","type":"Polygon"},{"properties":{"name:ja":"ヤルディムリ県","admin_level":"4","name:ru":"Ярдымлинский район","ISO3166-2":"AZ-YAR","name":"Yardımlı rayonu","wikipedia":"de:Yardımlı (Rayon)","boundary":"administrative"},"id":3764586,"arcs":[[-45,-51,-53,-54]],"osm_type":"relation","name":"Yardımlı rayonu","type":"Polygon"},{"properties":{"name:ja":"ジュルファ地区","name:az":"Culfa rayonu","name:ru":"Джульфинский район","admin_level":"4","ISO3166-2":"AZ-CUL","name":"Culfa rayonu","wikidata":"Q644035","boundary":"administrative"},"id":3789856,"arcs":[[-55,-56,-57,-11,-58]],"osm_type":"relation","name":"Culfa rayonu","type":"Polygon"},{"properties":{"name:ja":"ギョイチャイ県","admin_level":"4","name:ru":"Геокчайский район","ISO3166-2":"AZ-GOY","name":"Göyçay rayonu","wikidata":"Q477163","boundary":"administrative"},"id":3764553,"arcs":[[58,59,60,22,-36]],"osm_type":"relation","name":"Göyçay rayonu","type":"Polygon"},{"properties":{"name:ja":"アグス県","admin_level":"4","name:ru":"Ахсуйский район","ISO3166-2":"AZ-AGU","name":"Ağsu rayonu","wikipedia":"de:Ağsu (Rayon)","boundary":"administrative"},"id":3764540,"arcs":[[61,62,-34,-39]],"osm_type":"relation","name":"Ağsu rayonu","type":"Polygon"},{"properties":{"name:ja":"ゴブスタン県","admin_level":"4","name:ru":"Гобустанский район","ISO3166-2":"AZ-QOB","name":"Qobustan rayonu","wikipedia":"de:Qobustan (Rayon)","boundary":"administrative"},"id":3764568,"arcs":[[63,-42,64,65]],"osm_type":"relation","name":"Qobustan rayonu","type":"Polygon"},{"properties":{"name:ja":"ウジャル県","admin_level":"4","name:ru":"Уджарский район","ISO3166-2":"AZ-UCA","name":"Ucar rayonu","wikipedia":"de:Ucar (Rayon)","boundary":"administrative"},"id":3764582,"arcs":[[-67,-68,-69,-60]],"osm_type":"relation","name":"Ucar rayonu","type":"Polygon"},{"properties":{"admin_level":"4","name:ru":"Шекинский район","ISO3166-2":"AZ-SAK","name":"Şəki rayonu","wikipedia":"de:Şəki (Rayon)","boundary":"administrative"},"id":3912205,"arcs":[[24,69,70,71,72,-19],[20]],"osm_type":"relation","name":"Şəki rayonu","type":"Polygon"},{"properties":{"name:ja":"カシャタグ地区","name:hy":"Քաշաթաղի շրջան","name:ru":"Кашатагский район","name:en":"Kashatagh Region","admin_level":"4","name":"Քաշաթաղի շրջան","boundary":"administrative","wikipedia":"ru:Кашатагский район","wikidata":"Q1536645","name:de":"Provinz Kaschatach"},"id":3807620,"arcs":[[-74,-75,-76,-77,-78,-79]],"osm_type":"relation","name":"Քաշաթաղի շրջան","type":"Polygon"},{"properties":{"name:ja":"ジャリラバド県","admin_level":"4","name:ru":"Джалилабадский район","ISO3166-2":"AZ-CAL","name":"Cəlilabad rayonu","boundary":"administrative"},"id":3764547,"arcs":[[-46,53,79,80,81]],"osm_type":"relation","name":"Cəlilabad rayonu","type":"Polygon"},{"properties":{"name:ja":"シヤザン県","admin_level":"4","name:ru":"Сиазаньский район","ISO3166-2":"AZ-SIY","name":"Siyəzən rayonu","wikidata":"Q820940","boundary":"administrative"},"id":3764578,"arcs":[[-83,-84,-85]],"osm_type":"relation","name":"Siyəzən rayonu","type":"Polygon"},{"properties":{"name:ja":"シャブラン県","admin_level":"4","name:ru":"Шабранский район","ISO3166-2":"AZ-SBN","name":"Şabran rayonu","wikidata":"Q387994","boundary":"administrative"},"id":3764592,"arcs":[[-86,84,-87,-40,-33,-88]],"osm_type":"relation","name":"Şabran rayonu","type":"Polygon"},{"properties":{"name:ja":"ハチマズ県","admin_level":"4","name:ru":"Хачмазский район","ISO3166-2":"AZ-XAC","name":"Xaçmaz rayonu","wikipedia":"de:Xaçmaz (Rayon)","boundary":"administrative"},"id":3764583,"arcs":[[87,-32,-89,-90]],"osm_type":"relation","name":"Xaçmaz rayonu","type":"Polygon"},{"properties":{"name:ja":"アスタラ県","admin_level":"4","name:ru":"Астаринский район","ISO3166-2":"AZ-AST","name":"Astara rayonu","wikipedia":"de:Astara (Rayon)","boundary":"administrative"},"id":3764535,"arcs":[[-91,-49,-92]],"osm_type":"relation","name":"Astara rayonu","type":"Polygon"},{"properties":{"name:ja":"ナフタラン","admin_level":"4","name:ru":"Нафталанская Администрация","ISO3166-2":"AZ-NA","name":"Naftalan İnzibati Ərazisi","wikipedia":"de:Naftalan","boundary":"administrative"},"id":3812595,"arcs":[[-93]],"osm_type":"relation","name":"Naftalan İnzibati Ərazisi","type":"Polygon"},{"properties":{"name:ja":"ミンギャチェヴィル","admin_level":"4","name:ru":"Мингечаурская Администрация","ISO3166-2":"AZ-MI","name":"Mingəçevir İnzibati Ərazisi","wikipedia":"de:Mingəçevir","boundary":"administrative"},"id":3812581,"arcs":[[93]],"osm_type":"relation","name":"Mingəçevir İnzibati Ərazisi","type":"Polygon"},{"properties":{"name:ja":"アグジャバディ県","admin_level":"4","name:ru":"Агджабединский район","ISO3166-2":"AZ-AGC","name":"Ağcabədi rayonu","wikipedia":"de:Ağcabədi (Rayon)","boundary":"administrative"},"id":3764536,"arcs":[[94,95,96,97,98,99]],"osm_type":"relation","name":"Ağcabədi rayonu","type":"Polygon"},{"properties":{"name:ja":"アグダシュ県","admin_level":"4","name:ru":"Агдашский район","ISO3166-2":"AZ-AGS","name":"Ağdaş rayonu","wikipedia":"de:Ağdaş (Rayon)","boundary":"administrative"},"id":3764538,"arcs":[[-61,68,-101,-102,-103,-70,23]],"osm_type":"relation","name":"Ağdaş rayonu","type":"Polygon"},{"properties":{"admin_level":"4","name:ru":"Евлахская Администрация","ISO3166-2":"AZ-YE","name":"Yevlax İnzibati Ərazisi","wikidata":"Q175459","boundary":"administrative"},"id":3912202,"arcs":[[103]],"osm_type":"relation","name":"Yevlax İnzibati Ərazisi","type":"Polygon"},{"properties":{"name:ja":"イェヴラフ県","admin_level":"4","name:ru":"Евлахский район","ISO3166-2":"AZ-YEV","name":"Yevlax rayonu","wikipedia":"de:Yevlax (Rayon)","boundary":"administrative"},"id":3764587,"arcs":[[102,104,105,106,107,108,-71],[-94],[-104]],"osm_type":"relation","name":"Yevlax rayonu","type":"Polygon"},{"properties":{"name:ja":"ガフ県","admin_level":"4","name:ru":"Кахский район","ISO3166-2":"AZ-QAX","name":"Qax rayonu","wikipedia":"de:Qax (Rayon)","boundary":"administrative"},"id":3764566,"arcs":[[-72,-109,109,110,15,111]],"osm_type":"relation","name":"Qax rayonu","type":"Polygon"},{"properties":{"name:ja":"キュルダミル県","admin_level":"4","name:ru":"Кюрдамирский район","ISO3166-2":"AZ-KUR","name":"Kürdəmir rayonu","boundary":"administrative"},"id":3764559,"arcs":[[-113,-114,-115,-116,66,-59,-35,-63]],"osm_type":"relation","name":"Kürdəmir rayonu","type":"Polygon"},{"properties":{"name:ja":"ギャンジャ","admin_level":"4","name:ru":"Гянджинская Администрация","ISO3166-2":"AZ-GA","name":"Gəncə İnzibati Ərazisi","name:de":"Verwaltungsgebiet Gandscha","wikipedia":"de:Gəncə","boundary":"administrative"},"id":3764556,"arcs":[[-117,-118]],"osm_type":"relation","name":"Gəncə İnzibati Ərazisi","type":"Polygon"},{"properties":{"admin_level":"4","name:ru":"Ширванская Администрация","ISO3166-2":"AZ-SR","name":"Şirvan İnzibati Ərazisi","wikipedia":"de:Şirvan","boundary":"administrative"},"id":3764594,"arcs":[[-119,-120,-121]],"osm_type":"relation","name":"Şirvan İnzibati Ərazisi","type":"Polygon"},{"properties":{"name:ja":"ガダバイ県","admin_level":"4","name:ru":"Кедабекский район","ISO3166-2":"AZ-GAD","name":"Gədəbəy rayonu","wikipedia":"de:Gədəbəy (Rayon)","boundary":"administrative"},"id":3764555,"arcs":[[121,122,123,124,125,126]],"osm_type":"relation","name":"Gədəbəy rayonu","type":"Polygon"},{"properties":{"name:ja":"シャムキル県","admin_level":"4","name:ru":"Шамкирский район","ISO3166-2":"AZ-SCR","name":"Şəmkir rayonu","wikipedia":"de:Şəmkir (Rayon)","boundary":"administrative"},"id":3764597,"arcs":[[-128,-129,-130,-127,-131]],"osm_type":"relation","name":"Şəmkir rayonu","type":"Polygon"},{"properties":{"name:ja":"サアトル県","admin_level":"4","name:ru":"Саатлинский район","ISO3166-2":"AZ-SAT","name":"Saatlı rayonu","wikipedia":"de:Saatlı (Rayon)","boundary":"administrative"},"id":3764573,"arcs":[[-132,-133,-134]],"osm_type":"relation","name":"Saatlı rayonu","type":"Polygon"},{"properties":{"name:ja":"ビラスヴァル県","admin_level":"4","name:ru":"Билясуварский район","ISO3166-2":"AZ-BIL","name":"Biləsuvar rayonu","wikipedia":"de:Biləsuvar (Rayon)","boundary":"administrative"},"id":3764545,"arcs":[[134,-81,135,136,132,137,138]],"osm_type":"relation","name":"Biləsuvar rayonu","type":"Polygon"},{"properties":{"name:ja":"フズィ県","admin_level":"4","name:ru":"Хызинский район","ISO3166-2":"AZ-XIZ","name":"Xızı rayonu","wikipedia":"de:Xızı (Rayon)","boundary":"administrative"},"id":3764585,"arcs":[[-140,-141,-142,-65,-41,86,83]],"osm_type":"relation","name":"Xızı rayonu","type":"Polygon"},{"properties":{"name:ja":"サビラバド県","admin_level":"4","name:ru":"Сабирабадский район","ISO3166-2":"AZ-SAB","name":"Sabirabad rayonu","wikipedia":"de:Sabirabad (Rayon)","boundary":"administrative"},"id":3764574,"arcs":[[-138,131,142,113,143,120,144]],"osm_type":"relation","name":"Sabirabad rayonu","type":"Polygon"},{"properties":{"name:ja":"サリヤン県","admin_level":"4","name:ru":"Сальянский район","ISO3166-2":"AZ-SAL","name":"Salyan rayonu","wikidata":"Q457485","boundary":"administrative"},"id":3764575,"arcs":[[145,-139,-145,119,146,147,148]],"osm_type":"relation","name":"Salyan rayonu","type":"Polygon"},{"properties":{"name:ja":"バクー","admin_level":"4","name:ru":"Бакинская Администрация","ISO3166-2":"AZ-BA","name":"Bakı İnzibati Ərazisi","wikipedia":"az:Bakı","boundary":"administrative"},"id":3764541,"arcs":[[-148,149,150,151]],"osm_type":"relation","name":"Bakı İnzibati Ərazisi","type":"Polygon"},{"properties":{"name:ja":"ハジュガブル県","admin_level":"4","name:ru":"Аджигабульский район","ISO3166-2":"AZ-HAC","name":"Hacıqabul rayonu","boundary":"administrative"},"id":3764557,"arcs":[[-147,118,-144,112,-62,-38,-64,152,-150]],"osm_type":"relation","name":"Hacıqabul rayonu","type":"Polygon"},{"properties":{"name:ja":"サムフ県","admin_level":"4","name:ru":"Самухский район","ISO3166-2":"AZ-SMX","name":"Samux rayonu","wikipedia":"de:Samux (Rayon)","boundary":"administrative"},"id":3764577,"arcs":[[-108,153,154,116,155,127,156,157,-110]],"osm_type":"relation","name":"Samux rayonu","type":"Polygon"},{"properties":{"name:ja":"トヴズ県","admin_level":"4","name:ru":"Товузский район","ISO3166-2":"AZ-TOV","name":"Tovuz rayonu","wikipedia":"de:Tovuz (Rayon)","boundary":"administrative"},"id":3764580,"arcs":[[130,-126,-159,-124,-160,-161,-162,-157]],"osm_type":"relation","name":"Tovuz rayonu","type":"Polygon"},{"properties":{"name:ja":"バルダ県","admin_level":"4","name:ru":"Бардинский район","ISO3166-2":"AZ-BAR","name":"Bərdə rayonu","wikidata":"Q330857","boundary":"administrative"},"id":3764546,"arcs":[[-99,162,163,-105,101,164]],"osm_type":"relation","name":"Bərdə rayonu","type":"Polygon"},{"properties":{"name:ja":"イミシュリ県","admin_level":"4","name:ru":"Имишлинский район","ISO3166-2":"AZ-IMI","name":"İmişli rayonu","wikipedia":"de:İmişli (Rayon)","boundary":"administrative"},"id":3764590,"arcs":[[165,166,167,114,-143,133,-137]],"osm_type":"relation","name":"İmişli rayonu","type":"Polygon"},{"properties":{"admin_level":"4","name:ru":"Бейлаганский район","ISO3166-2":"AZ-BEY","name":"Beyləqan rayonu","wikipedia":"de:Beyləqan (Rayon)","boundary":"administrative"},"id":3764543,"arcs":[[-167,-169,-170,-95,-171]],"osm_type":"relation","name":"Beyləqan rayonu","type":"Polygon"},{"properties":{"name:ja":"ザルダブ県","admin_level":"4","name:ru":"Зердабский район","ISO3166-2":"AZ-ZAR","name":"Zərdab rayonu","wikipedia":"de:Zərdab (Rayon)","boundary":"administrative"},"id":3764589,"arcs":[[115,-168,170,-100,-165,100,67]],"osm_type":"relation","name":"Zərdab rayonu","type":"Polygon"},{"properties":{"name:ja":"カンガルリ地区","name:az":"Kəngərli rayonu","name:ru":"Кенгерлинский район","admin_level":"4","ISO3166-2":"AZ-KAN","name":"Kəngərli rayonu","wikidata":"Q734030","boundary":"administrative"},"id":3789860,"arcs":[[-172,-8,-173,-4]],"osm_type":"relation","name":"Kəngərli rayonu","type":"Polygon"},{"properties":{"name:ja":"シャフブズ地区","name:az":"Şahbuz rayonu","name:ru":"Шахбузский район","name:en":"Shakhbuz Rayon","ISO3166-2":"AZ-SAH","admin_level":"4","name":"Şahbuz rayonu","wikidata":"Q388081","boundary":"administrative"},"id":2379535,"arcs":[[57,-10,173]],"osm_type":"relation","name":"Şahbuz rayonu","type":"Polygon"},{"properties":{"name:ja":"オルドバード地区","name:az":"Ordubad rayonu","name:ru":"Ордубадский район","admin_level":"4","ISO3166-2":"AZ-ORD","name":"Ordubad rayonu","wikidata":"Q512623","boundary":"administrative"},"id":3789858,"arcs":[[-175,55]],"osm_type":"relation","name":"Ordubad rayonu","type":"Polygon"},{"properties":{"name:ja":"レンキャラン県","admin_level":"4","name:ru":"Ленкоранский район","ISO3166-2":"AZ-LAN","name":"Lənkəran rayonu","wikipedia":"de:Lənkəran (Rayon)","boundary":"administrative"},"id":3772758,"arcs":[[91,-52,-48,175,176],[42]],"osm_type":"relation","name":"Lənkəran rayonu","type":"Polygon"},{"properties":{"name:ja":"ネフトチャラ県","admin_level":"4","name:ru":"Нефтечалинский район","ISO3166-2":"AZ-NEF","name":"Neftçala rayonu","wikipedia":"de:Neftçala (Rayon)","boundary":"administrative"},"id":3772759,"arcs":[[-176,-47,-82,-135,-146,177]],"osm_type":"relation","name":"Neftçala rayonu","type":"Polygon"},{"properties":{"name:ja":"スムガイト","admin_level":"4","name:ru":"Сумгаитская Администрация","ISO3166-2":"AZ-SM","name":"Sumqayıt İnzibati Ərazisi","wikipedia":"de:Sumqayıt","boundary":"administrative"},"id":3764579,"arcs":[[140,178,179]],"osm_type":"relation","name":"Sumqayıt İnzibati Ərazisi","type":"Polygon"},{"properties":{"name:ja":"アブシェロン県","admin_level":"4","name:ru":"Апшеронский район","ISO3166-2":"AZ-ABS","name":"Abşeron rayonu","wikipedia":"de:Abşeron (Rayon)","boundary":"administrative"},"id":3764533,"arcs":[[-153,-66,141,-180,180,-151]],"osm_type":"relation","name":"Abşeron rayonu","type":"Polygon"},{"properties":{"name:ja":"ダシュキャサン県","admin_level":"4","name:ru":"Дашкесанский район","ISO3166-2":"AZ-DAS","name":"Daşkəsən rayonu","wikipedia":"de:Daşkəsən (Rayon)","boundary":"administrative"},"id":3795448,"arcs":[[-182,-183,-184,-122,129]],"osm_type":"relation","name":"Daşkəsən rayonu","type":"Polygon"},{"properties":{"admin_level":"4","name":"Xocavənd rayonu","name:ru":"Ходжавендский район","wikipedia":"de:Xocavənd (Rayon)","boundary":"administrative"},"id":3795451,"arcs":[[184,185,186,-97]],"osm_type":"relation","name":"Xocavənd rayonu","type":"Polygon"},{"properties":{"name:ja":"マルトゥニ地区","name:hy":"Մարտունու շրջան","name:ru":"Мартунинский район","admin_level":"4","name":"Martuni Region","wikidata":"Q157902","boundary":"administrative"},"id":3807622,"arcs":[[187,188,189,-186,190]],"osm_type":"relation","name":"Martuni Region","type":"Polygon"},{"properties":{"name:ja":"ハドルト地区","name:hy":"Հադրութի շրջան","name:ru":"Гадрутский район","admin_level":"4","name":"Hadrut Region","wikidata":"Q165511","boundary":"administrative"},"id":3807618,"arcs":[[73,191,192,-188,193,194]],"osm_type":"relation","name":"Hadrut Region","type":"Polygon"},{"properties":{"name:ja":"フィズリ県","admin_level":"4","name:ru":"Физулинский район","ISO3166-2":"AZ-FUZ","name":"Füzuli rayonu","wikipedia":"de:Füzuli (Rayon)","boundary":"administrative"},"id":3795450,"arcs":[[-194,-191,-185,-96,169,195]],"osm_type":"relation","name":"Füzuli rayonu","type":"Polygon"},{"properties":{"name:ja":"アグダム県","admin_level":"4","name:ru":"Агдамский район","ISO3166-2":"AZ-AGM","name":"Ağdam rayonu","wikipedia":"de:Ağdam (Rayon)","boundary":"administrative"},"id":3795445,"arcs":[[-98,-187,-190,-197,-198,-163]],"osm_type":"relation","name":"Ağdam rayonu","type":"Polygon"},{"properties":{"name:ja":"ゴイゴル県","admin_level":"4","name:ru":"Гёйгёльский район","name:en":"Goygol District","ISO3166-2":"AZ-GYG","name":"Göygöl rayonu","boundary":"administrative","wikipedia":"de:Göygöl (Rayon)","name:de":"Rajon Göygöl"},"id":3795447,"arcs":[[-199,-200,181,128,-156,117,-155]],"osm_type":"relation","name":"Göygöl rayonu","type":"Polygon"},{"properties":{"name:ja":"マルタケルト地区","name:hy":"Մարտակերտի շրջան","name:ru":"Мартакертский район","admin_level":"4","name":"Martakert Region","wikidata":"Q132348","boundary":"administrative"},"id":3807621,"arcs":[[76,200,201,202,203]],"osm_type":"relation","name":"Martakert Region","type":"Polygon"},{"properties":{"name:ja":"タルタル県","admin_level":"4","name:ru":"Тертерский район","ISO3166-2":"AZ-TAR","name":"Tərtər rayonu","wikipedia":"de:Tərtər (Rayon)","boundary":"administrative"},"id":3795449,"arcs":[[-164,197,-203,-205,-106]],"osm_type":"relation","name":"Tərtər rayonu","type":"Polygon"},{"properties":{"name:ja":"シャフミアン地区","name:hy":"Շահումյան շրջան","name:ru":"Шаумяновский район","name:en":"Shahumyan Region","admin_level":"4","name":"Շահումյան շրջան","wikidata":"Q782992","boundary":"administrative"},"id":3807623,"arcs":[[-201,75,-206,182,199,-207]],"osm_type":"relation","name":"Շահումյան շրջան","type":"Polygon"},{"properties":{"name:ja":"ゴランボイ県","admin_level":"4","name:ru":"Геранбойский район","ISO3166-2":"AZ-GOR","name":"Goranboy rayonu","wikipedia":"de:Goranboy (Rayon)","boundary":"administrative"},"id":3795446,"arcs":[[204,-202,206,198,-154,-107],[92]],"osm_type":"relation","name":"Goranboy rayonu","type":"Polygon"},{"properties":{"admin_level":"4","name:hy":"Շուշիի շրջան","name:ru":"Шушинский район","name:az":"Şuşa rayonu","name":"Շուշիի շրջան","name:de":"Provinz Schuschi","name:ja":"シュシー地区","wikipedia":"ru:Шушинский район (НКР)","name:en":"Shushi (Shusha) Region","ISO3166-2":"AZ-SUS","wikidata":"Q388960","boundary":"administrative"},"id":3807624,"arcs":[[-208,-192,78]],"osm_type":"relation","name":"Շուշիի շրջան","type":"Polygon"},{"properties":{"name:ja":"アスケラン地区","name:hy":"Ասկերանի մարզ","name:ru":"Аскеранский район","name:en":"Askeran Region","boundary":"administrative","admin_level":"4","name":"Ասկերանի մարզ","name:de":"Provinz Askeran","wikipedia":"ru:Аскеранский район (НКР)","wikidata":"Q4807202","name:fr":"Région d'Askeran"},"id":3807617,"arcs":[[196,-189,-193,207,77,-204]],"osm_type":"relation","name":"Ասկերանի մարզ","type":"Polygon"},{"properties":{"admin_level":"4","name:ru":"Казахский район","ISO3166-2":"AZ-QAZ","name":"Qazax rayonu","wikipedia":"de:Qazax (Rayon)","boundary":"administrative"},"id":3963560,"arcs":[[[208]],[[209]],[[210,211]]],"osm_type":"relation","name":"Qazax rayonu","type":"MultiPolygon"},{"properties":{"name:ja":"アグスタファ県","admin_level":"4","name:ru":"Акстафинский район","ISO3166-2":"AZ-AGA","name":"Ağstafa rayonu","boundary":"administrative"},"id":3764539,"arcs":[[-213,160,-214,210]],"osm_type":"relation","name":"Ağstafa rayonu","type":"Polygon"},{"properties":{"name:ja":"グサル県","admin_level":"4","name:ru":"Кусарский район","ISO3166-2":"AZ-QUS","name":"Qusar rayonu","wikipedia":"de:Qusar (Rayon)","boundary":"administrative"},"id":3764571,"arcs":[[-31,26,214,88]],"osm_type":"relation","name":"Qusar rayonu","type":"Polygon"}],"type":"GeometryCollection"}},"arcs":[[[3260,4033],[-10,16],[-6,2],[-3,12],[2,8],[-15,12],[-1,15],[-4,21],[-1,2],[-2,1],[-4,0],[0,-1],[-1,-1],[-2,-12],[-6,-9],[-1,-1],[-1,-2],[-1,-3],[-6,-9],[-4,-1],[-1,0],[-10,-9],[-1,-6],[-1,-3],[-6,-7],[-1,-1],[-2,-1],[-4,-6],[-1,-1],[-1,-1],[-1,0],[-1,-3],[-2,-1],[-2,-6],[-4,-3],[-1,-1],[-4,-5],[-1,-3],[2,-2],[1,-2],[-3,-3],[-4,-7],[1,-3],[2,-3],[3,0],[2,-1],[2,-1],[-2,-12],[-1,-4],[0,-4],[1,0],[3,-2],[0,-2],[-2,-2],[-3,-2],[-4,-1],[-5,-2],[-2,-3],[1,-5],[1,-6],[6,-6],[8,-4],[2,-6],[2,-2],[7,-1],[3,0],[2,-2],[1,0],[2,6],[5,4],[4,6],[4,1],[2,1],[9,-7],[6,-4],[2,0],[1,2],[3,30],[0,6],[1,3],[8,15],[-1,5],[-1,4],[0,3],[2,4],[1,3],[0,1],[2,11],[1,8],[1,1],[0,-1],[1,1],[3,0],[3,-3],[3,-4],[0,-3],[1,-2],[1,-1],[4,1],[1,0],[2,-2],[2,-2],[3,0],[10,8]],[[74,3470],[26,3],[34,27],[34,9],[28,-43],[27,23],[18,0],[0,37],[118,99],[-14,27],[-9,32],[51,49],[-5,31],[-43,24]],[[339,3788],[-17,-17],[-18,-15],[-7,-1],[-11,-7],[-3,3],[-9,-1],[-6,-4],[-12,4],[-7,0],[-5,3],[-4,1],[-3,3],[-3,-1],[-2,-2],[-3,-1],[-1,2],[-2,7],[-1,12],[0,10],[-2,6],[-3,4],[-3,2],[-5,0],[-4,2],[-5,8],[-4,4],[-3,0],[-2,-7],[-6,-8],[-4,-14],[-3,-3],[-11,-4],[-13,0],[-3,-1],[-10,3],[-6,-3],[-5,-4],[-5,-5],[-5,-1],[-4,0],[-6,1],[-5,-3],[-93,-36],[-14,-11],[4,0],[5,-4],[1,-3],[-6,-11],[-5,-9],[0,-5],[2,-1],[2,-1],[5,1],[10,1],[6,-3],[2,-3],[1,-8],[-1,-8],[2,-5],[8,-3],[2,-2],[1,-5],[-2,-5],[-5,-4],[1,-2],[2,-1],[8,-4],[4,-1],[7,2],[6,0],[1,-3],[-6,-22],[-7,-15],[1,-4],[2,-1],[8,5],[5,8],[2,0],[1,-1],[0,-7],[-2,-6],[-2,-6],[-5,-9],[-2,-7],[-1,-3],[1,-3],[7,-8],[4,-1],[10,5],[6,-1],[2,-5],[1,-8],[-3,-12],[-1,-13],[-2,-3],[-1,-2],[-2,0],[-6,-4],[-2,-5],[1,-9],[2,-8],[0,-5],[1,-7]],[[927,3229],[-41,-4],[-30,-32],[-24,-72],[-73,-8],[-8,16],[-34,-10],[1,-25],[-30,-10],[-3,-23],[-62,-26],[-73,-1],[2,-46],[-50,-44],[12,-25],[-19,-17],[-21,43],[-17,-9],[7,-110],[-14,-31],[-3,-5],[-1,-2]],[[446,2788],[0,4],[-1,5],[0,8],[-1,1],[-1,0],[-5,-3],[-3,1],[-2,1],[-7,10],[-4,8],[-5,4],[-3,5],[1,6],[-1,5],[-3,3],[-4,1],[-11,-4],[-2,1],[-1,2],[-1,3],[-1,6],[-2,4],[-1,1],[-1,0],[-4,-2],[-5,-3],[-2,1],[-2,2],[-2,9],[-11,7],[-6,4],[-3,5],[-20,3],[-7,2],[-2,2],[-1,2],[-1,5],[1,7],[2,8],[-1,9],[-5,11],[-3,10],[1,7],[2,2],[4,-2],[4,1],[4,4],[7,2],[5,6],[0,6],[-1,3],[-1,2],[-2,1],[-7,2],[-14,-3],[-17,4],[-4,-1],[-2,0],[-1,1],[0,11],[-1,4],[-5,2],[-4,4],[-1,4],[1,4],[3,5],[2,5],[1,4],[1,2],[5,5],[1,5],[-1,3],[-6,3],[-8,10],[-3,7],[0,2],[2,3],[7,-1],[4,2],[3,-1],[4,2],[1,3],[1,2],[-1,2],[-2,1],[-5,-2],[-5,-2],[-3,1],[-4,6],[-1,4],[1,3],[3,3],[5,-1],[5,-5],[5,1],[3,3],[1,5],[0,4],[-7,15],[-11,13],[-2,6],[-2,14],[-3,7],[-2,1],[-1,-3],[-4,0],[-4,2],[-4,3],[-2,5],[-3,4],[-9,5],[-1,6],[-2,4],[-6,3],[-5,7],[-1,9],[10,5],[3,3],[3,6],[-1,4],[-9,7],[-9,4],[-1,3],[6,16],[0,4],[2,6],[-5,20],[1,11],[3,6],[3,5],[4,4],[1,2],[-1,4],[-7,5],[-2,5],[-6,13],[-4,3],[-21,8],[-3,6],[0,6],[6,14],[11,19],[1,9],[1,7],[-2,6],[-3,5],[-3,2],[-3,-3],[-2,-8],[1,-6],[0,-6],[-3,-4],[-24,-9],[-4,3],[-1,7],[1,8],[0,4],[12,18],[0,8],[-8,15],[-5,1],[-6,-2],[-4,-6],[0,-16],[-1,-6],[-2,-4],[-5,-3],[-9,-1],[-4,2],[-20,23],[-5,3],[-17,-4],[-4,0],[-4,1],[-5,6],[-4,5],[-7,13],[-4,13],[0,9]],[[339,3788],[10,10],[14,9],[7,3],[9,2],[6,2],[5,1],[-1,5],[0,8],[2,5],[4,8],[1,4],[0,5],[7,9],[5,1],[9,6],[6,-3],[6,1],[8,12],[2,4],[0,8],[4,15],[7,4],[3,5],[3,15],[3,2],[7,1],[7,7],[4,2],[2,-4],[2,-7],[3,-3],[1,0],[5,-2],[3,-3],[13,0],[4,-4],[2,-7],[15,-17],[14,-8],[4,-12],[9,-12],[3,-1],[1,-5],[9,-6],[5,-6],[-1,-2],[4,-6],[4,-20],[7,-9],[4,-1],[3,-6],[2,-3],[-2,-7],[-1,-16],[2,-5],[4,-2],[2,-20],[3,-5],[3,-9],[6,-8],[1,-3],[0,-8],[1,-5],[5,-5],[5,-9],[8,-7],[8,-16],[9,-8],[4,-9],[1,-13],[6,-5],[9,-2],[5,-6],[4,-18],[-10,-16],[-4,-4],[-4,-5],[-2,-4],[-2,-7],[1,-14],[2,-20],[8,-3],[7,-3],[3,-2],[-1,-5],[-9,-23],[-3,-18],[-7,-16],[0,-9],[2,-15],[0,-16],[-3,-6],[10,-14],[0,-6],[-11,-30],[1,-3],[20,-14],[27,-12],[6,0],[11,-2],[3,2],[15,13],[1,7],[-2,12],[0,3],[4,24],[7,5],[6,6],[7,3],[3,2],[4,7],[26,3],[19,-1],[13,1],[8,1],[7,2],[6,-1],[5,-3],[5,-1],[8,1],[3,-1],[3,-4],[1,-5],[0,-7],[-5,-13],[-5,-9],[-1,-6],[0,-6],[1,-7],[0,-5],[-5,-10],[1,-9],[2,-7],[4,-6],[9,-11],[1,-17],[1,-7],[2,-8],[5,-4],[4,-4],[9,-2],[4,-2],[6,0],[4,-7],[6,-8],[6,-7],[5,-6],[1,-21]],[[1292,1639],[-2,0],[-1,-1],[-2,-5],[-2,-8],[1,-1],[-2,-5],[-3,-2],[-2,2],[-6,-2],[-1,-1],[-8,-10],[-3,-1],[-2,0],[-3,3],[-2,1],[-2,0],[-2,-2],[-4,0],[-7,5],[-2,5],[-1,2],[-2,3],[-3,1],[-3,-2],[-2,0],[-2,5],[-3,1],[-2,0],[-2,2],[-3,5],[-2,1],[-9,4],[-4,3],[-5,4],[-2,1],[-2,1],[0,3],[-3,1],[-1,-1],[-2,0],[-2,1],[-1,3],[0,4],[-4,3],[-2,0],[-3,-1],[-2,-2],[-1,0],[-5,3],[-2,2],[-4,5],[-7,0],[-3,-2],[-4,1],[-9,9],[-2,-2],[-4,1],[-7,2],[-3,0],[-5,1],[-2,-1],[-5,2],[-1,2],[-1,4],[-4,3],[-3,2],[-1,0],[-3,6],[-2,4],[-3,4],[-5,11],[-3,3],[-1,5],[1,7],[0,3],[-1,1],[-1,2],[-1,2],[1,3],[0,3],[4,9],[1,3],[10,18],[0,4],[2,1],[3,8],[1,4],[0,5],[-1,3],[0,5],[1,8],[0,4],[3,9],[3,4],[3,3],[1,5],[-2,6],[0,2],[2,0],[1,2],[-1,2],[-1,2],[-4,6],[-1,3],[-10,-1],[-5,-2],[-3,-6],[-2,-1],[-2,0],[-3,3],[-4,1],[-1,1],[-2,0],[-2,5],[1,3],[-3,10],[0,3],[-2,1],[-2,0],[-4,-1],[-5,5],[-3,1],[-3,3],[-1,3],[-3,4],[-3,5],[-2,1],[-6,7],[-4,3],[-6,2],[-1,6],[-3,5],[-1,14],[1,12],[3,6],[4,6],[3,4],[-2,15],[-75,138],[-95,99],[-35,14]],[[823,2230],[0,95],[3,28],[-5,22],[6,16],[-13,6],[6,46],[36,-19],[43,78],[-13,17],[0,14],[5,9],[23,17],[-4,14],[16,41],[-13,3],[11,79],[7,15],[28,19],[8,40],[-21,40],[0,24],[8,20],[17,22],[-11,36],[6,27],[-4,12],[-15,-6],[-12,19],[-69,58],[7,32],[-1,11],[15,16],[11,72],[49,35],[18,6],[18,27]],[[983,3221],[10,2],[10,-8],[4,0],[6,-2],[6,0],[8,-10],[2,-5],[4,-3],[4,-4],[6,-1],[4,-1],[15,-9],[14,-1],[3,-6],[1,-9],[2,-7],[4,-9],[3,-10],[2,-10],[0,-4],[1,-6],[7,-1],[5,0],[10,6],[3,4],[7,-3],[0,-4],[2,-12],[6,-15]],[[1132,3093],[-4,-13],[-6,-4],[-17,-37],[-20,-37],[-13,-2],[-22,16],[-13,-5],[-26,-60],[-1,-45],[19,-24],[16,-38],[9,-67],[95,-63],[8,-28],[44,-65],[80,-16],[17,-25],[-37,-69],[2,-37],[58,3]],[[1321,2477],[24,-46],[-26,-33],[-28,8],[-17,-40],[35,-37],[-162,-51],[5,-46],[60,-69],[61,-10],[12,-63],[-27,-31],[0,-31],[36,-29],[-5,-19],[-52,-7],[-9,-18],[0,-25],[13,-31],[54,-12],[6,-69],[3,-30],[2,-52],[1,-21],[-39,-41],[24,-35]],[[1077,2322],[-18,9],[13,23],[-6,12],[-12,-14],[-11,-1],[-17,32],[-30,-20],[-1,-14],[11,-17],[-10,-22],[8,-24],[-15,-14],[0,-14],[5,-5],[3,-6],[0,-11],[1,-1],[0,-3],[3,-3],[1,0],[4,1],[1,1],[1,0],[17,-14],[9,-12],[13,-10],[9,10],[-7,16],[21,6],[7,92],[0,3]],[[3194,9752],[-7,-22],[-11,-30],[1,-49],[-13,-58],[-27,-38],[-28,-66],[-20,-23],[-38,-22],[-32,-50],[-18,-10],[-26,3],[-17,-8],[-7,-32],[-19,-31],[-24,-44],[-7,-20],[-3,-32],[-4,-50],[-20,-57],[-42,-40],[-33,-10],[-33,6],[-31,-12],[-32,0],[-30,-11],[-3,12],[-35,4],[-20,-34],[7,-8],[19,17],[8,-44],[-20,-8],[-66,-80],[-9,0],[-23,25]],[[2531,8930],[0,6],[-2,2],[0,2],[-2,1],[-3,-3],[-2,-1],[-3,1],[-1,2],[-1,3],[0,3],[2,2],[2,0],[5,-3],[2,2],[-1,4],[-3,4],[-1,6],[1,3],[4,4],[0,5],[-5,3],[-1,4],[1,4],[2,8],[-1,7],[-19,18],[-4,7],[-1,6],[2,4],[-5,7],[-3,-2],[-2,1],[-7,8],[-3,0],[-1,-2],[-2,-6],[-2,-2],[-2,3],[-4,5],[-3,0],[-3,-4],[0,-4],[2,-3],[3,-2],[0,-2],[-4,3],[-4,-1],[-3,-2],[0,-6],[5,-11],[0,-7],[-2,0],[-1,-1],[-1,-1],[-2,-1],[-2,2],[-2,5],[-2,2],[-2,0],[-3,-2],[-2,0],[-1,2],[-1,4],[-1,1],[-3,0],[-3,-3],[-3,-2],[-4,0],[-3,3],[-2,4],[-2,1],[-4,2],[-6,8],[-3,1],[-2,2],[-1,2],[1,3],[0,1],[1,1],[2,0],[1,-1],[2,-1],[5,-4],[3,-3],[1,0],[2,1],[1,2],[0,3],[-1,1],[-2,-1],[-2,0],[-2,1],[-3,4],[0,5],[3,1],[3,-1],[2,-2],[3,0],[1,1],[1,1],[-1,5],[-3,10],[1,7],[-1,3],[-2,4],[-3,4],[-2,8],[-1,4],[-5,3],[-2,3],[-2,4],[-1,7],[-2,3],[-3,0],[-1,-2],[1,-2],[2,-4],[1,-3],[-1,-2],[-3,-10],[-1,-4],[1,-3],[2,-1],[2,2],[1,2],[2,1],[2,-1],[0,-4],[-1,-4],[-2,-5],[-1,-1],[-1,0],[-5,2],[-4,1],[-5,2],[-1,3],[-2,1],[-1,0],[-2,-3],[-1,-6],[-2,-4],[0,-5],[2,-2],[1,-2],[0,-6],[2,-3],[3,-2],[1,-2],[0,-4],[-2,-3],[-2,0],[-3,1],[-8,14],[-2,1],[-3,-1],[-1,-1],[-1,-3],[1,-1],[6,-3],[2,-1],[1,-3],[0,-9],[-2,-2],[-1,-3],[0,-2],[1,-2],[3,-1],[1,-2],[1,-3],[0,-2],[-2,-3],[-2,-4],[-4,-5],[-4,-2],[-5,-1],[-3,3],[-1,4],[-1,11],[1,2],[2,1],[3,-1],[3,2],[1,2],[0,1],[-1,2],[-2,0],[-5,-3],[-3,-1],[-2,1],[-1,1],[-2,4],[-2,0],[-4,-2],[-3,1],[-3,3],[-8,4],[-1,3],[1,2],[3,3],[1,3],[0,2],[-1,2],[-3,1],[-3,-1],[-3,-4],[-2,-1],[-2,1],[-1,1],[1,2],[2,3],[0,2],[-1,2],[-2,1],[-5,-4],[-5,0],[-4,1],[-2,3],[-1,3],[1,10],[5,3],[1,2],[-1,3],[-7,6],[-1,3],[1,2],[3,0],[2,-2],[2,0],[2,2],[2,-1],[2,-2],[2,1],[2,1],[1,2],[-1,2],[-1,1],[-3,-2],[-5,2],[-2,0],[-2,2],[0,6],[-2,1],[-1,1],[-1,-1],[-1,-2],[-1,-4],[-1,-3],[-4,-5],[-5,-4],[-2,1],[-2,1],[0,5],[1,2],[4,4],[2,4],[0,4],[3,2],[0,5],[3,3],[3,4],[-5,7],[2,1],[0,5],[-11,2],[1,9],[4,1],[-3,6],[11,6],[8,1],[1,6],[-5,13],[7,9],[-3,11],[-5,-3],[-8,11],[0,12],[-6,5],[-8,13],[1,5],[-3,4],[-4,17],[4,7],[-2,9],[2,8],[-8,6],[-3,7],[4,4],[-1,6],[1,13],[-6,-1],[-4,14],[2,2],[1,20],[3,1],[-2,13],[1,7],[0,15],[2,3],[1,13],[9,10],[0,5],[11,7],[5,6],[2,19],[3,11],[-1,8],[2,4],[-2,9],[1,5],[4,8],[19,-26],[17,-10],[24,-11],[16,38],[26,4],[58,13],[-2,29],[3,7],[6,1],[1,5],[2,2],[1,3],[7,1],[8,5],[7,7],[14,21],[7,15],[27,29],[9,13],[4,1],[13,7],[5,1],[2,5],[2,4],[2,2],[1,3],[2,2],[1,3],[2,0],[3,3],[4,3],[0,3],[2,0],[3,3],[1,-1],[1,2],[1,1],[2,1],[3,5],[3,1],[2,3],[1,3],[1,0],[2,3],[1,3],[-1,2],[2,3],[1,4],[1,1],[-1,4],[2,2],[1,2],[0,2],[-1,2],[0,4],[-1,3],[1,3],[1,3],[0,3],[1,1],[0,3],[2,1],[2,0],[0,2],[1,1],[3,6],[2,2],[1,2],[0,1],[1,1],[0,2],[3,3],[1,1],[3,6],[0,2],[1,5],[-1,1],[1,1],[0,5],[-1,3],[-1,1],[-1,4],[-1,2],[-1,3],[1,1],[0,3],[-2,1],[-2,0],[-1,3],[1,2],[0,2],[-2,2],[-2,2],[-1,3],[1,2],[-1,2],[0,1],[1,2],[1,1],[0,1],[-1,1],[1,3],[3,5],[3,3],[0,3],[1,1],[1,2],[1,0],[1,1],[1,0],[1,2],[1,2],[1,2],[0,5],[2,2],[0,3],[1,2],[4,8],[0,9],[1,2],[3,5],[1,2],[43,-57],[38,-29],[7,-2],[29,12],[3,4],[10,5],[5,-1],[3,-4],[11,0],[12,-10],[17,-10],[1,-7],[-1,-12],[2,-6],[5,-7],[9,-1],[7,-5],[-1,-9],[2,-7],[3,-3],[1,-9],[-6,-20],[2,-37],[5,-4],[-5,-11],[3,-17],[1,-8],[3,-3],[12,-5],[1,-3],[1,-11],[2,-5],[4,2],[4,0],[3,-4],[3,-10],[6,-2],[4,-7],[1,-6],[5,-2],[10,13],[4,7],[5,6],[12,0],[7,8],[7,7],[6,11],[6,9],[1,4],[-4,7],[-1,3],[6,7],[3,8],[7,1],[5,-3],[4,-6],[2,-6],[17,-2],[2,1],[5,5],[4,3],[9,0],[10,5],[1,12],[1,2],[3,-1],[5,-11],[11,-5],[12,0],[3,2],[10,2],[12,-5],[4,-4],[6,-5],[2,-8],[5,2],[6,4],[5,-1],[2,-1],[4,1],[-1,8],[-10,24],[1,6],[1,16],[10,3],[16,20],[8,4],[11,0],[6,4],[6,1],[6,10],[4,0]],[[3612,8891],[-1,-1],[-6,10],[1,14],[4,11],[5,9],[2,13],[-10,11],[-14,-2],[-4,7],[-4,11],[-6,5],[-3,10],[-4,4],[-4,10],[-2,11],[8,4],[7,36],[8,10],[6,15],[0,12],[-3,10],[-6,2],[-3,8],[0,12],[-3,8],[-14,9],[-10,-1],[-45,30],[-2,7],[-17,22],[-6,36],[-7,2],[-7,-6],[-7,0],[-4,15],[-6,12],[6,14],[2,24],[5,20],[-1,10],[-22,45],[-16,5],[-3,7],[-8,6],[-15,-11],[-20,-6],[-7,-18],[-5,-4],[-8,3],[-8,22],[-1,16],[-9,6],[-6,10],[-16,18],[-12,6],[0,34],[-13,9],[-7,-5],[-18,0],[-6,6],[-13,26],[-6,2],[-1,3],[3,11],[0,5],[-20,23],[-1,5],[-14,14],[-9,16],[2,13],[5,14],[17,4],[5,13],[-16,25],[-3,10],[-2,12],[-10,20],[-2,18],[-4,6],[1,20],[-2,5],[-1,11],[-2,2]],[[3020,8381],[-7,9],[3,33],[20,28],[15,68],[14,72],[18,31],[2,19],[38,-6],[6,55],[20,58],[31,41],[42,6],[30,34],[28,51],[30,9],[52,-26],[10,-22],[17,-1],[70,-45],[22,2],[21,-9],[45,-83],[8,44],[-24,51],[10,27],[45,-31],[28,49],[-2,46]],[[2531,8930],[0,-2],[-2,-2],[-4,-1],[-2,-3],[-2,0],[-2,2],[0,8],[-1,1],[-3,1],[-2,0],[-2,2],[-1,2],[0,4],[1,2],[0,2],[-1,2],[-2,2],[-1,-1],[-4,-4],[-2,0],[-1,5],[-2,1],[0,7],[-1,1],[-2,2],[-1,0],[-1,-1],[-2,-3],[-4,-3],[-4,0],[-3,-4],[-4,-2],[-1,-2],[-1,-1],[1,-4],[1,-4],[3,-3],[1,0],[1,-2],[1,-1],[-1,-1],[0,-2],[-1,-1],[-2,-1],[-2,0],[-4,-3],[-2,0],[-1,1],[-1,4],[-1,4],[2,6],[2,3],[0,3],[-2,3],[-2,2],[-4,0],[-1,-2],[-2,-1],[-2,0],[-1,-2],[-1,-6],[0,-3],[4,-6],[2,-6],[0,-5],[1,-7],[0,-5],[3,-5],[5,-3],[1,-3],[-2,-3],[-2,-1],[-6,1],[-2,-2],[0,-5],[2,-3],[5,-2],[1,-2],[-1,-4],[1,-9],[1,-6],[3,-5],[4,-5],[0,-4],[-2,-4],[-5,1],[-2,-1],[0,-3],[2,-3],[2,-1],[6,0],[7,-8],[5,-1],[3,2],[4,8],[1,6],[4,2],[4,-2],[2,-4],[-2,-5],[-3,-2],[-4,-1],[-3,-3],[-2,-5],[0,-7],[2,-4],[5,-4],[5,1],[6,4],[2,0],[3,-3],[1,-4],[-1,-3],[-4,0],[-7,1],[-4,-4],[0,-5],[3,-7],[2,-20],[2,-5],[4,-9],[0,-5],[-2,-5],[0,-5],[2,-5],[6,-1],[8,4],[2,0],[1,-1],[0,-5],[-3,-5],[0,-4],[7,-5],[5,-3],[5,0],[3,2],[2,3],[1,7],[0,4],[-1,4],[-3,4],[-1,4],[1,3],[1,2],[2,1],[3,-1],[2,-3],[-1,-5],[1,-5],[2,-3],[1,-3],[0,-3],[-3,-4],[-2,-6],[0,-4],[2,-6],[4,-3],[3,1],[2,6],[3,2],[3,-1],[5,-8],[1,-2],[2,-1],[2,1],[2,3],[1,1],[3,0],[1,-1],[2,0],[1,2],[0,9],[1,1],[1,0],[2,-1],[0,-1],[2,-5],[2,-4],[1,-4],[-1,-5],[0,-5],[2,-3],[6,-1],[4,2],[3,-1],[2,-3],[2,0],[3,2],[1,3],[2,1],[4,-2],[2,-2],[0,-5],[-1,-1],[-3,-2],[-4,1],[-3,-1],[-3,-3],[-2,-1],[-2,-2],[0,-6],[-1,-5],[0,-3],[1,-1],[2,-2],[1,-1],[4,-2],[2,0],[5,2],[3,2],[3,6],[4,6],[1,4],[-2,8],[1,2],[1,2],[3,0],[2,-3],[1,-4],[4,-5],[2,-5],[2,-1],[6,0],[3,-3],[3,-2],[1,-3],[1,-2],[-1,-3],[-1,-5],[0,-3],[2,-2],[1,0],[3,1],[2,2],[2,6],[2,0],[-1,-4],[-1,-5],[-5,-3],[-3,-6],[-1,-22],[4,-4],[6,-3],[9,-1],[3,0],[4,3],[4,5],[1,3],[0,3],[-1,2],[-2,1],[-4,0],[-1,2],[-1,2],[1,3],[2,1],[3,1],[2,-1],[3,-7],[5,-7],[0,-8],[-2,-4],[-5,-5],[-5,-1],[-2,-3],[0,-3],[8,-3],[4,-1],[4,-2],[3,-3],[3,-6],[0,-9],[3,-5],[2,-1],[10,-3],[3,-2],[3,-9],[4,-1],[3,3],[2,5],[2,3],[4,0],[3,-4],[0,-5],[-1,-3],[-3,-1],[-4,-2],[-2,-2],[0,-2],[1,-2],[1,-1],[7,-1],[3,0],[8,3],[1,0],[1,-1],[1,-3],[-1,-2],[-3,-3],[0,-2],[1,-2],[3,-3],[3,0],[3,-5],[4,-1],[5,-4],[3,-1],[5,0],[5,1],[7,-4],[4,-6],[0,-3],[-1,-2],[-4,-2],[0,-3],[2,0],[6,1],[4,3],[3,7],[4,2],[3,-1],[1,-3],[-2,-5],[0,-4],[2,-5],[3,-1],[2,-2],[4,-1],[10,3],[2,-1],[3,-4],[1,-1],[6,-1],[8,-5],[3,-1],[3,0],[4,1],[4,0],[5,-3],[3,0],[2,1],[7,3],[3,-1],[2,-3],[2,-4],[-1,-3],[-2,-6],[0,-3],[1,-2],[3,-1],[4,2],[3,0],[6,-5],[3,0],[6,2],[3,-1],[5,-2],[2,0],[4,1],[2,0],[2,-2],[2,-3],[1,-6],[1,-3],[3,0],[1,1],[1,2],[2,2],[2,-1],[2,-5],[2,-3],[1,0],[1,1],[1,2],[-1,3],[0,2],[1,2],[1,1],[2,0],[3,-1],[4,-3],[2,-3],[1,-3],[0,-3],[-3,-7],[-3,-2],[-2,-5],[-2,-4],[1,-6],[2,-3],[2,-2],[4,0],[3,-3],[3,-2],[1,-1],[1,0],[2,1],[1,1],[1,2],[0,11],[1,2],[6,6],[1,2],[0,2],[-1,2],[-2,2],[0,4],[1,1],[7,-2],[1,-2],[2,-4],[0,-5],[-2,-3],[-2,-4],[-3,-2],[-2,-1],[-2,-2],[-1,-2],[-1,-3],[1,-4],[1,-4],[2,-1],[3,-1],[3,3],[6,10],[2,2],[2,0],[3,-3],[0,-14],[2,-5],[4,-3],[5,1],[4,3],[1,0]],[[4752,7866],[-11,-29],[-3,-12],[-3,-25],[9,-31],[8,-37],[-18,-19],[2,-30],[-24,-10],[-20,-79],[-13,-14],[-13,-69],[-36,-66],[12,-31],[13,-67],[-20,-38],[-4,-22],[-14,-24],[-14,-27],[-4,-19],[-18,-21],[-4,-17],[-16,-12],[-2,-13],[-13,-24],[-4,-27],[-10,-20],[2,-15],[-11,-35],[12,-50],[-3,-10],[3,-32],[5,-29],[1,-45],[-6,-33],[12,-40]],[[4547,6794],[-42,21],[-18,66],[-90,31],[-8,21],[-113,97],[-50,68],[-14,27],[8,25],[-2,65],[-26,-6],[-2,39],[18,25],[-7,8],[-28,-31],[-20,7],[-7,40],[11,6],[0,25],[-8,57],[-12,10],[-11,-15],[-13,38],[-21,1],[-18,-28],[-8,-40],[-8,3],[2,48],[-17,-3],[10,56],[2,35],[17,38],[76,170],[23,-17],[27,70],[-8,37],[-11,34],[20,41],[43,49],[6,85],[-6,42],[-1,23],[3,18]],[[4244,8080],[7,-2],[8,2],[7,-1],[7,-4],[9,9],[5,9],[13,3],[3,3],[4,0],[2,-6],[8,-10],[0,-5],[2,-4],[2,-1],[8,-9],[2,-8],[3,-5],[4,0],[4,9],[2,4],[7,8],[6,2],[4,2],[5,2],[8,4],[5,0],[7,-14],[3,-2],[2,-4],[-1,-8],[0,-8],[-1,-14],[3,-5],[2,-8],[0,-6],[-4,-16],[-4,-7],[-3,-4],[1,-10],[2,-4],[1,-5],[5,-6],[8,-5],[7,-8],[7,-3],[6,-10],[2,-4],[2,-2],[6,-3],[2,-2],[2,-6],[3,-5],[3,-6],[14,-1],[5,-4],[2,-5],[5,-4],[3,-5],[3,-2],[8,-1],[5,2],[0,18],[4,9],[0,6],[2,4],[4,1],[3,4],[3,8],[2,1],[14,-1],[6,2],[9,-4],[4,3],[0,5],[8,2],[7,-1],[5,-6],[2,0],[1,3],[1,13],[-1,7],[4,2],[2,12],[3,3],[2,6],[2,9],[2,1],[1,-3],[1,-1],[3,-4],[5,-4],[2,-1],[3,-2],[7,0],[3,-4],[6,-2],[4,0],[6,-2],[2,-4],[0,-2],[5,-10],[3,0],[3,2],[4,0],[6,-1],[8,2],[6,-2],[4,-2],[3,-1],[7,4],[10,-1],[2,1],[4,4],[2,4],[2,1],[6,-3],[8,0],[3,-1],[5,-22],[1,-10],[5,-5],[8,-10],[5,-1],[3,-3],[15,-2],[0,-18],[-1,-20],[1,-1],[4,-3],[3,-1]],[[3927,7911],[-47,22],[8,76],[-13,5],[-9,-8],[-7,-12],[-4,-9],[-3,-20],[-4,-24],[-52,-239],[49,-23],[53,104],[-16,65],[45,63]],[[4803,6455],[6,22],[5,26],[25,32],[12,35],[15,30],[18,21],[9,25],[23,11],[8,20],[14,18],[8,27],[10,5],[16,9],[10,13],[29,22],[15,27],[6,11],[31,15],[14,27],[30,0],[21,3],[15,31],[48,48],[-12,54],[26,6],[17,33],[15,4],[-3,33],[3,23],[-14,5],[-6,23],[18,46],[-27,13],[5,37],[-7,13],[3,35],[-22,38],[-21,16],[-4,25],[13,39],[39,12],[6,-43],[36,24],[-16,70],[13,45],[42,28],[5,34]],[[4587,6389],[28,19],[39,1],[37,-7],[22,11],[7,46],[60,-15],[23,11]],[[4548,6754],[7,-9],[0,-19],[-8,-33],[-2,-35],[-40,-43],[-13,-12],[-13,-25],[-12,-36],[-16,-24],[12,-41],[22,-15],[55,-72],[47,-1]],[[4547,6794],[1,-40]],[[4926,7935],[-8,5],[-3,1],[-10,9],[-14,-5],[-11,-1],[-3,-11],[-2,-10],[-10,-5],[-5,-7],[-7,-7],[-6,-21],[-1,-11],[-5,-8],[-2,-8],[-6,-6],[-7,5],[-15,3],[-10,0],[-6,4],[-3,7],[-5,0],[-3,-8],[-5,-6],[-8,6],[-13,4],[-6,1]],[[5164,7786],[-13,12],[-31,-1],[-35,0],[-24,25],[-31,19],[-24,-20],[-30,2],[-2,36],[-31,33],[-17,43]],[[5300,7546],[-24,16],[-39,15],[-36,43],[-36,30],[-6,31],[11,34],[-9,43],[3,28]],[[6440,7069],[-8,-27],[-11,5],[-30,3],[-18,-42],[-24,1],[-24,47],[-83,47],[-55,13],[-59,37],[-45,25],[-61,-5],[-5,28],[-47,-22],[-90,54]],[[5880,7233],[-21,25],[-52,28],[-62,15],[-82,69],[-24,-24],[-64,27],[-71,61],[-40,43],[-78,15],[-51,15],[-35,39]],[[5164,7786],[6,7],[16,17],[8,17],[15,15],[14,27],[13,7],[45,67],[3,41],[8,2],[14,-14],[17,-2],[17,19],[35,15],[-1,54],[29,5],[16,20],[37,-11],[53,67],[37,3],[24,21],[24,82],[69,24],[16,12],[16,27],[35,26],[3,35],[59,52],[51,26],[9,15],[58,68],[46,47],[51,0],[37,31],[29,4],[16,15],[0,24],[41,34],[8,-7],[14,18],[27,5],[4,23]],[[6183,8724],[27,-52],[7,-13],[35,21],[18,-28],[13,3],[10,-22],[13,-11],[0,-67],[-29,-30],[12,-40],[6,-16],[2,-11],[6,-17],[9,-40],[10,-16],[3,-24],[1,-2],[6,-26],[44,5],[66,11],[21,34],[17,12],[8,-7],[-22,-35],[2,-18],[9,-19],[12,-22]],[[6489,8294],[22,-41],[-2,-10],[-14,-1],[-17,-17],[1,-10],[9,-12],[7,-23],[-5,-22],[-13,-12],[-12,-18],[-15,12],[-2,-19],[12,-30],[20,-32],[-3,-21],[-25,-25],[-34,-21],[-21,-4],[-23,-27],[-11,-23],[-17,-4],[-8,-20],[-9,-11],[12,-59],[-31,-73],[-4,-23],[-16,-4],[-31,-43],[23,1],[33,-12],[12,10],[15,-21],[23,13],[11,-25],[19,-11],[3,-19],[-6,-17],[0,-15],[18,-22],[4,-11],[-4,-23],[-31,-23],[-19,-39],[-34,-32],[-17,-45],[50,-27],[-5,-21],[6,-40],[-19,-19],[-1,-72],[-7,-16],[-1,-19],[9,-22],[31,-36],[16,4],[13,-19],[15,-9],[15,-24],[7,-2],[2,-19]],[[5998,6787],[-15,-8],[-3,-100],[-33,-50],[-23,-4],[-33,-73],[-14,-41],[-49,5],[-55,-31],[-13,-64],[-81,-58],[-55,-21],[-27,-45],[14,-64],[-124,-1],[6,-71],[4,-18],[-6,-42],[-6,-34],[-18,-24],[-25,-6],[-23,5],[-20,-13],[-28,6],[-49,-6],[-11,-29]],[[5311,6000],[-42,-13]],[[5269,5987],[-29,64],[-9,45],[36,7],[26,26],[6,91],[-18,27],[4,33],[-17,9],[-18,-14],[-22,19],[-23,-17],[-25,14],[-23,51],[-144,36],[-31,-32],[-32,17],[13,52],[-78,26],[-39,-27],[-33,39],[-10,2]],[[5880,7233],[13,-76],[31,-59],[50,1],[69,-65],[-30,-41],[15,-82],[11,-51],[-41,-73]],[[6441,5491],[12,-134],[-50,-119],[-65,-56],[-179,108],[-5,82],[-19,26],[-69,-23],[-41,74],[-24,50]],[[6001,5499],[59,71],[-26,79],[29,53],[-4,31],[74,91],[29,46],[50,53],[-41,94],[-29,19],[-14,25],[-20,-5],[-35,17],[-25,-17],[-38,22],[-37,44],[-63,23],[-16,-50],[-29,34],[29,77],[-33,74],[22,28],[31,-10],[20,46],[3,48],[62,-2],[12,32],[38,-4],[14,53],[15,3],[-2,28],[-20,-4],[-31,25],[24,66],[-23,33],[10,31],[-32,29],[11,28],[-17,77]],[[6440,7069],[12,-4]],[[6452,7065],[-3,-21],[19,-14],[-1,-32],[-18,-57],[16,-32],[10,-105],[23,-38],[0,-54],[72,-22]],[[6570,6690],[-18,-39],[-37,-23],[-23,-35],[-40,17],[-20,-2],[-9,-26],[-11,-90],[-35,-18],[-6,-41],[13,-51],[1,-44],[-7,-33],[-16,-13],[-5,-34],[28,-59],[23,-32],[2,-31],[-13,-27],[-5,-39],[9,-48],[14,-16],[8,-47],[-14,-22],[-15,-41],[9,-18],[21,-54],[-8,-23],[1,-29],[-8,-37],[-20,-54],[-17,-35],[13,-44],[-38,-81],[-28,-14],[-24,-40],[27,7],[36,20],[52,10],[15,-12],[16,-1]],[[6571,1011],[-2,4],[-2,8],[-9,9],[-3,6],[-2,2],[-9,16],[-10,32],[-5,13],[-2,12],[-2,3],[-1,10],[-2,4],[-1,9],[-12,-7],[-6,0],[-1,-30],[-26,19],[-24,-51],[35,-81],[9,-9],[4,-7],[2,-2],[2,-6],[2,-4],[-2,-1],[1,-4],[7,-4],[10,11],[1,5],[7,8],[3,5],[4,-1],[2,3],[2,6],[7,7],[4,2],[1,3],[5,5],[2,2],[2,-1],[2,0],[3,-1],[6,1],[-2,4]],[[6057,1436],[-2,96],[-7,30],[-10,8]],[[6038,1570],[-14,61],[-23,13],[-22,-6],[-22,-18],[-39,8],[-31,42],[22,59],[4,33]],[[5913,1762],[41,-3],[31,16],[24,4],[0,49],[29,33],[35,28],[22,-21],[17,21],[-10,65],[21,34],[39,11],[15,22],[5,27],[27,33],[-1,8],[-3,43],[-2,43],[44,19],[29,2],[11,31],[2,31],[22,17],[18,-23]],[[6329,2252],[37,-59],[62,-29],[46,-20],[16,-82]],[[6490,2062],[-3,-76],[41,-86],[39,-12],[-21,-86],[16,-75],[2,-75],[-35,-73],[-30,-46],[-92,33],[-7,-31],[26,-12],[19,-34],[1,-19],[-66,-61],[-11,-21],[-7,-5],[-10,23],[-10,1],[-14,-10],[-6,-10],[-2,-22],[-28,-40],[-24,-12],[-49,-6],[-66,42],[-64,78],[-32,9]],[[6196,595],[-5,-13],[-48,10],[-26,-17],[-84,-23],[-22,-18],[-14,-33],[-16,-6],[-17,-46]],[[5964,449],[-8,4],[-11,-7],[-7,5],[-3,8],[-3,3],[-1,12],[-1,2],[-4,-3],[-5,11],[1,14],[-5,21],[-8,10],[0,6],[4,7],[-4,4],[-1,7],[8,23],[-4,18],[5,10],[-13,7],[-6,-1],[-5,6],[-5,2],[-9,-3],[-7,5],[-10,-1],[-6,-9],[-5,-3],[-3,-8],[-11,-5],[-2,-6],[-28,1],[-3,7],[-5,0],[-6,-4],[-2,-7],[-10,-2],[-1,-5],[-11,-1],[-9,-9],[-8,8],[-9,-8],[-11,11],[-3,1],[0,1],[-2,1],[-1,1],[-1,2],[-2,0],[0,-1],[-2,-2],[-2,-1],[-4,1],[-4,6],[-1,2],[0,3],[-2,0],[-1,1],[-4,0],[-8,-7],[-17,16],[-3,10],[-3,4],[2,23],[-6,5],[-2,9],[-4,11],[-6,5],[1,6],[-5,12],[3,12],[-1,15],[-15,5],[-4,9],[-7,-1],[-5,8],[-12,7],[-16,1],[-9,12],[1,58],[-3,6],[-1,2],[-1,3],[-3,8],[0,7],[7,13],[9,6],[2,28],[-9,14],[-7,10],[-4,13],[4,12],[-10,8],[-1,7]],[[5570,951],[7,38],[15,221],[24,39],[31,11],[22,30],[1,38],[8,16],[30,8],[19,21],[25,7],[20,-3],[20,6],[4,22],[-3,43],[13,15],[10,-4],[30,18],[28,-31],[13,0],[4,19],[-5,19],[5,17],[8,11],[53,7],[23,11],[16,19],[47,21]],[[6057,1436],[-8,-33],[-17,-37],[0,-38],[-13,-27],[-5,-36],[-10,-22],[4,-15],[9,-7],[4,-49],[39,-43],[52,-46],[40,-52],[36,-19],[24,-47],[-6,-79],[6,-32],[22,-25],[27,6],[14,-34],[1,-17],[-19,-27],[-22,-51],[-2,-29],[-31,-27],[-18,-30],[2,-18],[10,-7]],[[5714,1850],[0,-13],[3,-8],[1,-12],[5,-6],[2,-9],[-4,-6],[1,-7],[-4,-13],[-3,-10],[-6,-15],[-5,-13],[-15,-17],[0,-9],[-10,-11],[-5,-6],[-15,-28],[0,-7],[-1,-2],[-2,2],[-4,-6],[-2,-5],[-6,-6],[-6,-5],[-12,-9],[-11,-15],[-19,-1],[-9,-6],[-22,1],[-4,-4],[-2,-7],[-10,-4],[-19,-12],[-8,0],[-3,1],[-7,-7],[-23,12],[-20,-3],[-4,-5],[-8,4],[-17,-8],[-7,5],[-8,-6],[-1,-11],[-7,-8],[-16,7],[-15,-7],[-27,2],[-6,-10],[-30,10],[-5,-21],[-6,-6],[2,-10],[-5,-10],[-2,-8],[3,-9],[-3,-9],[2,-10],[-16,-18],[-11,-1],[-14,-5],[-7,-11],[-18,-12],[-16,-3],[-9,29],[-6,6],[-14,-13],[1,-19],[3,-55],[13,-121],[22,-21],[2,-17],[8,-25],[7,2],[6,-13],[20,-9],[11,-15],[18,-6],[-2,-20],[16,0],[8,-14],[22,-1],[2,-9],[-11,-16],[9,-30],[18,11],[5,-9],[14,-4],[5,5],[4,-8],[14,-1],[6,-11],[24,-9],[15,6],[31,-16],[-2,-12],[14,-8],[1,-12],[4,-3],[6,-11],[18,-10],[5,4],[5,-8],[14,-7],[5,-1],[11,-2]],[[5913,1762],[-8,2],[-86,95],[-27,39],[-21,9],[-18,-20],[-8,-22],[-6,-7],[-12,8],[-13,-16]],[[1884,2576],[-2,4],[1,5],[0,5],[-2,5],[-3,5],[-4,2],[-3,4],[-2,3],[-5,-1],[-5,0],[-5,3],[-2,6],[-4,3],[-6,1],[-3,5],[-2,7],[-5,2],[-7,-1],[-10,6],[-4,4],[-2,6],[-2,5],[0,5],[-1,4],[-3,6],[-5,3],[-4,-1],[-5,6],[-7,6],[-6,5],[-4,7],[-4,3],[-10,10],[-5,0],[-3,1],[-7,6],[-8,0],[-9,-3],[-6,-3],[-2,4],[-4,2],[-10,-1],[-3,1],[-5,1],[-4,1],[-4,5],[-3,1],[-5,-2],[-4,-1],[-12,12]],[[1634,1496],[14,50],[29,-20],[5,20],[-19,20],[-16,35],[-4,46],[-8,44],[-16,36],[-20,21],[-13,62],[-2,58],[39,56],[14,33],[2,36],[41,45],[17,39],[5,39],[12,48],[41,82],[14,180],[33,42],[57,47],[25,61]],[[1292,1639],[12,7],[4,1],[2,-1],[3,-4],[1,-3],[0,-19],[2,-6],[9,-8],[3,-3],[4,-3],[9,-1],[3,-4],[1,-3],[3,-4],[3,-3],[3,-2],[2,0],[1,2],[1,3],[1,1],[1,-1],[2,-4],[1,-5],[0,-6],[3,-12],[-1,-5],[-3,-11],[1,-3],[2,0],[4,3],[13,3],[5,3],[6,0],[3,2],[3,3],[2,1],[6,1],[3,-2],[2,3],[1,11],[2,1],[5,-1],[8,1],[8,0],[5,-4],[7,-9],[3,-1],[1,1],[3,5],[3,2],[2,-1],[1,-1],[2,-3],[1,-4],[2,0],[8,7],[10,7],[3,0],[6,-3],[1,-7],[2,-8],[2,-2],[4,-2],[4,0],[9,4],[1,0],[5,-16],[6,-8],[7,-3],[3,-5],[3,-4],[8,-2],[3,-2],[5,-8],[2,-1],[27,4],[7,3],[2,0],[4,-3],[4,0],[4,-5],[3,-5],[6,-5],[4,-1],[4,0],[8,6],[3,-1]],[[1664,2733],[-53,-85],[-42,-32],[-15,-68],[-16,0],[-9,59],[-38,34],[-12,-6],[-12,-50],[-69,-45],[-59,-22],[-18,-41]],[[5269,5987],[2,-63],[0,-40],[-15,-66],[-32,5],[-26,-10]],[[5198,5813],[-62,-28],[-42,3],[-63,52],[-51,-10],[-84,48],[-34,29],[-9,37],[-43,26],[-26,8],[-9,9],[-17,2],[-15,7],[-16,31],[-12,16],[-10,2],[-20,-16],[-45,10],[-25,-10],[-11,-35],[-13,-10],[-12,11],[-7,47],[-11,16],[-21,-1],[-6,38]],[[4534,6095],[41,13],[1,58],[13,47],[-6,60],[4,37],[-2,40],[2,39]],[[6001,5499],[-91,-118]],[[5910,5381],[-19,12],[-43,97],[-48,95],[-38,-33],[-9,222],[-28,5],[-7,14],[-32,-19],[-53,4],[-9,59],[-37,-8],[-78,-157],[-14,13],[-18,29],[-12,32],[23,70],[-40,18],[-32,-33],[-14,-50],[-19,3],[-9,30],[-32,17],[-2,55],[11,57],[-4,76],[-5,12],[-31,-1]],[[6581,5426],[-22,89],[-118,-24]],[[6570,6690],[31,6],[41,-53],[61,-62],[48,-56],[20,-24],[29,-42],[15,-36],[27,-53],[81,-46],[99,-110],[28,-18],[4,-56],[47,-63],[50,-83],[63,-23],[61,-8]],[[7275,5963],[-21,-100],[-83,0],[-1,-46],[-36,14],[-44,-50],[-37,13],[-40,-28],[-9,35],[-11,-6],[6,-40],[14,-41],[-41,-50],[-89,-39],[-54,-69],[2,-28],[-18,-21],[-58,-9],[-18,-80],[-43,-75],[-47,35],[-46,38],[-20,10]],[[5151,5388],[16,68],[-10,21],[11,56],[14,0],[8,37],[-5,20],[6,44],[-8,39],[34,42],[-19,98]],[[4409,5617],[12,42],[-4,35],[12,6],[57,-44],[-12,-16],[2,-19],[11,-2],[10,-28],[33,-28],[91,-83],[64,-65],[74,45],[20,1],[43,-61],[42,-2],[51,-32],[56,2],[26,28],[126,-14],[28,6]],[[4534,6095],[-24,30],[-23,-15],[-2,-51],[-75,11],[-15,-36],[-17,-1],[-18,-30],[-5,-51],[-36,-23],[17,-50],[-8,-16],[-2,-51],[-30,-20],[-10,-38],[39,-84],[55,-60],[29,7]],[[4548,6754],[-28,13],[-88,-41],[-10,-14],[12,-24],[-3,-12],[-25,14],[-58,-12],[-28,54],[-36,23],[-7,-68],[-133,63],[-69,18]],[[4075,6768],[-67,50],[-68,13],[-25,33],[-36,-24],[-47,27],[-47,94],[-37,39],[-34,22],[-90,58],[-52,24],[-48,-7]],[[3524,7097],[1,251],[-23,154],[13,56],[-22,21],[-102,20],[-82,54],[-25,0],[15,62],[22,3],[43,175],[-12,46],[28,106],[38,-24],[5,48],[30,47],[-22,10],[-2,21],[-22,3],[6,30],[-10,10],[2,21],[23,34],[15,4],[15,41],[19,31],[9,-7],[20,17],[43,19],[12,-35],[38,27],[23,19],[97,95],[38,1],[20,31],[-12,31],[30,33],[20,-13],[32,48],[59,44]],[[3906,8631],[0,-4],[1,-4],[7,-16],[2,-9],[4,-3],[7,-4],[1,-4],[1,-6],[1,-1],[2,3],[3,2],[3,3],[4,2],[4,1],[9,-3],[2,1],[4,-5],[3,1],[4,-2],[1,-5],[-4,-12],[-6,-13],[-1,-4],[-3,-5],[-2,-1],[-4,-7],[-4,-5],[-7,-17],[-1,-9],[9,-14],[0,-9],[1,-6],[-2,-11],[-5,-8],[-4,-2],[-5,1],[0,-4],[2,-4],[4,-2],[3,2],[2,5],[2,1],[4,1],[4,0],[2,1],[2,1],[2,-3],[9,-7],[3,-6],[4,0],[2,3],[4,4],[6,1],[4,-1],[6,-5],[1,-3],[2,-11],[5,-13],[0,-8],[-3,-6],[-3,-3],[0,-7],[7,-14],[0,-8],[2,-6],[0,-6],[2,-10],[2,-10],[4,-20],[-17,-30],[-3,-6],[2,-6],[7,-5],[6,-8],[3,-7],[2,-6],[6,1],[7,-1],[5,-2],[7,-3],[5,-5],[1,-5],[-2,-5],[1,-4],[8,-9],[7,-14],[3,-9],[6,-3],[7,-7],[8,0],[15,-7],[7,-17],[11,-2],[6,-2],[3,-3],[6,-4],[1,-1],[2,-6],[1,-2],[1,-3],[2,-2],[6,-2],[2,-1],[1,-2],[0,-5],[1,-3],[2,-2],[5,-2],[4,-2],[7,-8],[2,-4],[4,-4],[3,-2],[4,-3],[5,0],[6,1],[5,1],[3,-1],[5,-5],[7,-1],[6,-2],[5,-4],[10,-1],[4,-3],[8,0]],[[3462,2169],[-21,77],[-10,38],[-15,59],[-4,16],[-19,69],[-49,185],[-30,118],[-7,25],[-56,159],[-30,80],[-14,176],[-27,9],[-28,-87],[-6,-12],[-21,-21],[-27,9],[-15,29],[6,63],[13,60],[-13,64],[9,28],[-15,11],[-13,1],[-17,8],[-5,24]],[[1800,3982],[2,-5],[19,-13],[9,0],[4,-6],[18,-18],[24,-17],[9,-3],[10,2],[12,6],[23,4],[4,-6],[10,-8],[7,-11],[14,-39],[19,-20],[5,-28],[35,-22],[8,-32],[3,-25],[31,-23],[25,-45],[-6,-14],[-12,-1],[-1,-10],[31,-38],[5,22],[25,7],[16,-15],[12,-36],[18,-17],[10,-22],[39,-14],[10,-34],[17,-15],[-11,-24],[0,-17],[10,-10],[2,-20],[-3,-12],[6,-9],[2,-40],[3,-20],[6,2],[5,21],[11,9],[8,33],[22,-1],[63,-2],[9,10],[8,4],[9,1],[29,15],[10,21],[24,15],[9,2],[8,14],[3,1],[5,-8],[8,4],[2,7],[12,12],[11,0],[11,-7],[7,2],[7,13],[24,-8],[7,-15],[1,-11],[-7,-11],[-2,-9],[12,0],[14,-5],[8,3],[25,36],[7,-3],[2,-29],[4,-10],[1,-32],[7,-23],[-3,-15],[-8,-15],[-2,-17],[4,-7],[16,-10],[8,-16],[4,-1],[1,1],[5,22],[7,5],[8,3],[14,-17],[5,0],[6,4],[9,9],[5,7],[14,13],[10,4],[5,1],[24,-4],[3,-2],[1,-3],[3,-3],[7,2],[4,2],[6,1],[4,-1],[4,-3],[2,-3],[-2,-4],[1,-3],[2,0],[4,-1],[2,-3],[5,-5],[8,-2],[5,-4],[4,-2],[2,2],[2,-1],[3,-3],[9,-5],[8,-3],[4,3],[3,1],[4,2],[2,0],[2,-8],[-1,-3],[2,-1],[1,2],[1,-1],[0,-3],[1,-3],[3,-4],[1,-3],[1,-4],[-2,-6],[1,-3],[5,-5],[1,-2],[-1,-3],[0,-2],[3,-2],[4,0],[0,-5],[1,-4],[3,-2],[-1,-8],[-2,-8],[0,-3],[3,-4],[1,-2],[0,-2],[-3,-4],[1,-2],[2,-2],[4,-8],[3,-7],[2,-10],[-4,-2],[-9,7],[-2,7],[-4,6],[-3,9],[1,5],[-3,3],[-20,5],[-8,6],[-13,4],[-5,-2],[-4,-2],[-1,-5],[7,-7],[-2,-11],[-13,-12],[-7,-7],[-7,-3],[-5,0],[-7,-2],[-6,-5],[-10,-4],[-3,-9],[-8,-5],[-5,-2],[-2,-10],[13,-12],[0,-2],[4,-3],[1,-5],[-5,-4],[-1,-5],[2,-4],[7,-3],[2,-6],[0,-14],[8,-11],[2,-10],[20,-6],[3,-9],[-2,-6],[4,-10],[8,-9],[-1,-3],[-4,-3],[-1,-7],[-4,-3],[-4,0],[-5,7],[-4,10],[-4,-2],[-5,2],[-4,4],[-4,-6],[-2,2],[0,5],[-5,3],[-9,18],[-5,-1],[-2,4],[-3,0],[-2,-7],[-5,-1],[-6,5],[-10,1],[-7,-5],[6,-16],[-6,-14],[-9,-13],[-8,-8],[-13,-26],[-6,-14],[-6,-4],[-9,-3],[-13,11],[-6,10],[-8,6],[-15,5],[-5,0],[-7,-10],[-7,-3],[-6,0],[-13,8],[-4,1],[-7,-3],[-2,-7],[0,-17],[1,-5],[5,-4],[2,-4],[4,0],[3,-7],[2,-2],[-1,-2],[-4,3],[-1,-1],[0,-4],[-1,-2],[1,-4],[6,1],[3,-2],[-1,-3],[-3,-1],[-3,0],[-3,-4],[-3,-2],[-5,0],[-6,-7],[-3,-4],[2,-15],[3,-6],[2,-20],[-3,-4],[4,-10],[-1,-5],[-5,-10],[-3,-4],[0,-5],[2,-7],[3,-3],[6,-4],[6,-5],[0,-4],[-5,-5],[-5,-2],[0,-3],[7,-4],[-2,-10],[5,0],[4,2],[4,-3],[-2,-8],[4,1],[7,-23],[-1,-8],[11,-4],[3,-6],[-9,-8],[1,-2],[6,2],[8,-1],[7,-5],[7,-13],[8,-4],[2,-6],[4,0],[9,-9],[4,-8],[3,8],[3,-1],[0,-10],[-2,-6],[2,-10],[5,-1],[9,-1],[5,0],[6,-4],[3,-4],[5,-5],[0,-5],[4,-3],[5,2],[4,5],[8,-4],[14,5],[5,5],[3,24],[12,-3],[8,-10],[6,-12],[4,-21],[8,-11],[11,-7],[3,-4],[1,-13],[4,-5],[3,-6],[7,-8],[-1,-10],[-3,-5],[-21,-7],[-3,-4],[0,-3],[26,-62],[18,-47],[6,-3],[3,-11],[7,-3],[13,3],[7,2],[3,0],[8,-9],[2,-6],[1,-15],[18,-27],[8,-3],[15,3],[11,0],[10,-5],[10,-2],[16,-6],[-1,-1],[-3,-3],[-5,-2],[-4,-1],[-8,-15],[-5,-2],[-4,2],[-2,0],[-1,-3],[-3,2],[-4,-1],[-8,-5],[-4,2],[-5,-7],[-3,2],[-6,6],[-3,-1],[-4,-8],[-6,-5],[-13,1],[-4,-5],[-2,-6],[-2,-7],[1,-5],[8,-5],[11,-5],[5,-5],[0,-6],[-4,-6],[-8,1],[-7,6],[-3,2],[-3,-8],[-4,-2],[-2,-6],[2,-11],[-3,-13],[-8,-9],[-7,-5],[-7,-1],[-10,-13],[-4,-7],[-2,-13],[0,-7],[2,-3],[0,-6],[-5,-12],[-6,-6],[-4,20],[0,15],[-4,17],[-1,28],[-7,14],[-6,-3],[-14,8],[-12,-5],[-4,1],[-3,-8],[0,-13],[-4,-8],[-12,5],[-12,17],[-7,1],[-30,25],[-16,-3],[-11,3],[-7,-22],[-15,-5],[3,-13],[2,0],[3,-35],[5,-6],[1,-9],[-2,-7],[2,-13],[-1,-3],[0,-10],[1,-4],[7,4],[7,7],[4,2],[13,1],[0,-3],[-4,-18],[3,-1],[6,-8],[11,-4],[6,2],[5,2],[6,7],[4,3],[3,1],[13,-4],[4,0],[2,-2],[-1,-3],[1,-23],[-1,-2],[-8,-3],[-8,-2],[-1,-2],[-3,-2],[-1,-2],[1,-8],[8,-1],[7,-3],[1,-4],[2,-16],[1,-4],[3,3],[2,8],[2,-1],[0,-6],[2,-2],[3,0],[3,-2],[-1,-7],[2,-13],[-2,-11],[-3,-9],[-1,-5],[0,-4],[2,-4],[9,-2],[4,-3],[4,0],[2,-5],[2,-6],[9,-3],[5,-3],[5,-2],[5,-5],[2,-9],[3,-12],[3,-4],[1,-5],[-1,-7],[-3,-10],[-4,-5],[-2,-4],[-1,-11],[-1,-1],[-4,4],[-4,0],[-3,-2],[-10,-13],[-1,-5],[1,-5],[2,-3],[5,-1],[11,3],[5,0],[7,-2],[3,0],[6,3],[3,-3],[3,-2],[6,1],[3,-2],[1,-4],[1,-3],[4,-2],[0,-4],[-2,-10],[-4,-10],[-4,-5],[-5,-2],[-6,-4],[-3,-4],[-2,-6],[-2,-7],[0,-5],[3,-17],[-2,-12],[0,-6],[4,-17],[0,-5],[4,-12],[3,-13],[3,-6],[1,-7],[-1,-6],[-4,-3],[-1,-3],[-8,-8],[-4,-2],[-14,0],[-11,-1],[-1,-5],[-1,-21],[0,-7],[5,-13],[2,-12],[2,-5],[0,-6],[-2,-3],[-5,-6],[-3,-7],[-4,-5],[-9,-3],[-2,-3],[1,-6],[-1,-16],[-2,-14],[1,-7],[5,-8],[3,-19],[9,-15],[3,-7],[11,-9],[5,-6],[1,-8],[6,-16],[1,-14],[4,-12],[-1,-7],[1,-13],[-5,-6],[-3,-5],[0,-5],[2,-9],[-1,-9],[2,-21],[0,-6],[-1,-6],[-1,-5],[2,-15],[9,10],[2,3],[4,15],[4,4],[6,2],[4,9],[3,5],[4,3],[14,1],[2,2],[-1,6],[4,5],[4,2],[6,1],[12,13],[4,6],[4,1],[2,2],[6,8],[10,10],[4,1],[4,11],[0,7],[1,6],[6,9],[-1,8],[1,2],[3,1],[6,-3],[9,8],[2,3],[2,7],[2,4],[4,2],[3,4],[-1,13],[2,6],[7,6],[7,0],[3,3],[3,10],[0,3],[-2,2],[-1,3],[1,7],[2,5],[2,1],[11,0],[6,3],[4,4],[2,4],[1,5],[0,14],[2,4],[4,5],[3,3],[2,4],[0,8],[6,10],[10,10],[2,6],[0,9],[1,2],[4,3],[5,14],[4,7],[4,0],[5,3],[2,4],[-2,4],[0,15],[-1,3],[-8,6],[-1,4],[1,2],[3,3],[3,0],[7,11],[7,17],[2,3],[3,1],[7,-2],[4,-1],[1,-1],[1,-10],[1,-2],[10,-3],[2,3],[3,2],[8,0],[5,5],[5,1],[5,1],[5,0],[3,2],[3,3],[2,4],[7,17],[6,7],[2,-1],[2,-2],[3,-5],[1,0],[6,12],[8,19],[1,4],[-6,15],[-1,6],[-1,11],[2,21],[1,2],[4,2],[9,-2],[1,3],[-1,16],[2,9],[0,7],[1,3],[4,0],[4,-4],[1,-1],[2,1],[3,3],[0,5],[7,8],[7,4],[2,3],[1,7],[2,3],[2,15],[1,2],[7,1],[1,2],[0,5],[1,4],[4,1],[3,4],[17,7],[2,2],[0,3],[-4,9],[2,5],[1,1],[8,0],[4,2],[1,2],[0,4],[-2,1],[-4,-1],[-2,2],[-2,2],[0,4],[1,2],[5,1],[3,1],[4,1],[2,4],[0,2],[3,4],[2,1],[5,-5],[3,0],[2,1],[1,3],[1,3],[-1,9],[0,4],[1,2],[3,3],[4,4],[4,20],[-2,8],[-2,12],[10,12],[129,64]],[[2519,4383],[-11,-19],[-22,-3],[-33,-49],[-28,12],[-29,-24],[-23,-4],[-18,9],[-39,-13],[-71,-94],[-50,-4],[-19,-16],[-17,5],[-14,25],[-15,50],[-52,2],[-23,7],[-8,-2],[-41,-29],[-2,-49],[-15,-36],[-27,-35],[-25,-23],[-99,-59],[-8,-20],[-7,-6],[-11,-1],[-5,-5],[-7,-20]],[[2718,4380],[-3,56],[-14,16],[-94,-49],[-88,-20]],[[2871,3970],[-88,277],[-17,-4],[-35,42],[-12,66],[-1,29]],[[3048,3357],[-31,7],[-44,14],[-21,31],[-7,12],[-8,49],[1,23],[4,35],[-47,17],[-12,97],[1,32],[33,88],[-16,63],[-5,56],[-25,89]],[[5714,1850],[-2,1],[0,5],[-5,-2],[-3,0],[-1,3],[2,6],[1,0],[0,3],[-1,0],[0,1],[-1,2],[-2,-2],[-2,0],[-1,8],[3,0],[-4,21],[-2,-1],[-3,3],[1,3],[-2,5],[1,3],[-2,9],[-2,3],[-2,6],[4,2],[-2,9],[0,8],[-2,3],[-3,6],[-4,-3],[-2,3],[1,5],[-1,3],[-3,-3],[-5,2],[-1,9],[-2,5],[5,0],[0,3],[-3,3],[0,4],[5,7],[-4,2],[3,4],[1,1],[1,0],[0,1],[-1,0],[-1,1],[-1,-1],[-1,1],[0,1],[1,0],[0,2],[1,1],[1,1],[1,-1],[0,4],[-1,1],[0,1],[-1,-1],[-1,-1],[0,-1],[-1,0],[0,3],[-1,0],[-1,1],[-2,0],[0,5],[-1,0],[-5,2],[0,6],[-5,-1],[-11,10],[-6,-6],[-2,2],[3,6],[-5,5],[-3,-1],[-3,4],[1,6],[-7,2],[-2,-3],[-3,2],[1,5],[-9,-2],[-2,5],[-2,-5],[-7,-2],[-2,5],[-1,-4],[-3,0],[-1,5],[-9,0],[-5,9],[-6,-3],[-2,6],[-6,1],[-6,-1],[-1,2],[2,3],[-3,6],[-5,0],[-3,12],[1,10],[-6,2],[-1,8],[3,6],[-9,4],[0,7],[-5,7],[-3,18],[3,8],[-7,1],[-1,10],[-5,1],[-10,15],[-1,6],[-7,4],[-7,-3],[-2,4],[-5,0],[1,6],[-7,4],[-1,5],[-7,2],[-6,5],[-3,4],[-1,6],[-5,1],[-3,-2],[0,3],[2,4],[-4,6],[-2,-2],[-2,-7],[-2,5],[-4,-4],[-4,11],[3,3],[-6,2],[4,6],[-6,5],[-5,-3],[-6,2],[-2,5],[2,2],[-6,6],[0,3],[-2,0],[-3,3],[3,2],[-1,2],[-4,0],[0,4],[-2,1],[1,8],[4,1],[1,4],[-3,5],[-9,2],[0,3],[-2,4],[4,2],[1,5],[3,1],[0,6],[1,0],[0,2],[1,1],[0,2],[-1,0],[-1,-1],[-1,0],[-1,2],[-3,9],[-3,-3],[-2,4],[2,3],[-4,1],[1,9],[4,1],[-2,4],[-3,1],[2,6],[-1,5],[-4,-2],[-2,7],[4,4],[-4,4],[-1,7],[6,2],[-1,3],[-4,0],[1,3],[3,9],[3,1],[-2,4],[3,6],[1,1],[2,10],[-4,3],[-5,2],[4,4],[-1,5],[-6,-1],[2,11],[3,3],[-3,4],[3,5],[3,-3],[5,3],[6,7],[2,7],[0,9],[5,0],[5,4],[2,-3],[3,8],[-3,4],[0,3],[4,1],[3,4],[-4,3],[6,15],[7,2],[5,5],[0,6],[3,3],[4,-3],[3,10],[-3,3],[4,2],[2,-3],[5,1],[-2,4],[2,1],[2,-2],[8,2],[-2,5],[6,5],[2,-2],[3,1],[1,5],[7,1],[4,5],[2,13],[4,5],[5,-1],[1,5],[3,1],[1,3],[2,3],[1,5],[9,10],[3,2],[4,-4],[7,1],[9,-3],[2,7],[4,0],[6,3],[-2,7],[8,3],[5,-7],[6,1],[4,-8],[6,0],[6,9],[7,-2],[1,8],[7,1],[3,-5],[4,5],[-10,12],[6,9],[7,-4],[12,0],[0,7],[2,3],[5,0],[1,3],[3,0],[1,2],[5,4],[3,-1],[5,7],[7,0],[2,5],[6,5],[5,0],[3,7],[4,4],[3,3],[-1,2],[2,4],[5,3],[4,1],[5,1],[9,1]],[[5704,2727],[3,-39],[39,-22],[15,8],[13,-16],[34,51],[124,63],[22,79],[34,22],[59,-6],[-14,-143],[54,-60],[55,-38],[33,9],[26,31],[9,47],[-3,132],[51,110],[69,-43],[6,-29]],[[6333,2883],[-13,-39],[-14,-42],[-20,-126],[3,-56],[30,-79],[15,-56],[6,-81],[-11,-152]],[[7703,7385],[-346,746]],[[6596,7109],[3,-25],[27,2],[8,22],[30,-24],[27,31],[16,-15],[50,25],[24,-18],[33,32],[-6,13],[33,17],[-11,13],[-17,27],[0,36],[3,27],[17,27],[49,-28],[48,48],[12,-55],[16,-36],[-8,-28],[-26,-25],[-1,-22],[51,-11],[56,-24],[42,-57],[53,-25],[27,-27],[12,9],[22,29],[60,4],[59,-50],[21,-2],[14,0],[3,42],[5,9],[355,335]],[[7357,8131],[-341,-240],[-24,3],[-18,41],[-13,-2],[-15,-25],[-9,-43],[-15,-1],[-24,-59],[-46,38],[-50,-40],[-13,-23],[-12,-4],[-21,25],[-14,-15],[-2,-34],[10,-39],[20,-27],[2,-14],[-13,-11],[-66,-20],[-40,-50],[9,-14],[54,-2],[8,-14],[-10,-13],[5,-14],[40,-26],[-6,-23],[-25,-16],[-27,-4],[-52,-21],[-34,6],[-44,-22],[-13,-53],[9,-97],[-12,-68],[36,-60],[5,-41]],[[7357,8131],[-209,449]],[[6452,7065],[7,19],[14,-2],[29,-39],[3,-19],[27,20],[5,21],[26,31],[17,-2],[16,15]],[[7148,8580],[-269,-175],[-14,-13],[-4,0],[-10,13],[-29,1],[-14,18],[-69,-54],[-41,-33],[-19,6],[-16,23],[-35,-2],[-16,7],[-13,2],[-24,7],[-17,-6],[-18,-16],[-17,-26],[-19,-27],[-15,-11]],[[6001,9411],[61,-30],[58,44],[34,-75],[-27,-13],[-9,-64],[-18,-10],[-7,-23],[5,-16],[12,-3],[10,-38],[4,-40],[11,-22],[-15,-54],[18,-14],[0,-37],[-13,-36],[48,0],[-2,-36],[-34,-20],[13,-45],[-18,-53],[35,-49],[30,24],[26,-34],[-40,-43]],[[7148,8580],[-663,1419],[-355,-303],[-3,-6],[-3,-3],[-2,-2],[-4,-3],[-4,-2],[-4,-8],[0,-8],[-2,-6],[0,-1],[-1,-5],[-1,-9],[-1,-5],[0,-4],[1,-3],[2,-6],[0,-7],[-3,-5],[-1,-2],[-3,-5],[-1,-3],[-3,-2],[-3,-5],[-2,-9],[-1,-2],[-3,-1],[-2,1],[-11,-2],[-1,-2],[-1,-2],[0,-9],[-1,-8],[-1,-4],[-1,-4],[0,-1],[-3,-9],[1,-5],[1,-2],[1,-3],[1,-4],[0,-4],[-1,-1],[0,-1],[-1,-3],[-9,-11],[-2,-4],[-5,-8],[-7,-12],[-3,-6],[-8,-12],[-10,-13],[-2,-6],[-10,-12],[-5,-9],[-3,-5],[-1,-6],[-3,-6]],[[5964,449],[10,2],[17,-18],[0,-12],[4,-9],[0,-33],[2,-6],[8,-9],[-2,-11],[6,-3],[1,-6],[7,1],[8,-4],[7,-24],[2,-4],[8,-2],[10,-22],[11,-5],[1,-3],[-2,-6],[5,-6],[0,-8],[6,-5],[1,-8],[9,-4],[5,1],[13,-26],[-1,-6],[9,-5],[-1,-9],[5,-3],[2,-12],[-3,-8],[10,-3],[6,3],[1,-7],[-2,-10],[4,-10],[-2,-25],[1,-5],[3,-10],[6,-11],[0,-5],[5,-5],[2,-1],[-1,-18],[2,-2],[1,1],[2,-3],[2,0],[3,-2],[11,-14],[2,-1],[1,-2],[3,-2],[1,-2],[5,-1],[2,-6],[2,-2],[2,0],[4,-2],[1,-5],[5,0],[8,-8],[3,-1],[3,2],[2,4],[6,1],[8,-4],[5,-6],[3,1],[2,-6],[3,-8],[5,-1],[2,2],[5,2],[1,6],[2,1],[4,-3],[9,4],[8,1],[7,4],[7,1],[5,3],[1,2],[8,12],[3,0],[2,3],[7,5],[7,-1],[4,1],[6,-1],[6,2],[3,4],[5,0],[8,2],[3,3],[9,-2],[2,3],[3,6],[2,4],[6,4],[2,5],[0,10],[1,3],[6,4],[2,9],[4,2],[3,5],[3,1],[3,6],[4,4],[1,9],[4,8],[4,2],[4,-3],[3,-2],[9,6],[0,6],[3,3],[2,6],[1,1],[1,0],[2,-1],[1,0],[2,3],[0,5],[1,2],[1,1],[1,-1],[2,2],[2,1],[1,0],[1,-1],[2,0],[6,-2],[2,1],[0,1],[1,1],[1,0],[2,-1],[0,-3],[1,-1],[0,-1],[2,-1],[1,0],[2,-1],[1,1],[5,0],[1,-1],[1,-2],[2,-1],[1,0],[2,1],[2,5],[1,2],[5,0],[1,-1],[1,-1],[0,-4],[1,-1],[1,0],[4,2],[1,1],[2,0],[5,1],[3,-1],[2,1],[2,2],[2,4],[0,1],[2,-1],[1,0],[2,1],[2,0],[1,-1],[1,1],[1,1],[1,0],[1,-1],[3,-1],[0,-1],[1,-3],[1,0],[1,-3],[1,-1],[4,0],[1,1],[1,2],[1,1],[1,0],[1,-1],[0,-2],[1,-1],[1,-1],[1,1],[2,-3],[1,0],[1,-1],[1,-1],[3,-2],[3,0],[0,-2],[3,-2],[0,-1],[1,-2],[0,-1],[1,-2],[2,-1],[1,0],[0,1],[1,2],[0,2],[1,1],[2,0],[2,-2],[1,-3],[2,-5],[1,-1],[2,-1],[2,0],[10,5],[1,1],[1,-1],[1,0],[0,-1],[529,-94],[93,500]],[[7216,543],[-634,114],[-20,2],[-14,-9],[-42,37],[-5,-1],[-13,4],[-27,-5],[-6,-9],[-57,-24],[-60,-38],[-48,-11],[-65,12],[-29,-20]],[[3328,5952],[-4,2],[-22,40],[-41,-44],[-10,17],[-9,-9],[9,-19],[32,-7],[-3,-18],[3,-7],[18,8],[16,-2],[0,-8],[10,0],[8,32],[-7,15]],[[3748,6619],[-9,9],[-8,7],[-8,8],[-1,1],[-1,-5],[-6,3],[-4,-23],[-14,-5],[-75,-6],[-24,2],[-1,4],[-28,0],[1,22],[-15,10],[-5,-14],[-14,16],[-17,-1],[-10,-24],[-4,3],[2,9],[6,16],[-143,169],[64,157],[309,-175],[20,-150],[-15,-33]],[[4808,4914],[-18,-28],[-79,-85],[-17,-133],[10,-137],[-15,-118],[-58,-189],[-42,0],[-65,59],[-150,-77],[-61,-90],[54,-52],[-81,-96],[62,-54]],[[4348,3914],[-28,-30],[-78,-14],[-58,-32],[-34,-58],[-49,-19]],[[4101,3761],[28,62],[17,71],[-7,66],[-42,26],[-86,109],[-5,127]],[[4006,4222],[36,9],[23,24],[-11,28],[19,13],[-9,117],[-32,6],[-64,-26],[-35,-2],[-7,19],[-37,2],[-13,-55],[-31,-11],[-34,48],[-41,-9],[-47,87],[44,26],[64,35],[-17,20],[-6,48],[-56,40],[-9,28],[15,45],[30,30],[35,3],[23,-26],[22,2],[15,41],[20,28],[-6,27],[-76,7],[4,42],[24,2],[10,52],[94,43],[-2,70],[-29,8],[0,28]],[[3922,5071],[14,2],[19,18],[56,18],[0,-37],[77,-73],[74,92],[81,80],[85,63]],[[4328,5234],[17,-4],[34,2],[-30,-26],[0,-20],[15,13],[10,-20],[17,-39],[0,-21],[-11,-21],[17,-4],[7,-25],[12,3],[3,-20],[16,-34],[-12,-42],[10,-12],[28,36],[21,-2],[47,17],[44,-27],[21,29],[18,-2],[10,20],[-24,1],[-4,16],[26,9],[15,-16],[24,-37],[13,24],[23,-8],[-6,20],[16,19],[14,44],[28,-65],[9,-47],[14,-3],[29,-13],[-10,41],[35,-41],[-15,-35],[17,-12],[-18,-18]],[[4300,5419],[19,49],[15,17],[7,29],[33,48],[25,9],[-1,17],[15,10],[-4,19]],[[3915,6065],[1,-3],[2,-2],[6,-4],[5,-5],[6,-9],[1,-8],[0,-8],[-4,-8],[-2,-4],[-12,-5],[-1,-4],[0,-4],[1,-1],[3,-2],[3,-1],[4,-1],[3,1],[6,1],[5,1],[1,0],[2,-4],[23,28],[20,13],[11,-11],[-18,-26],[-8,-21],[8,-13],[18,10],[8,22],[1,14],[4,5],[5,-5],[11,-42],[-13,-53],[-6,3],[-1,16],[-6,4],[-7,-14],[3,-28],[15,-24],[13,-22],[7,-15],[5,-17],[12,-13],[17,1],[18,-1],[10,-21],[-7,-11],[-26,-5],[-7,-10],[3,-18],[10,-9],[13,2],[21,31],[22,19],[14,-2],[-13,-21],[-22,-11],[-3,-12],[5,-8],[25,4],[3,-12],[-35,-9],[-1,-34],[11,-15],[38,-3],[22,-17],[9,-14],[3,-14],[-14,-3],[-8,7],[-5,-12],[9,-22],[1,-8],[-3,-7],[-4,-17],[5,-17],[10,-5],[9,4],[2,11],[3,3],[5,-10],[0,-16],[6,-12],[8,-9],[21,0],[-3,29],[-4,29],[11,5],[12,-15],[5,-23],[11,1],[13,10],[12,-15],[1,-26],[-21,5],[-19,-6],[3,-18],[17,-13],[9,-5],[-1,-24],[-7,-4],[-14,21],[-14,-2],[4,-17],[18,-22],[12,3],[6,13],[7,11],[4,0],[13,-21]],[[4075,6768],[-19,-120],[-27,-111],[-52,-102],[-1,-57],[-25,-55],[79,-26],[-22,-121],[-64,-18],[-1,-42],[-15,-26],[-13,-21],[0,-4]],[[3875,6260],[-2,-29],[-6,-13],[-11,-14],[-1,-3],[-2,-6],[-2,-11],[-1,-3],[-99,26],[4,82],[98,8],[-1,-4],[0,-2],[1,-1],[1,-1],[1,-1],[4,1],[2,0],[3,-1],[5,-8],[6,-12],[0,-8]],[[3915,6065],[-27,0],[-12,-14],[-8,-42],[-43,-34],[-28,-40],[-8,-107],[-31,-25],[-9,26],[-13,2],[-10,24],[1,39],[-16,-4],[-5,8],[-53,16],[-8,-2],[-11,6],[-19,-15],[1,-9],[27,-9],[7,-28],[-3,-8],[-17,-15],[-10,-16]],[[3620,5818],[-11,7],[-12,-23],[-16,-5],[-8,-7],[-33,-17],[-21,-1],[10,47],[-19,20],[32,55],[6,33]],[[3548,5927],[22,80],[-1,37],[-143,-26],[-17,46],[28,12],[-3,56],[-15,10],[-12,113],[12,18],[61,-5],[12,23],[-12,32],[-109,19],[26,65],[-22,29],[-82,-47],[-5,-53],[-29,-29],[-36,94],[24,46],[60,6],[-8,20],[9,80],[35,18],[-2,18],[-62,-15],[-134,84],[-8,26],[66,40],[-11,71],[22,136],[-1,81],[39,86],[-105,75]],[[3147,7173],[118,144]],[[3265,7317],[170,-159],[89,-61]],[[3265,7317],[-30,44],[-74,64],[8,53],[23,43],[-13,79],[-56,42],[-17,4],[-12,-4],[-4,-23],[-13,-15],[-9,-18],[-21,6],[-9,17],[-1,22],[7,28],[-4,23],[-7,11]],[[3033,7693],[2,1],[1,2],[-2,5],[-4,3],[-3,4],[-1,4],[1,5],[4,13],[1,6],[-1,6],[0,13],[-2,4],[-4,5],[-1,3],[0,9],[3,5],[2,3],[0,7],[-3,4],[1,4],[10,3],[7,6],[4,2],[0,2],[-2,2],[-3,2],[-3,6],[-1,4],[1,9],[2,6],[7,8],[2,5],[0,5],[-1,4],[-2,2],[-6,0],[-4,-1],[-2,0],[-2,2],[1,7],[2,10],[-6,10],[1,6],[5,7],[2,4],[3,7],[0,8],[2,4],[5,4],[7,-1],[1,2],[-1,4],[-5,2],[-3,3],[0,4],[2,3],[6,2],[5,6],[4,7],[1,3],[-2,6],[-2,4],[2,5],[2,2],[8,-4],[3,-1],[2,0],[5,-1],[1,1],[1,6],[3,3],[3,1],[2,1],[1,1],[0,2],[-2,7],[1,2],[6,4],[1,3],[-1,6],[0,1],[1,4],[-2,8],[0,6],[3,4],[3,2],[4,1],[2,0],[2,4],[0,2],[-1,1],[-12,4],[-4,4],[-1,3],[2,5],[3,5],[4,2],[4,1],[3,2],[3,4],[1,1],[3,-1],[3,-1],[2,3],[1,3],[-1,4],[-3,5],[0,5],[4,11],[12,12],[4,8],[3,0],[2,-2],[0,-4],[-7,-9],[0,-4],[3,-3],[3,0],[3,3],[1,3],[0,5],[3,4],[2,2],[5,2],[1,2],[0,3],[-1,2],[-6,3],[-4,9],[-3,1],[-5,-2],[-5,0],[-6,3],[-5,5],[-4,4],[-3,2],[-6,2],[-9,-3],[-3,3],[0,7],[7,13],[0,5],[-1,5],[-3,4],[-9,11],[-6,9],[-2,2],[-5,9],[1,5],[2,2],[2,0],[5,-4],[3,-2],[2,-1],[4,5],[7,11],[0,5],[-2,6],[-3,3],[-4,0],[-3,-5],[-4,0],[-2,2],[-3,-1],[-3,-3],[-3,0],[-4,4],[-1,5],[1,4],[1,2],[5,0],[3,5],[1,5],[-1,5],[-2,4],[-1,1],[-4,3],[-5,1],[-6,-3],[-9,-8],[-3,0],[-4,1],[-3,3],[-1,4],[1,3],[4,3],[1,2],[2,6],[0,4],[-1,7],[-4,4],[-4,0],[-10,-4],[-10,-1],[-4,2],[-2,3],[0,3],[2,2],[2,-1],[5,-3],[3,0],[3,3],[2,4],[-1,5],[-4,10],[1,7],[5,7],[2,7],[2,2],[0,2],[-1,3],[-1,1],[-4,5],[-7,2],[-4,-1],[-3,-2],[-2,-4],[0,-4],[4,-10],[0,-4],[-2,-3],[-3,-3],[-2,-4],[-1,-5],[4,-8],[0,-3],[-1,-3],[-1,-1],[-2,1],[-1,5],[-4,6],[-14,7],[-7,3],[-2,0],[-5,-2],[-1,0],[-2,3],[0,6],[2,4],[4,3],[5,2],[7,-2],[3,1],[2,2],[0,2],[-2,5],[1,3],[5,4],[2,3],[3,2],[4,0],[6,2],[1,2],[-1,2],[-1,0]],[[3612,8891],[7,13],[11,11],[17,-18],[6,1],[10,-11],[11,9],[12,-6],[11,9],[-7,33],[11,22],[17,2],[27,35],[16,9],[-2,-30],[20,-3],[-13,-38],[9,-9],[13,-41],[9,-11],[20,-16],[-1,-10],[15,-8],[3,-13],[24,-3],[-2,-23],[-24,-43],[2,-21],[14,-8],[9,-7],[17,-22],[14,6],[10,-37],[-6,-13],[9,-5],[5,-14]],[[5945,4979],[16,47],[-23,86],[41,84],[-21,129],[-48,56]],[[5598,4636],[13,-3],[26,55],[9,-16],[3,-38],[19,13],[32,-27],[8,-11],[6,-18],[8,5],[-8,28],[11,1],[-17,39],[17,84],[21,7],[-3,54],[109,18],[26,132],[67,20]],[[5067,4776],[27,19],[2,-31],[3,-21],[11,13],[13,-20],[9,14],[26,-10],[7,14],[-39,18],[16,22],[8,21],[-17,14],[24,14],[-8,26],[30,-20],[5,34],[19,13],[29,-9],[-22,33],[25,4],[20,2],[3,29],[11,-3],[-1,-20],[-24,-44],[44,28],[30,-56],[3,-23],[1,-14],[3,-7],[4,0],[5,9],[4,6],[3,2],[2,0],[1,-2],[1,-7],[-4,-21],[3,-6],[10,-10],[7,-12],[4,-15],[2,-22],[6,-5],[10,-1],[10,1],[9,3],[5,8],[8,14],[7,-3],[-11,-26],[-1,-10],[19,-5],[20,-14],[2,0],[1,2],[2,6],[-5,9],[-4,16],[1,4],[5,-1],[19,-23],[7,-4],[8,0],[15,15],[20,22],[7,-6],[7,-10],[-3,-6],[-8,-6],[-2,-9],[7,-12],[9,-9],[51,6],[-10,-32],[32,23],[-19,-39],[7,-10]],[[5151,5388],[-15,-84],[-43,-83],[72,-228],[-112,-110],[-11,-65],[8,-43],[17,1]],[[2717,6458],[3,31],[-44,6],[-17,8],[-12,20],[-20,23],[1,4],[-6,12],[-58,23],[-16,16]],[[2548,6601],[2,-27],[-9,-4],[-23,31],[-5,-39],[-16,15],[-23,-53],[9,-11],[9,-55],[-20,-60],[-7,-21],[1,-19],[28,-41],[-9,-52],[42,-2],[26,25],[27,38],[22,25],[21,62],[13,17],[48,10],[3,14],[30,4]],[[6737,4349],[15,39],[-36,141],[-115,-34],[-8,-85]],[[6652,4156],[22,-15],[17,8],[-3,62],[3,24],[7,49],[39,65]],[[6593,4410],[6,-5],[4,-7],[1,-6],[-1,-6],[-4,-8],[-4,-5],[-2,-5],[0,-11],[2,-5],[4,-3],[4,-2],[7,3],[11,0],[6,-2],[2,-3],[-1,-9],[1,-16],[-6,-13],[-7,-11],[-8,-13],[-1,-4],[0,-4],[2,-2],[4,-1],[4,2],[8,12],[4,3],[4,2],[2,-3],[2,-2],[0,-7],[-1,-10],[-5,-8],[-9,-5],[-17,0],[-6,1],[-4,-2],[-3,-6],[-3,-13],[1,-4],[1,-3],[2,-1],[4,-1],[27,7],[8,-1],[3,-5],[0,-11],[-8,-25],[-3,-16],[1,-7],[16,-4],[11,-9]],[[1855,6267],[-8,-21],[-1,-42],[-15,-5],[7,-58],[-18,-85],[-27,-49],[-51,-47],[-33,-58],[3,-65],[18,-110],[-9,-78],[20,-42],[4,-64],[10,-47],[-24,-57],[-34,-18]],[[1697,5421],[-2,1],[-2,4],[-5,0],[-5,-2],[-8,4],[-5,11],[-13,-3],[-11,2],[-9,3],[-2,13],[-2,4],[-6,5],[-11,1],[-14,8],[-8,8],[-4,1],[-3,3],[-1,7],[-7,9],[-21,13],[-13,-5],[-7,0],[-3,5],[-6,6],[-7,2],[-10,3],[-6,7],[-10,7],[-1,5],[0,6],[-4,2],[-6,-3],[-7,4],[-7,-5],[-6,-2],[-8,3],[-34,1],[-5,4],[-3,6],[0,18],[-4,5],[-9,7],[-3,6],[-4,23],[4,12],[-4,3],[-6,4],[-5,5],[-7,3],[-6,9],[-5,4],[-5,9],[-7,4],[-9,10],[-6,27],[-9,11],[-4,3],[-2,4],[-1,2],[-4,1],[-7,-2],[-1,0],[-5,-4],[-3,4],[-2,0],[-1,-1],[-4,-1],[-4,-3],[-2,-2],[-3,-2],[-2,-1],[-1,0],[-1,1],[-4,2],[-5,1],[-3,4],[-5,5],[-3,2],[-6,6],[-2,2],[-3,3],[-4,4],[-2,2],[-2,2],[-1,1],[-1,2],[-1,1],[-1,3],[-1,1],[-3,3],[-12,8],[-6,6],[-1,3],[-1,2],[0,4],[-4,16],[-5,3],[-9,-7],[0,1],[-2,2],[-1,5],[-2,11],[-5,10],[2,6],[-5,13],[-4,1],[-1,2],[-5,5],[-8,13],[-2,2],[-4,16],[-13,14],[-21,-2],[-8,11],[-15,14],[-2,33],[-13,18],[-8,6],[-4,28],[1,15],[-3,7],[-5,5],[-2,6],[9,17],[18,0],[5,7],[-1,7],[-3,4],[-7,7],[-11,18],[1,5],[9,8],[3,7],[4,4],[10,5],[7,10],[4,7],[0,2],[-2,5],[-6,6],[-14,13],[-9,12],[-6,3],[-6,10],[-5,0],[-12,14],[-27,-9],[-10,16],[-10,13],[-9,26],[16,32],[-5,7],[-8,3],[-18,18],[-4,14],[-9,8],[-12,20],[10,37],[11,12],[-1,13],[0,8],[4,14],[-8,19],[10,2],[-4,38],[3,12],[8,-21],[13,-17],[20,17],[3,22],[-16,16],[-1,4],[11,12],[4,20],[-3,7],[4,2],[7,-1],[3,2],[9,-1],[4,6],[6,19],[4,4]],[[1061,6604],[2,-8],[21,-12],[11,-11],[14,-12],[23,3],[21,-21],[9,-26],[-9,-1],[7,-35],[-8,-65],[9,-16],[12,-20]],[[1173,6380],[-5,0],[-2,-6],[2,-19],[-5,-13],[-2,-4],[-2,-2],[-3,-1],[-2,-1],[-1,-1],[-3,-7],[-2,-3],[-3,-3],[0,-8],[1,-6],[1,-7],[-1,-5],[-2,-5],[0,-12],[1,-3],[5,-5],[3,-2],[4,-1],[2,-2],[1,-11],[1,-4],[2,-6],[1,-6],[0,-19],[1,-8],[0,-10],[1,-4],[0,-4],[5,-4],[4,-4],[0,-4],[-2,-4],[1,-2],[4,-2],[7,-3],[3,2],[2,3],[1,2],[2,4],[16,7],[12,33],[-5,16],[1,4],[2,0],[12,4],[14,10],[2,2],[2,2],[3,0],[1,-2],[3,-2],[2,-2],[3,0],[2,1],[-1,4],[-1,2],[-2,2],[-1,3],[-2,4],[1,3],[2,13],[15,16],[1,17],[0,24],[-17,19],[-5,8]],[[1253,6368],[12,2],[35,21],[35,-30],[15,-3],[18,-39],[-6,-26],[3,-20],[20,-13],[14,20],[11,30],[17,9],[12,-13],[23,-56],[14,-10],[32,0],[12,3],[3,15],[-2,15],[-21,23],[1,8],[13,3],[8,9],[-15,39],[6,14],[2,39],[-29,44],[5,16],[20,21],[15,31],[31,12],[4,18],[-17,32],[-6,78],[-27,29],[0,13],[24,29],[21,3]],[[1556,6734],[62,-21],[27,-56],[26,-63],[-24,-46],[18,-16],[21,19],[42,-36],[24,-37],[26,14],[5,-48],[-26,3],[-9,-41],[6,-26],[22,2],[4,-31],[17,-14],[6,36],[29,-18],[-4,-27],[5,-28],[17,-12],[5,-21]],[[2408,6697],[-1,5],[-35,34],[10,20],[28,0],[4,20],[44,28],[-11,44],[-25,6],[-8,49],[10,49],[25,13],[20,63],[-15,31],[-4,55],[-10,15],[14,44],[25,7],[-8,62],[8,61],[41,-7],[13,68],[-18,95],[-31,14],[-18,51],[-72,87],[1,30],[-17,40],[-18,7],[-8,-8]],[[2153,6368],[1,13],[14,12],[14,31],[33,15],[20,24],[44,-1],[36,-27],[15,0],[30,57],[-1,17],[15,37],[7,85],[27,66]],[[1855,6267],[3,-27],[7,3],[8,13],[17,-22],[17,2],[13,12],[16,-2],[19,-19],[43,14],[-5,30],[6,51],[30,8],[-13,18],[25,40],[0,9],[23,1],[6,-30],[10,-16],[38,4],[20,-6],[1,14],[14,4]],[[2352,7680],[-15,-17],[-20,-67],[-28,-53],[-52,-72],[-53,0],[-7,-90],[-27,-36],[-38,-17],[-82,19],[-41,-58],[-49,65],[-97,-71],[-2,-16],[23,9],[-5,-38],[-44,9],[-28,-25],[3,-21],[24,2],[0,-16],[-46,-45],[-19,1],[-35,-21],[-34,-48],[-12,-3],[-41,-37],[-16,-36],[-34,-38],[-32,-29],[-13,-62],[27,1],[22,-42],[-1,-40],[-6,-4],[-8,12],[-3,18],[-4,0],[0,-18],[-12,-9],[-5,-14],[11,-23],[3,-16]],[[6090,3572],[-54,24],[8,86],[49,-7],[112,37],[95,159],[-35,102],[26,137],[-16,126],[-107,63],[-37,63],[-93,37],[-153,-36],[-8,35],[28,29],[-7,16],[4,55],[4,13],[-3,20],[1,5],[8,7],[2,2],[3,4],[0,2],[2,1],[-2,3],[-1,1],[0,1],[-1,0],[-3,4],[-4,10],[-40,1],[8,32],[-6,10],[-15,-7],[-20,-8],[-13,-18],[-21,-13],[-69,-22],[-76,-62],[-56,-36],[-36,28]],[[5815,3555],[12,39],[48,20],[9,74],[13,3],[78,-73],[-2,-16],[-17,-22],[0,-29],[23,-9],[81,13],[30,17]],[[5564,4476],[-2,-16],[-16,-5],[-8,-13],[3,-22],[22,-20],[21,-43],[-4,-68],[-3,-11],[-4,-4],[-10,-4],[3,-7],[9,-94],[-28,-46],[-11,-110],[32,-44],[33,-10],[46,-43],[49,-6],[13,-66],[-15,-87],[28,-85],[-25,-48],[29,0],[32,-46],[23,-18],[34,-5]],[[6366,2932],[-33,-49]],[[5704,2727],[1,0],[0,1],[1,0],[1,1],[1,0],[2,1],[0,4],[1,1],[1,0],[0,-2],[1,0],[1,1],[1,0],[0,3],[1,-1],[1,-1],[2,1],[2,0],[0,6],[1,0],[2,-1],[1,1],[1,2],[1,1],[0,-3],[1,0],[1,1],[1,2],[0,3],[1,0],[0,1],[2,1],[1,0],[2,-1],[1,0],[1,1],[1,0],[0,-2],[-1,-1],[0,-1],[2,0],[1,1],[0,1],[1,0],[1,-1],[4,0],[1,1],[1,0],[0,-1],[2,-1],[2,0],[1,1],[4,0],[2,2],[0,6],[1,1],[1,1],[1,0],[1,1],[0,1],[1,1],[2,4],[-1,2],[1,2],[1,1],[1,0],[1,-1],[0,-2],[1,2],[0,2],[1,4],[-1,2],[0,2],[-4,7],[-2,7],[-7,14],[-2,4],[4,4],[-10,23],[-7,19],[-12,26],[-8,12],[-9,17],[-313,487],[-168,255],[-54,34],[-14,8],[-6,5],[-6,-1],[-1,-5],[-3,-3]],[[5149,3691],[-4,65],[8,5],[53,-14],[21,-1],[62,-51],[43,-60],[70,-70],[42,-60],[35,-54],[59,-75],[88,32],[64,-26],[59,74],[50,53],[16,46]],[[6090,3572],[28,12],[101,-63],[74,-9],[59,-99]],[[6352,3413],[12,-63],[-21,-147],[13,-46],[47,-52],[2,-54],[-39,-119]],[[7930,6894],[-227,491]],[[7580,6446],[3,7],[-38,88],[30,44],[30,8],[325,301]],[[7275,5963],[95,20],[52,20],[37,28],[15,11],[3,37],[9,110],[30,0],[8,15],[-5,55],[2,63],[44,28],[17,13],[8,25],[-18,35],[8,23]],[[5564,4476],[13,55],[16,73],[5,32]],[[5945,4979],[43,-10],[107,30],[162,-55],[-16,-161],[-4,-16],[4,-15],[-13,-41],[-4,-32],[6,-9],[7,0],[12,15],[14,4],[11,-10],[5,-19],[11,-32],[14,-16],[6,4],[4,14],[5,8],[10,-3],[5,-27],[-4,-23],[5,-5],[26,6],[29,-2],[12,-3],[19,-11],[21,-11],[44,-28],[17,-10],[18,-31],[9,-26],[28,-19],[4,-28],[9,-8],[-1,-7],[15,8],[8,0]],[[6652,4156],[1,-26],[4,-27],[-21,-10],[9,-23],[-13,-19],[8,-33],[37,-21],[-11,-26],[35,-70],[-24,-17],[6,-22],[-20,-20],[-9,-24],[2,-10],[14,2],[14,11],[22,-17],[-17,-21],[11,-20],[4,-39],[6,-3],[14,18],[9,-5],[-14,-31],[-35,-16],[8,-13],[24,-12],[-5,-13],[-4,-9],[13,-26],[9,-23],[0,-17],[-2,-9],[-20,10],[-21,0],[-18,-12],[-18,15],[-9,-5],[-8,-22],[-35,-22],[-25,-26],[-3,-29],[12,-33],[2,-17],[-16,-6],[-29,38],[-25,20],[-31,-2],[-44,-35],[-23,-3],[-28,7],[-25,-15],[-11,-15]],[[7697,3095],[-456,146],[-70,-89],[-48,-29],[-54,6],[-41,-31],[-49,-7],[-71,77],[-9,91],[-14,17],[-1,2],[-40,13],[-42,109],[-24,43],[-16,-14],[-1,-13],[2,-2],[3,-1],[10,-3],[8,-7],[0,-5],[-1,-4],[-2,-2],[-1,-1],[-2,-5],[-3,-4],[-7,-13],[-7,-14],[-3,-7],[-2,-7],[1,-5],[4,-5],[4,-9],[2,-12],[0,-11],[2,-4],[3,1],[7,19],[2,4],[3,0],[2,-3],[0,-5],[1,-1],[0,-35],[1,-4],[18,19],[5,8],[3,0],[1,-3],[1,-4],[0,-6],[-1,-9],[-3,-10],[-7,-10],[-13,-12],[-9,-14],[2,-4],[10,-2],[17,7],[9,-1],[2,-6],[-3,-13],[-5,-6],[-6,1],[-17,-4],[-9,-11],[-2,-5],[2,-2],[7,3],[8,-2],[1,-3],[-3,-11],[-1,-20],[7,-3],[13,0],[2,-8],[-6,-7],[-21,-5],[-11,-13],[-15,-33],[-38,-18],[-36,2],[-12,-2],[-6,-20],[-54,-175],[12,-18],[-15,-37],[-23,-37],[-52,-38],[-59,83],[-27,35],[-59,37],[-29,38]],[[6737,4349],[22,-23],[106,-52],[171,-69],[44,-5],[55,5],[100,18],[84,-107],[-3,-38],[15,-5]],[[7331,4073],[11,-49],[-22,-305],[-23,-137],[0,-90],[451,-131]],[[7748,3361],[-51,-266]],[[7331,4073],[4,69],[-80,187],[-7,46],[-3,79],[14,48]],[[7259,4502],[52,161],[27,138],[0,71],[71,70],[13,85],[-19,63],[46,33],[6,34],[15,111],[-5,32],[27,86],[-6,159],[4,222],[52,12],[57,-13],[82,90],[70,-17],[11,38],[17,9],[9,-1],[6,-52],[13,-9],[4,-2],[29,-16],[25,-14],[6,-2],[13,-7],[3,-1],[-30,-19],[2,-11],[-22,-13],[10,-16],[0,-43],[-7,-39],[-19,-61],[-31,-50],[4,-48],[38,-21],[85,12],[23,24],[16,3],[27,27],[-8,48],[27,17],[-9,47],[-10,44],[-2,19],[-7,16],[-1,0],[-1,1],[0,1],[1,0],[0,2],[-2,0],[0,7],[-1,2],[1,7],[1,3],[0,3],[-1,3],[0,3],[1,2],[0,3],[2,0],[1,2],[0,2],[4,-1],[5,-2],[9,-4],[12,-4],[6,0],[2,1],[3,1],[2,1],[4,4],[-2,3],[-1,1],[1,2],[0,4],[5,9],[4,7],[1,3],[1,1],[5,3],[11,9],[7,12],[2,2],[1,4],[1,0],[0,1],[9,3],[0,6],[-5,18],[17,26],[19,10],[8,1],[9,1],[4,-3],[20,-3],[8,0],[4,-1],[0,-2],[2,-5],[4,3],[0,1],[3,3],[1,2],[1,4],[1,1],[2,0],[7,-4],[4,-2],[3,-2],[10,-8],[6,-11],[33,39],[22,16],[19,16],[5,10],[3,10],[-4,17],[-9,11],[-10,2],[-18,-2],[-61,9],[-1,1],[-3,4],[0,9],[4,10],[1,11],[-15,23],[-2,7],[-7,1],[0,17],[10,-1],[4,1],[5,3],[9,3],[-9,51],[135,371]],[[8306,6493],[1693,-841],[-156,-713],[-1053,73],[-314,20],[-222,-111],[-192,-224],[-141,-450],[-173,-886]],[[6581,5426],[-16,-26],[45,-100],[94,-43],[9,-143],[83,-88],[181,-29],[107,-166],[68,-180],[64,-135],[43,-14]],[[3147,7173],[-284,-338],[-13,-47],[12,-18],[18,4],[4,-12],[-24,-28],[8,-16],[-43,-68],[-18,-18],[-26,-13],[-17,-7],[-9,-24],[6,-22],[12,-15],[11,-30],[13,-13],[-2,-33],[-10,-3],[-10,-11],[-2,-15]],[[2773,6446],[-56,12]],[[2548,6601],[-33,67],[-40,19],[-17,-13],[-41,34],[-9,-11]],[[2352,7680],[-29,27],[-22,14],[-38,12],[-26,-7],[-19,17],[-61,53],[-8,27]],[[2149,7823],[8,9],[17,38],[33,9],[22,-12],[10,8],[19,-11],[25,4],[39,-9],[22,-14],[16,-7],[21,5],[3,1],[9,3],[13,8],[10,8],[3,1],[8,-2],[1,-1],[13,-33],[6,-11],[30,-38],[93,-115],[1,-2],[0,-38],[2,-1],[27,-10],[7,-1],[19,1],[10,5],[8,3],[1,0],[4,-3],[3,-1],[5,0],[1,1],[4,4],[1,1],[3,0],[4,-2],[7,-2],[2,-1],[3,-3],[4,-4],[3,-2],[4,-2],[4,-1],[6,-1],[6,-1],[4,0],[2,-4],[2,-7],[2,-5],[-1,-12],[1,-7],[3,-18],[3,-5],[3,-19],[1,-4],[3,-11],[1,-3],[6,-4],[5,-5],[3,-2],[4,-2],[2,-4],[1,-2],[3,-3],[3,0],[2,-1],[3,-1],[1,0],[2,-2],[1,2],[9,7],[33,56],[40,78],[10,19],[47,-4],[2,-1],[4,-1],[1,0],[3,-2],[1,0],[-1,-2],[0,-4],[2,-2],[7,0],[4,-9],[2,-1],[6,-2],[3,-5],[5,-6],[3,-1],[5,-2],[9,-2],[5,10],[10,-2],[11,-6],[14,11],[2,14],[-1,3],[2,5],[2,3],[3,1],[4,-2],[3,1],[2,5],[-1,1],[-1,4],[-6,12],[0,4],[2,5],[4,3],[5,3],[2,2],[-1,11],[1,2],[4,2],[3,0]],[[1173,6380],[16,14],[34,4],[12,-1],[4,-13],[14,-16]],[[1106,7240],[17,-39],[13,-25],[5,-20],[2,-9],[-2,-4],[1,-12],[2,-6],[5,-11],[17,-4],[11,8],[2,4],[4,0],[8,-6],[7,-4],[8,-6],[1,-6],[-1,-7],[4,-4],[10,-12],[5,-13],[5,1],[7,-14],[7,-9],[3,-1],[7,-1],[8,-1],[5,-2],[7,-3],[-3,-24],[-2,-16],[3,-7],[11,6],[7,7],[19,20],[3,0],[13,-7],[14,-10],[3,-5],[2,-24],[-2,-10],[-5,-7],[1,-5],[7,-14],[2,-12],[5,-12],[0,-6],[-9,-19],[-5,-6],[0,-3],[1,-2],[1,-1],[0,-2],[-1,-2],[0,-1],[-2,-6],[-6,-7],[-1,-5],[0,-6],[1,-3],[0,-3],[-4,-16],[-10,-9],[-5,-19],[-11,-12],[-4,-7],[-1,-9],[-2,-2],[-2,-6],[-3,-4],[-3,0],[-1,-8],[-5,-6],[-5,-7],[-4,-11],[-9,-8],[-4,-6],[-2,-11],[-4,-7],[-37,-3],[-27,-11],[-9,-20],[-16,-22],[-12,-8],[-14,-2],[-4,12],[-4,3],[-5,-3],[-3,-9],[-3,-9],[-9,0],[-10,-7],[-7,0],[-7,-4],[-3,3],[-15,1],[-2,-1],[-1,-4],[-3,-6]],[[1590,8040],[-14,-92],[-175,-165],[12,-70],[-26,-28],[-26,7],[-53,55],[-18,7],[-3,-31],[15,-54],[7,-54],[24,-115],[-5,-35],[-12,-40],[-10,-27],[-56,-39],[-54,-61],[-26,-25],[-54,-18],[-10,-15]],[[2149,7823],[-11,-10],[-2,-2],[-3,1],[-10,5],[-2,1],[-11,0],[-2,1],[1,2],[2,2],[2,4],[-1,7],[-1,5],[-3,4],[-12,8],[-6,5],[-4,4],[-2,1],[-6,1],[-4,-2],[-2,-3],[-2,-3],[-4,-1],[-3,-1],[-3,-1],[-3,1],[-6,4],[-3,1],[-4,-1],[-3,-2],[-2,-2],[-4,-1],[-17,0],[-2,-1],[-8,-8],[-1,-1],[-3,0],[-3,2],[-2,2],[-3,0],[-4,-1],[-2,-1],[-1,-3],[-2,-3],[0,-3],[-1,-1],[-2,0],[-3,1],[-2,1],[-3,-2],[-7,-2],[-8,-1],[-7,0],[-4,1],[-4,2],[-8,1],[-6,-2],[-14,-4],[-6,-1],[-7,1],[-6,2],[-11,7],[-8,6],[-19,13],[-7,3],[-4,0],[-4,2],[-4,3],[-12,12],[-5,7],[-2,4],[-3,4],[-5,8],[-4,5],[-5,9],[-4,4],[-3,3],[-5,3],[-3,3],[-4,1],[-22,0],[-3,1],[-4,3],[-14,3],[-7,2],[-13,4],[-6,2],[-6,0],[-4,2],[-11,5],[-6,1],[-4,2],[-3,-1],[-3,0],[-6,1],[-6,0],[-1,2],[1,4],[-2,4],[-2,3],[-1,1],[-3,2],[-4,2],[-4,5],[-3,5],[-2,2],[-10,5],[-6,5],[-8,7],[-3,6],[-3,1],[-4,1],[-6,13],[-1,1],[-4,4],[-8,11],[-4,2],[-1,2]],[[3922,5071],[-21,-9],[-10,-14],[-25,-14],[-24,5],[-27,18],[-24,-2],[-34,11]],[[3757,5066],[-12,27],[3,17],[0,30],[-13,12],[1,12],[13,5],[11,40],[7,12],[-8,17],[17,13],[-3,29],[-35,29],[3,11],[39,25],[-7,21],[-18,15],[-22,38],[-42,47],[-4,8],[-27,15],[-12,13],[-8,14],[-27,5],[0,10],[8,14],[13,12],[-4,9],[-14,9],[3,18],[-14,4],[-9,-8],[-11,1],[3,33],[7,35],[1,31],[5,11],[11,16],[21,15],[18,9],[11,21],[-1,13],[-11,13],[-4,9],[-15,7],[-2,15],[-9,0]],[[4300,5419],[3,-10],[-21,-55],[0,-25],[5,-6],[11,1],[20,14],[8,7],[7,-16],[-5,-18],[-1,-12],[7,-13],[28,21],[27,25],[5,-28],[-28,-33],[-38,-37]],[[5149,3691],[2,-3],[-1,-3],[-3,-6],[-4,-3],[-3,-4],[-1,-7],[1,-8],[-2,-3],[-2,-3],[-7,3],[-6,-2],[-3,-6],[-1,-12],[-4,-2],[-6,-4],[-7,-9],[-4,-2],[-2,1],[-3,8],[-3,1],[-3,-1],[-3,-5],[-3,-17],[-3,-9],[-9,-17],[-2,0],[-2,2],[1,5],[-1,3],[-2,2],[-2,3],[-2,-1],[-2,-6],[-1,-9],[-1,-4],[-1,-3],[-5,-4],[-4,-1],[-13,4],[-9,6],[-3,0],[-5,-5],[-4,-3],[-2,0],[-2,2],[-1,3],[2,5],[-2,2],[-5,-1],[-3,1],[-2,3],[0,6],[-1,2],[-2,1],[-3,0],[-15,-9],[-6,-7],[-3,-1],[-2,0],[-4,6],[-5,4],[-3,1],[-3,-3],[-1,-7],[-1,-2],[-2,0],[-5,5],[-2,0],[-3,-1],[-13,-11],[0,-5],[-1,-3],[-5,3],[-5,4],[-3,-2],[-4,0],[-3,3],[-5,0],[0,-4]],[[4896,3562],[-9,41],[27,37],[33,124],[157,183],[-23,31],[-9,-12],[-63,19],[-69,63],[6,27],[-154,141],[54,111],[46,-32],[42,105],[-47,6],[-8,149],[18,-5],[11,38],[-30,70],[-22,-4],[-31,127],[35,10]],[[4860,4791],[2,8],[-6,26],[16,-5],[15,-23],[21,10],[-9,28],[17,-12],[8,4],[27,14],[-14,-28],[25,-26],[2,50],[12,6],[-4,-37],[19,-25],[1,-18],[-15,-26],[7,-3],[20,11],[16,-40],[11,37],[-17,15],[19,10],[15,-30],[13,24],[6,15]],[[4641,3314],[13,18],[3,1],[7,-3],[5,1],[4,5],[3,7],[5,3],[2,11],[4,1],[7,-5],[7,-3],[7,1],[3,13],[8,6],[2,0],[6,-7],[16,15],[1,5],[19,4],[9,11],[8,8],[6,4],[12,26],[3,5],[0,7],[1,6],[2,2],[4,2],[6,9],[3,1],[5,-6],[5,-1],[5,3],[2,5],[-1,10],[2,4],[3,2],[1,4],[-4,9],[0,4],[1,3],[1,6],[2,3],[2,-1],[3,-3],[2,0],[6,2],[2,4],[0,2],[-1,2],[-1,9],[2,1],[4,3],[5,5],[9,-3],[3,2],[1,6],[-1,3],[-3,4],[-1,4],[1,3],[1,2],[5,1],[4,-1],[4,-8],[2,-1],[3,1],[3,2],[1,2],[2,4],[-1,3]],[[4348,3914],[78,-149],[0,-53],[27,-46],[50,-15],[14,-46],[143,-152],[-24,-31],[6,-27],[-25,-53],[18,-15],[6,-13]],[[4860,4791],[-24,8],[0,7],[11,4],[2,26],[16,46],[-40,-25],[22,46],[-39,11]],[[983,3221],[-10,2],[-5,3],[-12,0],[-5,-1],[-2,-4],[-15,3],[-6,3],[-1,2]],[[446,2788],[1,-7],[4,-7],[1,-1],[2,0],[4,2],[5,5],[3,1],[3,-1],[3,-2],[1,-4],[-2,-23],[0,-6],[-1,-10],[-1,-2],[1,-3],[8,-5],[10,-5],[3,0],[5,-2],[5,-4],[5,-6],[6,-5],[6,-9],[0,-11],[-1,-10],[-1,-5],[-7,-15],[-2,-6],[0,-3],[8,-11],[2,-1],[2,-1],[2,-1],[1,1],[4,4],[10,8],[3,1],[2,-1],[1,-2],[3,-10],[0,-6],[-1,-13],[6,-16],[0,-3],[1,-11],[1,-4],[1,-3],[17,-9],[11,-4],[1,-1],[1,-1],[2,-7],[1,-14],[-1,-4],[-3,-5],[-4,-4],[-9,-6],[-1,-2],[-1,-4],[0,-1],[2,-2],[3,-2],[2,4],[8,4],[6,2],[13,-6],[4,-3],[1,-4],[1,-6],[-1,-10],[-3,-6],[-7,-7],[-1,-4],[-1,-2],[0,-2],[2,-6],[2,-3],[17,-11],[1,-2],[1,-7],[-2,-10],[-2,-10],[1,-13],[2,-9],[5,-8],[1,-5],[1,-4],[-3,-12],[-4,-11],[0,-8],[8,-36],[13,-9],[10,8],[3,8],[3,8],[4,5],[7,-2],[11,-6],[8,-14],[7,-4],[6,-7],[2,-19],[125,-52]],[[1132,3093],[2,-7],[3,-1],[3,6],[7,14],[2,9],[1,6],[7,9],[9,15],[11,6],[7,9],[2,1],[8,0],[5,3],[4,4],[2,3],[1,8],[0,3],[2,2],[2,2],[4,-1],[4,1],[5,2],[2,3],[2,12],[7,14],[1,7],[1,10],[3,5],[9,5],[6,2],[7,-3],[4,-3],[5,-6],[4,0],[4,5],[3,7],[2,8],[0,2],[5,11],[4,12],[3,12],[4,7],[5,6],[5,1],[4,0],[12,5],[4,-2],[3,-2],[3,-1],[6,2],[6,-2],[7,-8],[3,-5],[2,-4],[1,-2],[3,4],[10,-1],[4,1],[0,11],[2,3],[3,1],[5,-1],[3,0],[5,2],[5,7],[5,3],[8,6],[6,9],[8,10],[2,3],[4,1],[4,2],[8,1],[8,3],[3,0],[3,2],[2,2],[1,7],[3,8],[4,5],[8,7],[3,4],[2,9],[8,7],[6,0],[8,-2],[9,-1],[7,-3],[2,0],[6,4],[2,1],[2,-2],[3,-1],[3,2],[3,1],[5,-5],[5,-11],[4,-14],[2,1],[5,0],[5,3],[6,3],[4,0],[3,-2],[2,-7],[7,-12],[5,-1],[5,-3],[24,0],[4,-1],[2,-2],[1,-4],[-3,-16],[4,-6],[3,-9],[2,-5],[1,-2],[5,-1],[5,4],[9,2],[2,0],[3,-6],[2,-5],[1,-4],[1,-4],[3,-5],[1,-4],[-2,-9],[1,-10],[2,-8],[6,-12],[2,-8],[4,-10],[2,-7],[1,-7],[3,-8],[-2,-11],[0,-4],[6,-3],[1,-5],[0,-9],[-4,-19],[2,-5],[5,-9],[3,-7],[1,-7],[-2,-9],[-2,-8],[-4,-5],[-1,-5],[-2,-5],[-6,-8],[-2,-18],[8,-9],[4,-4],[3,-7],[4,-6],[4,-3],[5,-3],[5,-7],[3,-3],[3,-3],[2,-11],[3,-10],[0,-5],[-2,-3],[-5,-3],[-4,-4],[-3,-6],[-5,-3],[-2,-10],[-4,-6],[-1,-6],[-1,-9],[-5,-6],[-4,-4],[-1,-5],[-1,-6],[-2,-4],[0,-8],[-2,-2],[-6,-1],[-7,2],[-3,0],[-1,-4],[0,-9],[-2,-5],[-1,-6],[0,-11],[-4,-8],[-3,-4],[1,-18],[-2,-23],[-3,-9],[-1,-10],[-1,-7],[1,-7],[-4,-3],[-3,-1],[-2,-5],[0,-6],[2,-8],[2,-10],[1,-11],[1,-4],[3,-4],[13,-7]],[[1634,1496],[3,-2],[0,-4],[-1,-9],[1,-1],[1,0],[3,3],[5,9],[4,2],[6,1],[2,-1],[3,-7],[0,-7],[-2,-4],[0,-9],[3,-4],[1,0],[2,2],[3,0],[2,-2],[7,-4],[2,-4],[0,-10],[3,-3],[2,-2],[8,1],[3,-2],[2,-3],[5,-4],[9,0],[2,1],[3,6],[7,9],[6,6],[2,1],[3,0],[5,-3],[4,-3],[6,-7],[3,-4],[6,-3],[4,-9],[0,-3],[-3,-6],[-1,-5],[-2,-4],[1,-2],[7,-5],[5,-7],[1,-1],[4,0],[3,2],[4,2],[6,-2],[2,-2],[2,-6],[5,-1],[8,-3],[2,-5],[0,-5],[1,-8],[3,-5],[2,-1],[3,0],[5,3],[6,1],[8,-11],[2,0],[4,2],[8,-4],[2,1],[5,5],[1,4],[2,3],[1,-1],[3,1],[2,3],[0,2],[2,8],[0,2],[2,8],[7,10],[12,13],[0,3],[2,3],[2,1],[2,-3],[2,-2],[15,-16],[3,-2],[3,1],[4,4],[3,1],[4,-2],[1,-1],[0,-5],[1,-2],[7,-9],[5,-9],[5,-5],[14,-8],[11,-3],[5,1],[3,0],[7,-6],[4,-2],[9,-2],[6,5],[7,0],[7,-3],[5,0],[0,4],[1,1],[1,1],[6,1],[3,-1],[6,-6],[3,-2],[2,0],[4,5],[1,1],[4,2],[3,1],[5,3],[3,6],[1,2],[1,4],[-1,3],[0,8],[2,2],[1,2],[4,6],[3,-1],[3,1],[5,-1],[2,-2],[1,-3],[2,-9],[4,-11],[2,-4],[5,-4],[3,-5],[3,-4],[2,-3],[3,-1],[6,-3],[8,-4],[3,-4],[3,-1],[3,1],[3,0],[5,-2],[3,1],[11,-3],[2,-2],[2,-4],[0,-3],[-3,-10],[1,-2],[1,0],[3,1],[2,-4],[2,-2],[3,-1],[5,-4],[3,-5],[7,-5],[1,-5],[-1,-6],[2,-2],[1,-1],[9,2],[1,0],[5,-4],[4,-6],[5,-3],[0,5],[2,12],[1,14],[-4,9],[-1,8],[1,13],[1,13],[0,17],[7,31],[0,11],[-2,15],[-5,18],[-9,22],[-7,10],[-8,5],[-5,7],[0,3],[1,4],[0,4],[-3,9],[-1,10],[0,6],[3,12],[0,4],[-3,8],[-5,6],[-1,7],[1,7],[-2,6],[-12,11],[-5,2],[-1,4],[4,6],[0,4],[-2,6],[0,8],[1,9],[-2,7],[0,7],[1,10],[1,6],[-2,7],[-3,7],[-5,6],[-3,6],[-2,8],[0,10],[-2,20],[0,3],[-1,5],[1,4],[1,6],[-2,8],[-1,8],[1,6],[2,5],[0,3],[-2,3],[-3,7],[-6,10],[-9,10],[-3,1],[-7,-1],[-8,6],[-1,4],[-4,26],[2,13],[1,5],[1,4],[-1,2],[-1,3],[0,4],[1,4],[-1,5],[0,6],[-6,13],[-1,15],[-2,16],[0,19],[-1,5],[-3,1],[-5,-3],[-24,9],[-17,19],[-1,2],[-5,2],[-4,3],[-2,3],[-2,10],[-2,6],[-2,3],[0,4],[-1,6],[-2,0],[-3,3],[-3,3],[-2,4],[-2,3],[-1,2],[1,2],[0,4],[-3,8],[-1,5],[2,4],[4,4],[6,8],[2,7],[1,7],[-1,14],[-3,16],[-5,14],[-2,4],[-4,1],[-3,5],[-5,2],[-5,0],[-2,1],[-4,4],[-2,4],[2,22],[2,5],[3,9],[-3,13],[-1,7],[-3,7],[-4,12],[-2,12],[0,13],[-1,6],[-6,9],[-1,5],[0,8],[-1,4],[-8,13],[1,17],[-1,5],[-3,11],[0,7],[1,8],[2,9],[3,7],[-1,9],[-1,5],[0,7],[-3,10],[-2,15],[0,16],[2,3],[3,2],[4,3],[4,6],[3,5],[3,3],[4,2],[3,4],[2,4],[0,5],[1,6],[0,9],[-1,13],[-2,10],[-3,11],[0,4],[4,8],[-1,4],[-2,4],[-1,10],[-4,11],[-1,3],[-3,2],[-8,0],[-1,4],[-5,4],[-6,2],[-3,-2],[-4,-1],[-6,1],[-7,1],[-2,3],[-4,1],[-1,5],[-7,4],[-11,8],[-15,12],[-7,3],[-2,2],[-1,1]],[[6490,2062],[7,80],[47,108],[116,123],[58,112],[78,48],[129,-42],[64,-81],[61,-66],[43,-96],[19,-37],[10,-59],[-2,-56],[-3,-15],[-7,-12],[-4,-28],[368,-124]],[[7474,1917],[-258,-1374]],[[7697,3095],[-223,-1178]],[[7930,6894],[215,-269]],[[8145,6625],[-184,-494],[0,-15],[1,-2],[0,-7],[-1,0],[0,-2],[-1,-7],[0,-6],[-4,0],[-14,-9],[-11,-7],[-9,-4],[-2,-1],[-8,0],[-8,-1],[-1,-1],[-1,-5],[0,-1],[-1,0],[-6,-2],[-7,1],[-4,2],[-13,-2],[-12,-2],[-8,-2],[-6,-2],[-3,1],[-4,-5],[-4,4],[-2,2],[-2,2],[-9,8],[-7,6],[-23,-15],[-3,-1],[-3,-1],[-12,-11],[-31,7],[2,29],[-27,49],[-16,18],[-26,64],[-17,13],[-37,17],[-1,12],[-3,93],[-6,33],[-31,65]],[[8145,6625],[161,-132]],[[2247,5414],[14,16],[3,17],[-7,13],[6,28],[16,19],[7,17],[15,0],[11,26],[34,38],[5,30],[10,14],[2,34],[16,22],[-7,26],[-32,4],[-28,30],[-16,-10],[-5,-26],[-13,-4],[-15,26],[-22,-1],[1,17],[49,23],[2,35],[-6,28],[19,32],[-19,14],[-35,-1],[-21,12],[7,22],[-22,36],[13,42],[24,31],[13,9],[15,35],[50,70],[22,-20],[3,-19],[28,18],[16,47],[-25,23],[-8,-9],[-42,46],[-39,0],[-19,24],[-14,-3],[-9,19],[-19,11],[-5,29],[-15,4],[-52,60]],[[1868,5352],[3,-1],[11,15],[17,11],[7,-3],[7,-4],[9,0],[7,3],[18,-10],[32,-3],[29,27],[20,8],[27,-6],[7,4],[26,-12],[18,4],[11,8],[11,27],[15,1],[28,-6],[18,16],[17,-2],[14,-6],[15,0],[12,-9]],[[1697,5421],[5,-5],[7,-1],[5,-4],[8,-2],[11,-9],[30,-13],[11,-4],[7,-5],[5,-5],[2,-7],[-1,-13],[11,-8],[14,-6],[12,5],[9,-2],[1,-1],[2,-2],[2,1],[3,1],[1,4],[1,3],[5,6],[15,-1],[5,-1]],[[4101,3761],[-70,-4],[-44,-35]],[[3987,3722],[-13,154],[-60,132],[-69,84]],[[3845,4092],[34,115],[59,-21],[39,45],[29,-9]],[[4044,3475],[-120,-43],[-52,-23],[-78,36],[-17,32],[-10,7],[-67,40],[-75,-22],[-119,8],[-79,32],[-72,60]],[[3355,3602],[28,63],[11,23],[56,42],[2,40],[-29,34],[-19,83],[-44,59],[69,195],[132,136],[-11,39],[-36,43],[-12,47],[29,7],[39,3],[19,17],[9,3],[8,6],[11,3],[6,8],[7,1],[4,3]],[[3634,4457],[38,-117],[103,-112],[70,-136]],[[3987,3722],[-10,-134],[67,-113]],[[3048,3357],[14,51],[104,-37],[31,31],[3,200]],[[3200,3602],[19,0],[63,-14],[21,-10],[52,24]],[[4044,3475],[41,-201],[-45,-39],[-34,-2],[-8,-9],[-11,-54],[-5,-14],[-2,-19],[0,-34],[3,-25],[-2,-32],[4,-15],[19,-21],[-9,-20],[5,-50],[3,-31],[14,-28],[1,-12],[-1,-2],[-1,-22],[6,-28],[72,-38]],[[4094,2779],[-3,-9],[-1,-12],[-5,-14],[-6,-2],[-6,1],[-5,0],[-7,-2],[-6,-3],[-10,-10],[-17,-7],[-6,-6],[-8,-18],[-4,-6],[-10,-2],[-4,-6],[-6,3],[-6,-1],[-3,-5],[-2,-16],[-5,-10],[-10,-2],[-4,-5],[-6,1],[-11,-4],[-2,-5],[-2,-18],[-9,-9],[-4,-9],[-12,0],[-2,4],[-1,1],[-6,-5],[-5,-1],[-5,4],[-2,0],[-4,-3],[-6,-9],[-10,0],[-5,-3],[-3,-6],[-8,-9],[-9,-5],[-2,-1],[-1,2],[-3,9],[-3,2],[-3,-1],[-4,-5],[-7,-22],[-6,-1],[-1,-3],[0,-7],[-2,-5],[-2,-1],[-4,1],[-4,-2],[-1,-6],[-2,-3],[-7,0],[-3,-1],[-3,-8],[-2,-9],[-4,-12],[-1,-5],[-1,-4],[-2,-1],[-2,0],[-5,6],[-6,1],[-5,-4],[-3,-13],[-2,-3],[-5,-2],[-5,0],[-4,4],[-1,5],[-4,2],[-2,-3],[-4,-27],[-3,-3],[-3,-1],[-4,5],[-3,0],[-3,-2],[-5,-6],[-8,-20],[-1,-11],[0,-10],[-5,-10],[-4,-3],[-9,4],[-2,-1],[-2,-5],[-4,-4],[-2,-7],[0,-4],[3,-13],[0,-3],[-4,-5],[-1,-8],[1,-11],[-1,-8],[-4,-15],[1,-6],[3,-8],[6,-12],[0,-4],[-1,-3],[-4,-2],[-2,-6],[-2,-16],[-2,-5],[-8,-9],[-6,-8],[-7,-8],[-7,-4],[-3,-10],[-2,-3],[-12,-6],[-5,-3],[-1,-4],[-1,-2],[0,-9],[-3,-7],[-1,-2],[-5,-3],[-14,3],[-5,-1],[-7,3],[-3,-2],[-3,-4],[-4,-3],[0,-3],[-2,-3],[0,-9],[3,-10],[-1,-3],[-7,-5],[-7,-7],[-4,-1],[-9,-8],[-13,-7],[-6,-6],[-1,-3],[-1,-3],[-1,0],[-3,3],[-3,0],[-4,-1],[-5,-2],[-3,-3],[-2,0],[-3,3],[0,3],[-1,17],[-2,3],[-3,-1],[-10,10],[0,8],[-2,7],[-18,21]],[[4641,3314],[-4,-15],[-5,-7],[-12,-7],[-4,4],[-4,0],[-6,-15],[-16,-11],[-8,-1],[-2,-2],[-7,-19],[-4,-4],[-7,-16],[-1,0],[-3,2],[-1,4],[-2,2],[-5,3],[-6,-6],[-5,-7],[-5,-1],[-2,-1],[-3,-6],[-13,-9],[-4,-10],[-3,0],[-6,-2],[-5,-6],[-4,-15],[-6,-12],[-6,-7],[-19,-9],[-3,-5],[-5,-1],[-6,-4],[-4,-7],[-16,-16],[-4,1],[-5,3],[-6,0],[-10,-10],[-10,5],[-5,-3],[-8,-20],[-3,-3],[-13,-3],[-5,3],[-13,-10],[-15,-15],[-3,1],[-14,0],[-19,-6],[-7,2],[-2,-3],[-1,-7],[2,-11],[-4,-3],[-11,3],[-4,-1],[-6,-10],[-5,-3],[-4,-5],[-12,-3],[-12,1],[-3,2],[-5,8],[-6,5],[-3,-1],[-1,-6],[-2,-3],[-7,-6],[-3,-11],[-6,-7],[-5,-2],[-4,-5],[0,-7],[4,-12],[1,-6],[-17,-40],[-8,-25],[-7,-8],[-2,-5],[-6,1],[-3,-2],[-6,-15],[-5,0],[-3,4],[-3,1],[-2,-3],[-3,-5],[2,-15],[-7,-4],[-2,-3],[-1,-19],[-8,-17],[-7,-20],[-6,-4],[-2,-2]],[[3645,4992],[-5,-71],[-53,-103],[-15,-82],[9,-116],[3,-19],[-2,-10],[-2,-15],[0,-38],[3,-14],[8,-8],[18,-11],[9,-25],[16,-23]],[[3757,5066],[-29,-10],[-16,-11],[-25,-9],[-42,-44]],[[2517,5323],[15,106],[44,58],[17,-1],[2,15],[-51,7],[16,82],[12,-3],[4,49],[23,21],[13,25],[26,23],[-10,7],[21,37],[4,39],[8,3],[28,77],[-10,29],[8,40],[43,-16],[4,63],[26,43],[29,76],[1,30],[16,101],[-9,27],[13,39],[4,50],[-12,-3],[-17,47],[5,31],[-17,21]],[[2247,5414],[26,-32],[35,-18],[45,6],[35,-27],[40,15],[12,5],[77,-40]],[[2519,4383],[-40,184],[18,55],[-23,127],[79,53],[21,39],[-3,131],[-15,64],[13,142],[32,40],[7,65]],[[2608,5283],[86,-34],[58,55],[6,31],[33,15],[17,104],[57,22],[18,25],[25,5],[50,52],[76,25],[12,36],[85,63],[47,-1],[22,15],[59,4]],[[3259,5700],[55,-173],[-22,-146],[93,-137],[168,-51],[39,-44],[16,-96],[37,-61]],[[3645,4992],[-12,-18],[-10,2],[-13,-27],[-15,-6],[-8,-18],[-19,-12],[-13,0],[-25,-7],[-19,-19],[-20,-1],[-10,-17],[-35,-27],[-7,-12],[-4,-8],[-14,-6],[-8,-11],[-2,-3],[-3,-2],[-12,-6],[-5,-14],[-2,-22],[-3,-12],[-4,-13],[-8,-9],[-14,-14],[-9,-7],[-21,-16],[-3,-7],[-12,-29],[-69,-37],[-65,-9],[-33,7],[-48,11],[-25,-11],[-18,-8],[-9,-5],[-16,-12],[-26,-21],[-34,-45],[-36,-48],[-21,-29],[-6,-7],[-99,-58],[-92,1]],[[3548,5927],[-41,2],[-52,-22],[-30,-32],[-18,-48],[-22,-2],[-1,30],[-12,33],[-43,-78],[-19,-6],[-30,6],[12,-47],[-7,-33],[-26,-30]],[[1868,5352],[4,-26],[9,-7],[6,-7],[4,-7],[10,-5],[5,-5],[7,-1],[2,-2],[1,-12],[-2,-11],[1,-10],[-3,-10],[-4,-25],[-3,-1],[-17,9],[-5,13],[-5,-1],[-4,-5],[-1,-7],[2,-8],[4,-7],[6,-2],[4,-5],[8,-3],[8,-7],[9,-6],[3,-21],[28,-30],[2,-32],[-5,-7],[-2,-6],[1,-7],[5,-7],[0,-10],[-1,-11],[0,-11],[-1,-4],[-4,-5],[-1,-12],[-2,-9],[-8,-9],[0,-4],[7,-9],[1,-10],[-4,-13],[-14,-28],[-8,-25],[-4,-28],[12,-32],[-2,-10],[-11,-3],[-7,5],[-24,-13],[-20,-3],[-13,-32],[-16,2],[-2,-5],[3,-10],[1,-25],[9,-20],[2,-21],[-3,-9],[-5,-4],[-7,-19],[-6,-12],[1,-13],[-7,-19],[-14,-50],[-10,-27],[-13,4],[-16,-17],[-16,-3],[-3,-20],[-11,-15],[-7,-33],[-8,-3],[-8,16],[-11,10],[-2,16],[-11,20],[-11,-2],[-4,6],[-2,14],[-12,19],[-12,11],[-11,-8],[-1,-10],[-37,14],[-16,1],[-15,8],[-22,-17],[-27,3],[-15,-4],[-8,7],[-6,17],[-6,2],[-10,0],[-10,-9],[-8,-6],[-7,-7],[-6,-10],[-4,-2],[-13,4],[-31,-2],[-14,-4],[-8,-7],[-13,-17],[-9,-5],[-4,-7],[-2,-9],[0,-10],[1,-7],[2,-2],[0,-12],[2,-10],[3,-6],[6,-2],[5,0],[2,-3],[-2,-35],[27,-7],[36,13],[10,0],[4,-10],[5,-5],[54,-5],[8,-3],[21,-31],[11,-16],[21,-12],[27,-3],[10,5],[38,-2],[30,-32],[5,-21],[4,-29],[-10,-21],[-16,-12],[-1,-8],[5,-18],[19,-18],[1,-10],[7,-10],[7,-22],[-3,-15],[6,-23],[1,-14],[15,-47],[2,-40],[3,-3],[26,-1],[16,-4],[6,-5],[7,0],[10,-6],[7,-17],[24,-10]],[[2608,5283],[-13,4],[-20,-9],[-15,6],[-7,30],[-7,8],[-23,-4],[-6,5]],[[3200,3602],[0,1],[12,83],[11,13],[9,12],[1,38],[-51,28],[-4,1],[-8,4],[-32,30],[11,31],[13,44],[-28,27],[-33,25],[-76,-21],[-25,19],[-19,-7],[-21,13],[-9,24],[-30,19],[-50,-16]],[[750,7341],[4,-9],[-11,-15],[7,-13],[2,-23],[-2,-10],[-1,-7],[-4,4],[-6,2],[-2,3],[-7,2],[-3,2],[-6,0],[-2,5],[0,13],[-3,8],[-1,1],[-5,5],[-4,0],[-7,-2],[-8,-5],[-7,8],[-12,24],[0,11],[2,4],[10,2],[13,12],[7,4],[4,2],[5,-2],[11,-10],[8,-4],[11,-7],[7,-5]],[[453,7517],[-1,-7],[-7,-13],[-3,-24],[1,-6],[6,-4],[3,-4],[-7,-11],[-11,-10],[-14,-4],[-22,-10],[-5,2],[-4,6],[-6,4],[-3,13],[-11,10],[-7,29],[-26,8],[-21,10],[-8,29],[10,27],[18,20],[25,9],[16,-6],[7,6],[3,8],[7,0],[9,-8],[10,-25],[6,-1],[14,-11],[20,-35],[1,-2]],[[984,7360],[-15,-10],[-11,-33],[-12,7],[-15,1],[-5,3],[0,10],[-4,4],[-24,-6],[-9,-7],[-8,6],[-15,25],[-2,20],[-5,17],[-2,7],[-10,18],[-4,11],[-3,3],[-9,-5],[-5,-3],[-6,-11],[-6,-2],[-4,-4],[-13,-19],[-2,-9],[0,-10],[-3,-4],[0,-8],[3,-3],[0,-19],[-4,1],[-5,8],[-4,0],[-1,2],[-1,8],[1,8],[-1,4],[-5,-1],[-17,5],[-10,10],[0,6],[-3,10],[-2,4],[-2,-1],[-5,-4],[-6,0],[-3,2],[-2,3],[-1,6],[3,11],[-4,15],[-3,5],[-7,2],[-6,4],[-4,5],[-4,3],[-3,-2],[-3,2],[-2,4],[-1,7],[-2,3],[-4,1],[-6,0],[-2,3],[-2,4],[0,5],[-3,-1],[-1,-5],[0,-3],[1,-8],[1,-5],[-2,-2],[-3,0],[-7,11],[-11,-1],[-4,0],[-3,4],[2,13],[-2,9],[-3,14],[-5,6],[2,3],[6,5],[1,4],[-1,1],[-2,1],[-2,0],[4,19],[-1,11],[-10,10],[-14,9],[-29,17],[4,-32],[-6,-28],[4,-28],[-15,-13],[-3,3],[-3,0],[-4,-4],[-5,-9],[0,-6],[1,-2],[2,-8],[-10,-2],[-2,-4],[0,4],[-3,12],[2,10],[-3,8],[-13,7],[-6,-7],[0,-15],[-3,-2],[-11,3],[-10,1],[0,-5],[-20,1],[0,13],[7,11],[3,20],[6,-1],[1,13],[0,4],[-2,7],[0,4],[5,29],[-6,22],[1,9],[6,7],[18,12],[1,13],[3,3],[1,7],[9,14],[3,-4],[3,-9],[5,-7],[6,-1],[17,8],[31,-6],[6,3],[3,-1],[3,1],[5,-1],[10,25],[4,1],[23,-11],[8,3],[8,15],[1,13],[3,3],[6,0],[11,10],[10,8],[3,8],[1,27],[-4,19],[-1,13],[-8,12],[-7,2],[-18,-5],[-6,5],[-13,9],[-16,24],[-17,18],[-2,6],[-5,3],[-3,7],[1,8],[-7,0],[-4,4],[-6,1],[-7,7],[-2,5],[3,8],[-2,11],[-4,7],[-4,2],[-5,-8],[-2,-15],[-3,-3],[-1,4],[-4,0],[-3,-6],[-5,-3],[-8,-11],[-1,-6],[-6,-3],[-8,4],[-7,0],[-7,3],[-9,-4],[-22,3],[-13,-1],[-10,1],[-2,7],[-3,4],[1,4],[9,13],[-1,6],[-3,1],[-15,-4],[-17,-23],[-5,0],[-4,6],[-2,13],[3,23],[3,13],[4,6],[6,-1],[7,-2],[7,-5],[3,2],[5,17],[-1,12],[4,10],[2,28],[4,9],[14,10],[-23,11],[-5,12],[-2,12],[-4,7],[-8,8],[-10,15],[-3,12],[1,11],[-12,20],[-13,33],[9,11],[0,5],[4,4],[0,7],[5,3],[3,-3],[8,3],[4,2],[12,4],[9,6],[-4,22],[13,9],[13,16],[3,-2],[5,0],[3,2],[4,-2],[4,2],[0,30],[12,17],[3,3],[17,-19]],[[528,8281],[5,-18],[9,-10],[22,-15],[23,-27],[20,-23],[24,-22],[34,-13],[48,-22],[40,-51],[93,-43],[42,-16],[55,4],[23,-42],[-2,-20],[-23,-24],[-4,-62],[11,-20],[2,-27],[-22,3],[5,-50],[26,-60],[5,-29],[-17,-48],[-1,-22],[16,-1],[9,11],[12,-2],[5,16],[14,-2],[-5,-37],[3,-12],[-8,-9],[5,-5],[-10,-12],[-16,-181],[13,-30]],[[1590,8040],[-3,0],[-5,3],[-7,6],[-1,1],[-6,2],[-2,2],[-1,4],[-1,6],[-2,2],[-2,4],[-3,11],[-1,1],[-3,5],[-4,6],[-3,2],[-2,3],[-1,3],[-2,8],[-2,2],[-3,4],[-4,4],[-3,3],[-3,2],[-7,7],[-1,2],[-1,5],[-1,6],[-3,4],[-2,3],[-6,6],[-2,2],[-2,6],[2,5],[43,92],[18,33],[2,1],[1,0],[12,-12],[9,-4],[1,1],[8,35],[-1,1],[-17,7],[-4,2],[-2,1],[-4,2],[-22,7],[-9,2],[-13,2],[-11,2],[-3,0],[-6,-11],[-1,-2],[-2,-1],[-13,0],[-3,-1],[-8,-2],[-4,1],[-2,0],[-11,9],[-14,10],[-2,4],[-3,8],[-3,4],[-6,9],[-2,2],[-4,0],[-4,3],[-2,4],[-4,14],[-6,0],[-11,1],[-15,0],[-4,-1],[-7,-2],[-7,-4],[-8,-1],[-8,0],[-4,-2],[-3,-5],[-3,-1],[-23,3],[-16,4],[3,13],[4,23],[-18,38],[-5,8],[-4,5],[-5,4],[-4,2],[-5,1],[-3,2],[-23,15],[-5,3],[-14,8],[-5,2],[-8,0],[-4,1],[-3,3],[-14,15],[-8,12],[-12,15],[-5,2],[-5,5],[-4,7],[-9,6],[-4,5],[-4,3],[-6,7],[-12,17],[-3,2],[-5,1],[-5,-3],[-6,-6],[-5,-8],[-4,-5],[-7,-7],[-6,-6],[-4,-9],[-4,-18],[-2,-5],[-2,-4],[-26,-8],[-6,-2],[-6,-1],[-10,1],[-14,0],[-4,3],[-4,4],[-3,5],[-1,6],[-1,4],[-3,6],[-15,20],[-1,9],[-2,2],[-3,6],[-5,7],[-6,5],[-3,2],[-8,3],[-12,6],[-6,2],[-7,5],[-3,4],[-5,5],[-9,6],[-9,5],[-5,2],[-4,4],[-9,6],[-2,1],[-2,0],[-2,-2],[-20,-18],[-11,-9],[-5,1],[-10,3],[-30,10],[-1,0],[-3,-18],[-1,-6],[-4,-12],[-4,-8],[-2,-8],[-2,-8],[-12,-13],[-12,-13],[-2,-3],[-43,-37],[-6,-4],[-10,-13],[-1,0],[-3,2],[0,-1],[-6,4],[-1,0],[-2,1],[-2,2],[-2,2],[-1,1],[-2,1],[-2,1],[-2,1],[-1,1],[-1,1],[-3,3],[-1,0],[-4,-1],[-1,-1],[0,-11],[1,-3],[-2,-8],[-1,-8],[-1,-2],[-12,-14],[-48,-74],[-19,-35],[-16,-29],[-3,-2],[-6,-9],[-9,-15],[-6,-18],[-8,-7]],[[984,7360],[9,4],[16,2],[4,26],[3,3],[11,-9],[31,3],[14,-11],[12,-5],[0,-11],[-18,-16],[-16,-19],[-19,-39],[14,-18],[5,-43],[3,-12],[2,-3],[4,-1],[5,4],[12,15],[6,5],[9,-2],[4,0],[11,7]],[[4926,7935],[12,-1],[17,15],[8,-4],[9,-1],[4,-5],[10,0],[13,6],[14,30],[14,23],[1,19],[11,29],[-5,30],[6,30],[-9,15],[-12,8],[-4,7],[-5,2],[1,9],[6,2],[3,8],[-1,11],[18,1],[11,4],[12,16],[19,22],[15,-3],[27,9],[2,7],[6,-1],[6,13],[-8,16],[-12,10],[-5,24],[-8,29],[7,9],[2,11],[11,7],[20,-18],[9,-3],[3,2],[1,4],[-3,17],[6,13],[21,13],[5,7],[4,23],[-7,37],[2,14],[10,15],[-8,16],[0,10],[5,16],[-4,14],[-1,14],[10,9],[16,5],[15,9],[14,3],[35,47],[9,5],[1,7],[-17,20],[6,34],[7,13],[5,15],[-1,9],[8,8],[12,7],[18,2],[2,0],[11,-2],[4,0],[33,5],[30,24],[47,12],[57,0],[34,13],[14,9],[31,23],[11,20],[0,17],[40,54],[12,9],[36,0],[12,12],[43,23],[11,16],[35,25],[15,19],[15,31],[8,4],[9,16],[10,20],[7,35],[-1,4],[-2,3],[2,8],[1,8],[-1,15],[3,4],[0,5],[1,7],[1,8],[0,2],[12,5],[11,14],[4,14],[5,8],[9,17],[13,18],[5,14],[14,17],[4,9],[6,9],[5,6],[-1,5],[1,1],[1,1],[2,4],[2,1],[1,3],[1,3],[1,1],[1,2],[-1,4],[0,1],[1,2],[3,4],[2,8],[2,4],[1,4],[4,3],[2,4],[1,3],[2,6],[1,2],[5,3],[4,5],[3,3],[9,11],[5,10],[6,4]]],"type":"Topology"}
