{"type":"Topology","arcs":[[[2156,960],[-118,-3],[-40,-64]],[[1998,893],[-365,-1],[-15,-4]],[[1618,888],[-49,-17],[-60,37],[-24,44],[-34,21],[-39,51],[-43,25],[-31,108],[-37,25],[-48,70],[-42,21],[-23,81],[-47,65],[-20,45],[-31,29]],[[1090,1493],[-17,107]],[[1073,1600],[99,3],[83,18],[75,0],[55,-9],[81,-30],[59,-70],[72,-8],[96,7],[200,-33],[52,-32],[94,-41]],[[2039,1405],[29,-52],[-13,-32],[49,-136],[83,-45],[-11,-13],[11,-60],[31,-106],[-62,-1]],[[1053,2553],[4,294],[-16,90],[5,73],[-18,61],[-43,61],[-74,45],[-98,91],[-31,44],[-17,134],[-28,3],[-38,64],[35,51],[-6,230],[-10,169]],[[718,3963],[90,12],[48,-14],[66,-3],[36,-25],[71,-14],[85,12],[87,77],[66,21],[32,-8],[141,-5],[61,11],[135,-31]],[[1636,3996],[-9,-53],[13,-53],[-23,-55],[-4,-49],[29,-69],[78,-82],[-46,-268],[-31,-31],[-117,-7],[-28,-19],[-17,-74],[4,-91],[34,-47],[53,-22],[11,-19],[-24,-62],[-12,-90],[14,-47],[60,-37],[157,-36],[-23,-45]],[[1755,2740],[-6,-23],[24,-36],[14,-61],[2,-68],[-17,-49],[18,-25],[-73,-37],[-124,13],[-92,34],[-41,36],[-79,9],[-65,46],[-61,0],[-45,-17],[-90,-12],[-67,3]],[[2428,2736],[-441,4],[-232,0]],[[1636,3996],[3,50],[41,15],[68,1],[81,23],[30,32],[0,43],[-40,119],[-28,44],[-40,31],[-5,46],[59,74],[43,19]],[[1848,4493],[43,28],[83,11],[65,-5],[23,27],[69,0],[87,-47],[153,9],[52,36],[126,2],[81,-46],[51,-4],[132,12],[201,2],[82,8],[118,34],[190,36],[182,7],[215,17]],[[3801,4620],[6,-58],[-29,-53],[-21,-65],[3,-25],[-26,-42],[-125,54],[-53,-22],[-15,-41],[-65,-127],[39,-61],[88,-35],[-25,-67],[-52,-26],[-16,-53],[-7,-74],[-47,-32],[4,-24],[-61,-40],[-65,10],[-124,-36],[-38,-30],[-9,-44],[45,-53],[-58,-49],[-64,-4],[-13,-49],[-79,-95],[-44,-15],[-24,-70],[27,-67],[3,-76],[-43,-52],[-1,-40],[-35,-47],[-7,-44],[-86,-20],[-30,0],[-115,-22],[-50,-2],[-102,12],[-4,-53],[17,-27],[-38,-146],[9,-22],[-45,-36],[2,-16]],[[2424,502],[-36,17],[-33,34],[-47,27],[-43,4],[-19,20],[13,125],[-40,85],[-50,32],[-16,36],[3,78]],[[2039,1405],[2,34],[47,59],[31,17],[-7,58],[24,50],[275,-2]],[[2411,1621],[20,-108],[71,-53],[2,-67],[-61,-6],[1,-143],[15,-30],[19,-119],[-40,-28],[26,-61],[-40,-27],[-21,-66],[36,-24],[-9,-142],[60,-18],[1,-74],[-41,-25],[-25,-33],[22,-68],[-23,-27]],[[1073,1600],[-2,126],[8,14],[-10,70],[0,185],[-4,328],[-27,11],[23,83],[37,45],[-45,51],[0,40]],[[2428,2736],[20,-30],[-12,-58],[20,-29],[-4,-112],[10,-53],[-79,-135],[30,-104],[42,-38],[1,-24],[-31,-45],[4,-62],[-20,-45],[-22,-104],[-25,-26],[-1,-33],[58,-72],[5,-47],[-13,-98]],[[1565,697],[-27,-49],[-1,-43],[-32,-36],[9,-73],[-9,-56],[-37,-75],[6,-46],[30,-59],[41,-192]],[[1545,68],[-174,-24],[-258,-44],[-53,195],[60,23],[45,2],[102,20],[0,42],[-65,153],[-65,41],[13,17],[-115,82],[-3,51],[-35,27],[14,36],[39,15]],[[1050,704],[39,35],[87,44],[86,31],[31,-15],[76,-10],[60,-31],[52,-50],[40,-14],[44,3]],[[2111,350],[-42,7],[-102,-8],[-10,-40],[0,-200]],[[1957,109],[-102,-4],[-175,-18],[-135,-19]],[[1565,697],[-4,42],[42,50],[2,36],[33,29],[-20,34]],[[1998,893],[57,-68],[11,-105],[11,-235],[49,-15],[7,-29],[-22,-91]],[[1050,704],[-35,57],[11,20],[-7,49],[11,36],[-28,6],[-31,87],[104,-1],[3,253],[-1,195],[13,87]],[[2155,120],[-108,-18],[-90,7]],[[2111,350],[28,-43],[16,-187]],[[2424,502],[-29,-21],[18,-29],[-19,-27],[10,-99],[31,-188],[-136,-14],[-144,-4]],[[718,3963],[-251,126],[-68,29],[-399,228],[11,148],[19,26],[8,57],[-9,74],[12,46],[87,73],[11,61],[20,16],[-20,43],[41,98],[64,37],[6,34],[44,-1],[18,-35],[91,15],[-33,64],[53,46],[27,0],[26,50],[-38,20],[24,34],[54,-18],[54,2],[19,-13],[41,14],[12,32],[66,8],[-26,46],[82,60],[4,41],[98,18],[136,-24],[22,-49],[214,21],[123,27],[49,-15],[86,-11],[45,7]],[[1541,5398],[75,-105],[224,-324],[37,-37],[-35,-32],[6,-407]],[[1541,5398],[206,168],[33,9],[71,52],[58,24],[-9,59],[45,36],[40,18],[-9,25],[15,40],[29,17],[9,32],[-24,25],[20,23],[36,-1],[25,58],[-19,6],[-45,64],[-14,105],[-24,51],[15,19],[94,-2],[96,28],[54,-1],[15,21],[82,5],[42,-25],[32,67],[55,4],[38,41],[57,13],[134,-95],[20,-25],[60,-20],[19,-33],[57,-53],[61,-23],[1,-15],[59,-34],[120,-99],[18,-78],[35,-42],[51,-5],[30,10],[62,-35],[73,-4],[44,-41],[-2,-26],[52,-11],[-16,-37],[55,-38],[-54,-102],[-23,-141],[-47,-166],[57,-45],[191,-109],[30,-9],[-2,-99],[44,-21],[23,-89],[-31,-85],[26,-45],[17,-58],[69,-40],[4,-46]]],"transform":{"scale":[0.0008055361176779616,0.000997976845900611],"translate":[0.776667,6.039869600000001]},"objects":{"admin_level_4":{"type":"GeometryCollection","geometries":[{"arcs":[[0,1,2,3,4,5]],"type":"Polygon","properties":{"name":"Zou","name:fr":"Zou","name:ru":"Зу","name:uk":"Зу","boundary":"administrative","wikidata":"Q29172","ISO3166-2":"BJ-ZO","wikipedia":"fr:Zou","admin_level":"4","official_name":"département de Zou"},"id":2846873},{"arcs":[[6,7,8,9]],"type":"Polygon","properties":{"name":"Donga","name:fr":"Donga","name:ru":"Донга","name:uk":"Донга","boundary":"administrative","wikidata":"Q29161","ISO3166-2":"BJ-DO","wikipedia":"fr:Donga (Bénin)","admin_level":"4","official_name":"département de Donga"},"id":2845865},{"arcs":[[10,-9,11,12,13]],"type":"Polygon","properties":{"name":"Borgou","source":"maplibrary.org","name:fr":"Borgou","name:ru":"Боргу","name:uk":"Боргу","boundary":"administrative","wikidata":"Q29136","ISO3166-2":"BJ-BO","wikipedia":"fr:Borgou","admin_level":"4","official_name":"département du Borgou"},"id":2803880},{"arcs":[[14,-6,15,16]],"type":"Polygon","properties":{"name":"Plateau","name:fr":"Plateau","name:ru":"Плато","name:uk":"Плато","boundary":"administrative","wikidata":"Q32108","ISO3166-2":"BJ-PL","wikipedia":"fr:Plateau (département)","admin_level":"4","official_name":"département du Plateau"},"id":2846872},{"arcs":[[-16,-5,17,-10,-11,18]],"type":"Polygon","properties":{"name":"Collines","name:fr":"Collines","name:ru":"Коллинз","name:uk":"Коллін","boundary":"administrative","wikidata":"Q29141","ISO3166-2":"BJ-CO","wikipedia":"fr:Collines","admin_level":"4","official_name":"département des Collines"},"id":2845888},{"arcs":[[19,20,21]],"type":"Polygon","properties":{"name":"Mono","name:fr":"Mono","name:ru":"Моно","name:uk":"Моно","boundary":"administrative","wikidata":"Q29135","ISO3166-2":"BJ-MO","wikipedia":"fr:Mono (département)","admin_level":"4","official_name":"dèpartement de Mono"},"id":2848207},{"arcs":[[22,23,-20,24,-2,25]],"type":"Polygon","properties":{"name":"Atlantique","name:fr":"Atlantique","name:ru":"Атлантический","name:uk":"Атлантичний","boundary":"administrative","wikidata":"Q29147","ISO3166-2":"BJ-AQ","wikipedia":"fr:Atlantique (département)","admin_level":"4","official_name":"département d'Atlantique"},"id":2848205},{"arcs":[[-22,26,-3,-25]],"type":"Polygon","properties":{"name":"Kouffo","name:fr":"Couffo","name:ru":"Куффо","name:uk":"Куффо","boundary":"administrative","wikidata":"Q29173","ISO3166-2":"BJ-KO","wikipedia":"fr:Couffo","admin_level":"4"},"id":2846891},{"arcs":[[27,-23,28]],"type":"Polygon","properties":{"name":"Littoral","name:fr":"Littoral","name:ru":"Литораль","name:uk":"Літораль","boundary":"administrative","wikidata":"Q29158","ISO3166-2":"BJ-LI","wikipedia":"fr:Littoral (département)","admin_level":"4","official_name":"dèpartement de Littoral"},"id":2848206},{"arcs":[[-29,-26,-1,-15,29]],"type":"Polygon","properties":{"name":"Ouémé","name:fr":"Ouémé","name:ru":"Уэме","name:uk":"Веме","boundary":"administrative","wikidata":"Q29169","ISO3166-2":"BJ-OU","wikipedia":"fr:Ouémé","admin_level":"4","official_name":"département d'Ouémé"},"id":2848208},{"arcs":[[-12,-8,30,31]],"type":"Polygon","properties":{"name":"Atakora","name:fr":"Atacora","name:ru":"Атакора","name:uk":"Атакора","boundary":"administrative","wikidata":"Q29154","ISO3166-2":"BJ-AK","wikipedia":"fr:Atacora","admin_level":"4","official_name":"département de l'Atacora"},"id":2845850},{"arcs":[[-13,-32,32]],"type":"Polygon","properties":{"name":"Alibori","source":"maplibrary.org","name:fr":"Alibori","name:ru":"Алибори","name:uk":"Аліборі","boundary":"administrative","wikidata":"Q29165","ISO3166-2":"BJ-AL","wikipedia":"fr:Alibori","admin_level":"4","official_name":"département de l'Alibori"},"id":2803879}]}}}