{"type":"Topology","arcs":[[[2931,6981],[-2,-1],[0,3],[2,-1],[0,-1]],[[2780,4582],[-55,36],[-57,8],[-46,-13],[-85,7],[-52,60],[-1,25],[-54,3],[-53,32],[-34,0],[-46,37],[-18,40],[-39,-6],[-32,27],[-75,30],[-33,-23],[-87,16],[-28,48],[-45,18],[-27,37],[-38,2],[-16,68],[-44,46],[-11,81],[18,61],[-32,89],[29,62],[-22,118],[-49,-34],[-21,18],[-93,-8],[-94,-23]],[[1540,5444],[-39,19]],[[1501,5463],[64,41],[26,47],[85,3],[51,-34],[47,21],[14,36],[40,12],[22,-43],[47,51],[23,54],[46,-6],[56,19],[38,-4],[0,46],[46,38],[-5,55],[33,0],[35,82],[159,-1],[36,-27],[9,-32],[61,-39],[14,-45],[35,-44],[56,-12],[25,36],[33,-24]],[[2597,5693],[21,-24],[-27,-85],[28,-80],[-25,-120],[29,-59],[-15,-127],[225,-2],[97,-38],[15,-59],[-35,-33],[-1,-65],[23,-15],[21,-75],[24,-22],[-61,-61],[-3,-62],[-22,-19],[-40,-82],[-3,-29],[-51,-27],[-17,-27]],[[7016,6029],[-40,-38],[34,-75],[2,-33],[-50,-77],[-41,-22],[-50,-56],[-30,-14]],[[6841,5714],[-39,-58],[-37,-12],[-24,-50],[-101,-18],[-37,-41],[-69,-28],[-35,49],[-62,-5],[-40,37],[-79,-65],[14,-49],[28,-17],[-39,-104],[-40,-26],[-26,-53],[-42,20],[-121,-84],[-67,24],[-40,47],[3,55],[-38,60],[-25,-11]],[[5925,5385],[-47,-24]],[[5878,5361],[15,34],[20,144],[-23,33],[-22,92],[54,97],[54,178],[30,31],[136,42],[26,38],[55,25],[30,56],[42,29],[68,5],[32,-26],[100,17],[19,21],[13,95],[-46,47],[-2,101],[53,56],[7,37],[-32,93],[21,68],[-29,59],[67,97],[29,69],[69,13],[85,105],[-11,44],[34,45]],[[6772,7106],[38,-25],[35,2]],[[6845,7083],[18,-93],[-35,-64],[17,-70],[46,-81],[0,-67],[-23,-66],[-4,-56],[36,-51],[31,-18],[-2,-114],[48,-228],[50,-13],[10,-68],[-21,-65]],[[7739,6621],[-37,-27],[-81,-22],[-55,-130],[-37,-38],[-9,-48],[-38,-47],[-23,6],[-31,-67]],[[7428,6248],[-17,-99],[-23,-47],[46,-66],[-38,-76]],[[7396,5960],[-78,-47],[-137,115],[-81,-13],[-29,18],[-55,-4]],[[6845,7083],[142,9],[25,14],[77,-5],[76,-20],[93,-61],[46,-20],[125,-100],[51,-21],[75,-100],[61,-46],[32,-44],[54,-17],[37,-51]],[[3161,7751],[-240,0],[-35,-67],[-41,-110],[20,-42],[-48,-38],[-42,4],[-15,35],[-68,45],[-69,-35],[-26,-65],[8,-29],[-16,-74],[-58,-1],[-25,58],[-77,70],[14,65],[27,49],[-47,92],[-7,69],[-18,30],[16,63],[-3,68],[-32,72],[-38,42],[21,79],[-67,18],[-25,36],[-50,9]],[[2220,8194],[-12,50],[-104,5],[-26,11],[15,48],[-51,95],[-3,68],[15,28],[-23,35],[-41,19],[-52,73],[94,6],[34,-12],[16,-35],[71,2],[39,-22],[25,30],[40,-6],[0,-32],[46,-46],[53,44],[6,52],[66,33],[50,-23],[124,40],[20,42],[41,23],[64,1],[14,39],[31,9],[35,46],[-21,62],[52,-11],[47,23],[48,-46],[-9,-85],[-29,-43],[75,-12],[27,-27],[17,-125],[-36,-38],[-45,-158],[-2,-56],[26,-76],[31,-26],[-8,-76],[106,-116],[70,-17],[5,-20]],[[3161,7970],[0,-219]],[[7716,5065],[-32,27],[-73,-27],[-59,40],[-29,86],[-25,21],[9,48],[42,-12],[36,15],[-5,71],[21,10],[-19,76],[-27,7],[-15,45],[5,58]],[[7545,5530],[215,-105],[14,-35],[59,-27],[73,-92]],[[7906,5271],[-87,-46],[-80,-114],[-23,-46]],[[5843,4758],[-52,-17],[-81,5],[-55,-39],[-85,-29],[-31,20],[-24,-65],[-31,35],[-73,37],[-60,-29],[-86,108],[-22,-35],[-36,31],[-44,-64],[-3,-39],[-111,67],[-60,19],[-53,53],[-16,-45]],[[4920,4771],[-41,57],[18,38],[-13,51],[5,125],[-17,45],[28,90],[-5,32],[51,183],[38,65]],[[4984,5457],[34,120],[43,64],[52,43],[65,104],[23,82],[3,51],[-38,31],[-8,37],[41,59],[-5,71],[40,32],[77,32],[8,43],[37,59],[31,23],[3,83],[28,28],[-51,47],[-45,-6],[-33,16]],[[5289,6476],[49,36],[35,5],[37,-20],[64,-3],[67,-44],[15,-23],[12,-135],[10,-24],[-25,-89],[-2,-56],[-29,-54],[33,-38],[13,-50],[37,-63],[62,-45],[75,24],[22,-19],[-11,-76],[-49,-11],[-25,-47],[-1,-54],[-32,-53],[49,-37],[13,-39],[39,-22],[-13,-61],[26,-12],[14,-63],[24,-24],[64,0],[16,-18]],[[5925,5385],[6,-24],[-31,-51],[-71,-35],[-21,-60],[-40,-65],[-30,-25],[20,-41],[62,-20],[-26,-42],[-10,-65],[28,-116],[-8,-90],[39,7]],[[7545,5530],[-49,43]],[[7496,5573],[53,39],[48,70],[21,-33],[50,-3],[39,-45],[131,-31],[72,40],[29,48],[45,21],[34,-13],[49,23],[116,-39]],[[8183,5650],[-55,-98],[-70,-89],[-29,-20],[-56,-94],[-67,-78]],[[9511,3038],[-41,-47],[-51,29],[-42,-35],[-51,22],[-6,45],[44,32],[50,-31],[48,34],[49,-49]],[[6985,2814],[-88,59],[-17,-6],[-112,26],[-7,71],[-28,11]],[[6733,2975],[12,26],[12,101],[73,0],[23,62],[24,10],[4,50],[47,48],[4,58],[-31,41],[-8,42],[18,87],[-31,3],[25,63],[73,32],[40,30],[61,-20]],[[7079,3608],[112,-76],[46,-12]],[[7237,3520],[-15,-114],[11,-121],[-30,-77],[-39,-24],[-22,-41],[-53,-165],[-104,-164]],[[5289,6476],[197,167],[43,13],[50,71],[6,33],[54,54],[11,69],[75,106],[12,101],[40,25],[-1,55],[32,32],[26,107],[-4,47],[49,163]],[[5879,7519],[245,-81],[317,-234],[101,-42],[201,-40],[29,-16]],[[5592,4046],[-203,0],[-2,47],[18,78],[165,0],[20,-22],[-12,-65],[14,-34]],[[5592,4050],[0,-4]],[[5859,4313],[-52,-12],[-8,26],[-46,14],[9,-68],[-69,10],[-20,-56],[18,-15],[-23,-54],[20,-13],[6,-61],[-66,-10],[-36,-24]],[[5592,4046],[-2,-41],[-29,-62],[44,-36],[22,-74],[-76,-80],[10,-44],[41,-17],[-21,-47],[17,-54],[-68,-43],[-18,-30],[-57,-27],[-66,37],[-42,-11],[-96,17],[-53,-26],[-43,-51],[-33,23],[-51,-23],[-49,10],[-60,-20],[-38,-78],[-67,-57],[-25,-42]],[[4832,3270],[-26,31],[-125,45],[-167,101],[-63,-1],[-45,35],[30,52],[-59,0],[6,63]],[[4383,3596],[-35,73],[4,92],[35,77],[55,52],[38,63],[-17,21],[30,46],[46,22],[29,43],[65,12],[26,43],[22,105],[25,25],[53,6],[37,26],[30,90],[-8,25],[35,79],[-8,77],[55,96],[20,102]],[[5843,4758],[-34,-23],[-1,-75],[14,-12],[-11,-124],[10,-39],[66,-54],[-20,-17],[-8,-101]],[[4223,1521],[72,-2],[26,20],[36,-23],[150,-10],[93,-25],[34,-30],[78,-17],[121,-94],[14,-39],[52,-58],[183,-23],[-46,-63],[10,-99],[80,-49]],[[5126,1009],[-44,-65],[-91,-211],[-90,-136],[-104,-106],[-118,-79],[-100,-104],[-33,-105],[-61,-96],[-125,-107],[-74,41],[3,121],[93,94],[-101,61],[-39,90],[-71,33],[-79,63],[-27,45],[-52,3],[-87,54],[-69,83],[-74,-56],[-19,68],[-76,66],[-58,68],[-40,24],[-55,-5],[-19,-39],[-41,-5],[-35,22],[181,193],[23,53],[150,149],[24,52],[67,33],[52,54],[55,20],[6,30],[145,57],[54,52],[26,-3]],[[4223,1521],[32,58],[-13,61],[22,90]],[[4264,1730],[55,2],[60,-34],[86,9],[143,-49],[160,-14],[-1,69],[115,33],[21,34],[46,-11],[80,15],[78,-46],[25,-1],[70,50],[110,10],[88,-40]],[[5400,1757],[-11,-22],[-15,-119],[50,-120],[-21,-131],[-41,-130],[-59,-75],[-99,-61],[-78,-90]],[[3320,6022],[-14,-63],[-36,-63],[19,-37],[-45,-167],[-403,2],[-244,-1]],[[1501,5463],[-109,50],[-40,7],[-237,116],[-296,274],[-217,27],[-314,39],[-254,100]],[[34,6076],[18,62],[40,37],[67,24],[19,28],[-29,71],[20,61],[41,48],[15,111],[190,122],[15,26],[56,3],[89,27],[59,0],[40,50],[96,-1],[34,-27],[39,-1],[69,420],[34,206],[11,95],[-47,87],[3,52],[-91,71],[0,171],[50,2],[67,37],[28,-26],[42,33],[-10,52],[-38,21],[-68,7],[-29,-10],[0,146],[64,14],[30,-11],[253,0],[19,39],[41,-20],[36,49],[38,4],[83,-49],[14,-83],[0,-68],[49,14],[114,-110],[35,1],[84,57],[39,-2],[24,-68],[25,56],[36,39],[83,27],[76,68],[42,-1],[25,28],[3,63],[47,10],[96,56]],[[3161,7751],[5,-138],[31,-22],[4,-53],[57,-49],[2,-34],[91,-71],[134,-87],[54,-10],[13,-31],[55,-22],[18,-45],[60,7],[-1,-63],[-102,-236],[-85,-202],[-119,-276],[-84,-196],[-46,-68],[48,-72],[24,-61]],[[1540,5444],[-82,-81],[-86,-31],[-65,-74],[-29,17],[-50,-17],[-27,-56],[-101,-42],[-28,35],[-119,15],[-68,-9],[-34,10],[-85,-34],[-47,31],[-19,-15],[0,209],[8,145],[-87,-85],[-58,-37],[-190,-5],[6,46],[-27,58],[-92,30],[-101,0],[50,61],[3,26],[-46,75],[-37,22],[-42,58],[-28,111],[-59,66],[7,46],[42,5],[-15,52]],[[4383,3596],[-147,8],[-38,26],[16,35],[36,15],[5,93],[-16,3],[-71,-84],[-43,-11],[-42,41],[-41,-6],[-34,-27],[-77,2],[-58,29],[-33,32],[-74,26],[-137,-24],[-92,-99],[-87,-20],[-48,71]],[[3402,3706],[-49,9],[-57,36],[-30,39],[-16,108],[27,42],[-18,45],[-219,9],[-147,3],[-14,180],[-71,86],[70,0],[-6,108],[-38,70],[11,71],[-25,52],[-40,18]],[[3320,6022],[50,-73],[14,-68],[41,-55],[-11,-44],[19,-80],[83,-37],[37,-68],[44,-6],[31,-27],[168,-14],[264,-24],[310,-25],[345,-26],[269,-18]],[[3161,7970],[84,9],[37,68],[66,-11],[5,32],[58,16],[32,-8],[43,65],[48,7],[25,-24],[47,-8],[71,18],[92,-27],[20,13],[-29,77],[22,70],[40,-28],[156,41],[28,-35]],[[4006,8245],[20,-54],[-8,-36],[16,-59],[75,-2],[107,-83],[64,-13],[33,-98],[62,-54],[-16,-70],[38,-66],[14,-52],[53,-38],[10,-64],[49,-64],[15,-54],[58,-14],[52,4],[23,22],[2,54],[99,160],[60,43],[38,13],[41,41],[25,66],[72,24],[168,146]],[[5176,7997],[353,-385],[76,-12],[274,-81]],[[7079,3608],[11,29],[-37,53],[-52,52],[5,75],[137,181],[13,34],[-78,71],[-70,0],[-30,31],[-54,4],[-36,-27],[-41,5],[-5,56],[-94,90],[-62,-18],[-73,28],[-106,79],[-47,13],[-63,-32],[-80,27],[13,77],[-93,22],[-88,-36],[-41,-39],[-74,-40],[-99,-76],[-62,-17],[-14,63]],[[6841,5714],[48,1],[44,-30],[21,-56],[32,-18],[-16,-48],[27,-24],[58,29],[11,52],[72,20],[13,48],[43,8],[14,30],[48,29],[34,-37],[56,-25],[33,4],[83,-60],[34,-64]],[[7716,5065],[-50,-108],[-85,-144],[-82,-96],[-81,-38],[-51,-306],[23,-225],[20,-64],[-32,-83],[-27,-121],[91,-256],[-9,-42],[-28,-17],[-130,7],[-38,-52]],[[4006,8245],[38,3],[48,-55],[75,-22],[75,59],[60,-26],[30,20],[74,-39],[63,45],[39,93],[106,210],[66,79],[4,103],[30,38],[80,-57],[36,-51],[20,-77],[-2,-92],[15,-102],[104,-160],[105,-103],[104,-114]],[[9404,7901],[-22,-41],[-53,11],[3,61],[41,12],[31,-43]],[[8755,6833],[-21,-54],[-38,-1],[-25,30],[7,40],[33,19],[44,-34]],[[7396,5960],[22,-26],[59,10],[7,-29],[54,17],[169,107],[43,-25],[-36,-57],[13,-25],[-36,-43],[33,-17],[-2,-36],[42,-30],[70,43],[0,29],[49,40],[109,13],[74,25],[6,36],[51,24],[38,-5],[27,-30],[64,-11]],[[8252,5970],[-3,-104],[-35,-133],[-31,-83]],[[6185,2313],[-85,104],[31,63],[94,27],[28,34],[-48,24],[-54,-7],[-34,45]],[[6117,2603],[79,35],[42,-2],[96,44],[66,-1],[23,16],[58,-21],[40,30],[129,56],[-21,22],[29,57],[14,60],[61,76]],[[6985,2814],[-30,-45],[10,-46],[-18,-61],[-137,-86],[-19,-71],[-55,-72],[-28,-12],[-253,-13],[-184,-32],[-86,-63]],[[6185,2313],[-136,-99],[-183,-80],[-119,-41],[-271,-189]],[[5476,1904],[-50,39],[-24,54],[-41,21],[-41,71],[-148,1],[16,65],[-58,103],[-23,91],[7,25],[-29,70],[-68,47],[-96,-10],[-60,9],[-20,25],[-88,27],[-52,-5],[-120,40],[-21,-33],[-74,23],[-30,-14],[-52,13],[-28,-12]],[[4376,2554],[10,20],[120,73],[91,123],[39,72],[-3,49],[55,47],[-2,47],[58,82],[62,29],[12,33]],[[4818,3129],[112,70],[27,-20],[94,-17],[71,9],[41,-18],[27,-73],[51,30],[140,14],[49,-8],[47,35],[47,-13],[35,20],[50,-58],[-13,-52],[41,-45],[-30,-55],[53,-123],[44,15],[54,-19],[0,-38],[-31,-53],[11,-69],[-21,-38],[54,-46],[26,-54],[-10,-26],[78,-4],[126,54],[59,36],[67,20]],[[4818,3129],[-10,80],[24,61]],[[7428,6248],[64,-29],[83,25],[25,42],[59,10],[43,26],[20,-30],[-45,-42],[-23,-83],[36,5],[25,-31],[40,27],[35,-5],[49,-46],[22,130],[46,12],[6,-30],[51,-10],[129,-3],[52,-13],[79,17]],[[8224,6220],[35,-144],[-7,-106]],[[8466,6817],[-42,-46],[-30,14],[-9,51],[23,23],[43,-7],[15,-35]],[[7739,6621],[34,0],[50,-29],[103,-10],[53,12],[78,-17],[76,-41],[34,-96],[57,-220]],[[4264,1730],[-43,72],[-4,62],[-63,27],[-82,-10],[-13,31],[25,31],[34,181],[16,36],[-5,64]],[[4129,2224],[38,28],[25,113],[44,19],[35,95],[105,75]],[[5476,1904],[-76,-147]],[[4129,2224],[-33,39],[-48,20],[-83,-40],[-57,0],[-41,83],[-5,70],[-23,106],[8,51],[-48,79],[-75,1],[-43,44],[-46,-40],[-140,7],[-81,31],[-62,6],[19,81],[-15,42],[24,46],[7,77],[-41,85],[4,36],[-31,40],[10,36],[50,32],[-58,48],[73,165],[48,180],[-49,148],[9,9]]],"transform":{"scale":[0.004765315802754706,0.004403594972444046],"translate":[-73.9584042,-33.868905600000005]},"objects":{"admin_level_4":{"type":"GeometryCollection","geometries":[{"arcs":[[0]],"type":"Polygon","properties":{"name":"Raiz","source":"Lei Municipal 1401 de 2010","boundary":"administrative","admin_level":"4"},"id":170046518},{"arcs":[[1,2,3,4]],"type":"Polygon","properties":{"ref":"RO","flag":"https://upload.wikimedia.org/wikipedia/commons/f/fa/Bandeira_de_Rond%C3%B4nia.svg","name":"Rondônia","place":"state","source":"IBGE","name:ar":"روندونيا","name:be":"Рандонія","name:bg":"Рондония","name:de":"Rondônia","name:en":"Rondônia","name:eo":"Rondonio","name:es":"Rondonia","name:fa":"روندونیا","name:gl":"Rondonia","name:he":"רונדוניה","name:hi":"रोन्डोनिया","name:hy":"Ռոնդոնիա","name:io":"Rondonia","name:ja":"ロンドニア","name:ka":"რონდონია","name:ko":"혼도니아","name:la":"Rondonia","name:lt":"Rondonija","name:lv":"Rondonija","name:mk":"Рондонија","name:mr":"रोन्द्योनिया","name:os":"Рондони","name:pl":"Rondônia","name:pt":"Rondônia","name:ru":"Рондония","name:sh":"Rondonija","name:sr":"Рондонија","name:tg":"Рондония","name:th":"รอนโดเนีย","name:uk":"Рондонія","name:uz":"Pondoniya","name:zh":"朗多尼亚","website":"http://www.rondonia.ro.gov.br/","boundary":"administrative","timezone":"America/Porto_Velho","wikidata":"Q43235","ISO3166-2":"BR-RO","wikipedia":"pt:Rondônia","short_name":"RO","admin_level":"4","is_in:country":"Brazil","IBGE:GEOCODIGO":"11"},"id":325866},{"arcs":[[5,6,7,8,9,10]],"type":"Polygon","properties":{"ref":"PI","flag":"https://upload.wikimedia.org/wikipedia/commons/3/33/Bandeira_do_Piau%C3%AD.svg","name":"Piauí","place":"state","source":"IBGE","name:ar":"بياوي","name:be":"Піяўі","name:bg":"Пиауи","name:de":"Piauí","name:en":"Piauí","name:eo":"Piaŭio","name:fa":"پیاوی","name:gn":"Piaui","name:he":"פיאאוי","name:hi":"पियाउई","name:hy":"Պիաուի","name:ja":"ピアウイー","name:ka":"პიაუი","name:ko":"피아우이","name:la":"Piauhy","name:lt":"Piaujis","name:lv":"Pjaui","name:mk":"Пјауѝ","name:mr":"पिआवी","name:os":"Пиауи","name:pl":"Piauí","name:pt":"Piauí","name:ru":"Пиауи","name:sh":"Pjaui","name:sr":"Пјауи","name:tg":"Пиауи","name:th":"ปีเอาอี","name:uk":"Піауї","name:uz":"Piaui","name:zh":"皮奧伊","website":"http://www.pi.gov.br/","boundary":"administrative","timezone":"America/Fortaleza","wikidata":"Q42722","ISO3166-2":"BR-PI","wikipedia":"pt:Piauí","short_name":"PI","state_code":"PI","admin_level":"4","is_in:country":"Brazil","IBGE:GEOCODIGO":"22","is_in:country_code":"BR"},"id":302819},{"arcs":[[11,12,13,-11,14]],"type":"Polygon","properties":{"ref":"CE","flag":"https://upload.wikimedia.org/wikipedia/commons/2/2e/Bandeira_do_Cear%C3%A1.svg","name":"Ceará","place":"state","source":"IBGE","name:ar":"سيارا","name:be":"Сеара","name:bg":"Сеара","name:de":"Ceará","name:en":"Ceará","name:eo":"Cearao","name:fa":"سئارا","name:gn":"Ceara","name:he":"סיארה","name:hi":"सियारा","name:hy":"Սեարա","name:ja":"セアラー","name:ka":"სეარა","name:ko":"세아라","name:la":"Ceara","name:lt":"Seara","name:lv":"Seara","name:mk":"Сеара","name:mr":"सियारा","name:os":"Сеара","name:pl":"Ceará","name:pt":"Ceará","name:ru":"Сеара","name:sh":"Seara","name:sr":"Сеара","name:tg":"Сеара","name:th":"เซอารา","name:uk":"Сеара","name:uz":"Seera","name:zh":"塞阿腊","website":"http://www.ceara.gov.br/","boundary":"administrative","timezone":"America/Fortaleza","wikidata":"Q40123","ISO3166-2":"BR-CE","wikipedia":"pt:Ceará","short_name":"CE","admin_level":"4","is_in:country":"Brazil","IBGE:GEOCODIGO":"23"},"id":302635},{"arcs":[[15,16,17]],"type":"Polygon","properties":{"ref":"RR","flag":"https://upload.wikimedia.org/wikipedia/commons/9/98/Bandeira_de_Roraima.svg","name":"Roraima","place":"state","source":"IBGE","name:ar":"رورايما","name:be":"Рарайма","name:bg":"Рорайма","name:de":"Roraima","name:en":"Roraima","name:eo":"Rorajmo","name:fa":"رورایما","name:he":"רוריימה","name:hi":"रोरैमा","name:hy":"Ռորայմա","name:ja":"ロライマ","name:ka":"რორაიმა","name:ko":"호라이마","name:mk":"Рораима","name:mr":"रोराईमा","name:os":"Рораймæ","name:pl":"Roraima","name:pt":"Roraima","name:ru":"Рорайма","name:sh":"Rorajma","name:sr":"Рораима","name:tg":"Рорайма","name:th":"รอไรมา","name:uk":"Рорайма","name:uz":"Rorayma","name:zh":"羅賴馬","website":"http://www.rr.gov.br/","boundary":"administrative","timezone":"America/Boa_Vista","wikidata":"Q42508","ISO3166-2":"BR-RR","wikipedia":"pt:Roraima","short_name":"RR","admin_level":"4","is_in:country":"Brazil","IBGE:GEOCODIGO":"14"},"id":326287},{"arcs":[[18,19,20]],"type":"Polygon","properties":{"ref":"SE","flag":"https://upload.wikimedia.org/wikipedia/commons/b/be/Bandeira_de_Sergipe.svg","name":"Sergipe","place":"state","source":"IBGE","name:ar":"سيرجيبي","name:be":"Сержыпі","name:bg":"Сержипи","name:de":"Sergipe","name:en":"Sergipe","name:eo":"Serĝipo","name:fa":"سرژیپه","name:he":"סרז'יפה","name:hi":"सर्जिपे","name:hy":"Սերժիպի","name:ja":"セルジッペ","name:ka":"სერჟიპი","name:ko":"세르지피","name:la":"Seregipe","name:lt":"Seržipė","name:lv":"Seržipi","name:mk":"Сергипе","name:mr":"सर्जिपे","name:os":"Сержипи","name:pl":"Sergipe","name:pt":"Sergipe","name:ru":"Сержипи","name:sh":"Seržipi","name:sr":"Сержипе","name:tg":"Сержипи","name:th":"เซร์ชิเป","name:uk":"Сержипі","name:uz":"Serjipi","name:zh":"塞尔希培","website":"http://www.se.gov.br/","boundary":"administrative","timezone":"America/Maceio","wikidata":"Q43783","ISO3166-2":"BR-SE","wikipedia":"pt:Sergipe","short_name":"SE","admin_level":"4","is_in:country":"Brazil","IBGE:GEOCODIGO":"28"},"id":303940},{"arcs":[[21,22,23,24,-8,25]],"type":"Polygon","properties":{"ref":"TO","flag":"https://upload.wikimedia.org/wikipedia/commons/f/ff/Bandeira_do_Tocantins.svg","name":"Tocantins","place":"state","source":"IBGE","name:ar":"توكانتينس","name:be":"Такантынс","name:bg":"Токантинс","name:de":"Tocantins","name:en":"Tocantins","name:eo":"Tokantinso","name:fa":"توکانتینس","name:gn":"Tukãtĩ","name:he":"טוקנטינס","name:hi":"टोकाचिस","name:hy":"Տոկանտինս","name:ja":"トカンティンス","name:ka":"ტოკანტინსი","name:ko":"토칸칭스","name:lt":"Tokantinsas","name:lv":"Tokantinsa","name:mk":"Токантинс","name:mr":"तोकांतिन्स","name:os":"Токантинс","name:pl":"Tocantins","name:pt":"Tocantins","name:ru":"Токантинс","name:sh":"Tokantins","name:sr":"Токантинс","name:tg":"Токантинс","name:th":"โตกันตินส์","name:uk":"Токантінс","name:uz":"Tokantins","name:zh":"托坎廷斯","website":"http://www.to.gov.br/","boundary":"administrative","timezone":"America/Araguaina","wikidata":"Q43695","ISO3166-2":"BR-TO","wikipedia":"pt:Tocantins","short_name":"TO","admin_level":"4","is_in:country":"Brazil","IBGE:GEOCODIGO":"17"},"id":336819},{"arcs":[[-20,26,27,28]],"type":"Polygon","properties":{"ref":"AL","flag":"https://upload.wikimedia.org/wikipedia/commons/8/88/Bandeira_de_Alagoas.svg","name":"Alagoas","place":"state","source":"IBGE","name:ar":"ألاغواس","name:be":"Алагоас","name:bg":"Алагоас","name:de":"Alagoas","name:en":"Alagoas","name:eo":"Alagoaso","name:fa":"آلاگواس","name:he":"אלגואס","name:hi":"अलागोआस","name:hy":"Ալագոաս","name:ja":"アラゴアス","name:ka":"ალაგოასი","name:ko":"알라고아스","name:la":"Alacunae","name:lt":"Alagoasas","name:lv":"Alagoasa","name:mk":"Алагојас","name:mr":"आलागोआस","name:os":"Алагоас","name:pl":"Alagoas","name:pt":"Alagoas","name:ru":"Алагоас","name:sr":"Алагоас","name:tg":"Алагоас","name:th":"อาลาโกอัส","name:uk":"Алагоас","name:zh":"阿拉戈斯","website":"http://www.agenciaalagoas.al.gov.br/","boundary":"administrative","timezone":"America/Maceio","wikidata":"Q40885","ISO3166-2":"BR-AL","wikipedia":"pt:Alagoas","short_name":"AL","admin_level":"4","is_in:country":"Brazil","IBGE:GEOCODIGO":"27"},"id":303781},{"arcs":[[[29]],[[30,31,32,33]]],"type":"MultiPolygon","properties":{"ref":"ES","flag":"https://upload.wikimedia.org/wikipedia/commons/4/43/Bandeira_do_Esp%C3%ADrito_Santo.svg","name":"Espírito Santo","place":"state","source":"IBGE","name:ar":"إسبيريتو سانتو","name:be":"Эспірыту-Санту","name:bg":"Еспирито Санто","name:de":"Espírito Santo","name:en":"Espírito Santo","name:eo":"Espirito-Santo","name:fa":"اسپیریتو سانتو","name:he":"אספיריטו סאנטו","name:hi":"एस्पिरितो सान्तो","name:hy":"Էսպիրիտու Սանտու","name:ja":"エスピリト サント","name:ka":"ესპირიტუ-სანტუ","name:ko":"이스피리투산투","name:ku":"Espirito Santo","name:la":"Spiritus Sanctus","name:lv":"Espiritu Santu","name:mk":"Еспирито Санто","name:mr":"एस्पिरितो सांतो","name:os":"Эспириту-Санту","name:pl":"Espírito Santo","name:pt":"Espírito Santo","name:qu":"Ch'uya Ispiritu","name:ru":"Эспириту-Санту","name:sh":"Espiritu Santu","name:sr":"Еспирито Санто","name:tg":"Эспириту Санту","name:th":"เอสปีรีตูซานตู","name:uk":"Еспіріту-Санту","name:uz":"Espiritu-Santu","name:zh":"圣埃斯皮里图","website":"http://www.es.gov.br/","boundary":"administrative","timezone":"America/Sao_Paulo","wikidata":"Q43233","ISO3166-2":"BR-ES","wikipedia":"pt:Espírito Santo (estado)","short_name":"ES","admin_level":"4","is_in:country":"Brazil","IBGE:GEOCODIGO":"32"},"id":54882},{"arcs":[[-9,-25,34,35]],"type":"Polygon","properties":{"ref":"MA","flag":"https://upload.wikimedia.org/wikipedia/commons/4/45/Bandeira_do_Maranh%C3%A3o.svg","name":"Maranhão","place":"state","source":"IBGE","name:ar":"مارانهاو","name:be":"Мараньян","name:bg":"Мараняо","name:de":"Maranhão","name:en":"Maranhão","name:eo":"Maranjo","name:fa":"مارانیائو","name:gl":"Marañón","name:he":"מרניאו","name:hi":"मरान्हाओ","name:hy":"Մարանյան","name:ja":"マラニョン","name:ka":"მარანიანი","name:kk":"Мараньян","name:ko":"마라냥","name:la":"Maragnanum","name:lt":"Maranjanas","name:lv":"Maraņauna","name:mk":"Марањао","name:mr":"मरान्याव","name:os":"Мараньян","name:pl":"Maranhão","name:pt":"Maranhão","name:ru":"Мараньян","name:sh":"Maranjao","name:sr":"Марањаоps a","name:tg":"Маранян","name:th":"มารันเยา","name:uk":"Мараньян","name:uz":"Maranyan","name:zh":"马拉尼昂","website":"http://www.ma.gov.br/","boundary":"administrative","timezone":"America/Fortaleza","wikidata":"Q42362","ISO3166-2":"BR-MA","wikipedia":"pt:Maranhão","short_name":"MA","admin_level":"4","is_in:country":"Brazil","IBGE:GEOCODIGO":"21"},"id":332924},{"arcs":[[36,37]],"type":"Polygon","properties":{"ref":"DF","flag":"https://upload.wikimedia.org/wikipedia/commons/3/3c/Bandeira_do_Distrito_Federal_%28Brasil%29.svg","name":"Distrito Federal","note":"O censo e muitas pessoas chamam o DF de Brasília.","source":"IBGE","name:ar":"القطاع الفدرالي","name:be":"Федэральная акруга","name:bg":"Федерален окръг","name:br":"Distrig kevreadel","name:ca":"Districte Federal","name:cz":"Federální distrikt","name:de":"Bundesdistrikt","name:en":"Federal District","name:eo":"Federacia Distrikto","name:es":"Distrito Federal","name:et":"Liiduringkond","name:eu":"Barruti Federala","name:fa":"منطقه فدرال","name:fr":"District fédéral","name:he":"המחוז הפדרלי","name:hr":"Federalni distrikt","name:hy":"Դաշնային շրջան","name:ia":"Districto Federal","name:id":"Distrik Federal","name:it":"Distretto Federale","name:ja":"連邦直轄区","name:ka":"ფედერალური ოლქი","name:ko":"연방구","name:kw":"Ranndir an Kesunyans","name:la":"Pagus Foederalis","name:lt":"Federalinė teritorija","name:lv":"Federālais distrikts","name:mk":"Федерален округ","name:mr":"शासकीय जिल्हा","name:ms":"Wilayah Persekutuan","name:nl":"Federaal District","name:oc":"Districte federal","name:os":"Федералон зылд","name:pl":"Dystrykt Federalny","name:pt":"Distrito Federal","name:qu":"Tantasqap","name:ro":"Districtul Federal","name:ru":"Федеральный округ","name:sh":"Federalni distrikt","name:sq":"Distrikti Federal","name:sr":"Савезни дистрикт","name:sv":"Federala distrikt","name:tg":"Савезни дистрикт","name:th":"เฟเดอรัลดิสตริกต์","name:tr":"Federal Bölge","name:uk":"Федеральний округ","name:uz":"Federal okrugi","name:vi":"Quận liên bang","name:zh":"聯邦區","website":"http://www.df.gov.br/","alt_name":"Brasília","boundary":"administrative","timezone":"America/Sao_Paulo","wikidata":"Q119158","ISO3166-2":"BR-DF","wikipedia":"pt:Distrito Federal (Brasil)","short_name":"DF","admin_level":"4","is_in:country":"Brazil","IBGE:GEOCODIGO":"53"},"id":421151},{"arcs":[[38,-37,39,40,41,-22,42]],"type":"Polygon","properties":{"ref":"GO","flag":"https://upload.wikimedia.org/wikipedia/commons/0/0e/Bandeira_de_Goi%C3%A1s.svg","name":"Goiás","place":"state","source":"IBGE","name:ar":"غوياس","name:be":"Гаяс","name:bg":"Гояс","name:de":"Goiás","name:en":"Goiás","name:eo":"Gojaso","name:fa":"گوییاس","name:he":"גויאס","name:hi":"गोइयास","name:hy":"Գոյաս","name:ja":"ゴイアス","name:ka":"გოიასი","name:ko":"고이아스","name:la":"Goyas","name:lt":"Gojasas","name:lv":"Gojasa","name:mk":"Гојаш","name:mr":"गोयाएस","name:os":"Гояс","name:pl":"Goiás","name:pt":"Goiás","name:ru":"Гояс","name:sh":"Gojas","name:sr":"Гојас","name:tg":"Гояс","name:th":"โกยาส","name:uk":"Гояс","name:uz":"Goyas","name:zh":"戈亚斯","website":"http://www.goias.gov.br/","boundary":"administrative","timezone":"America/Sao_Paulo","wikidata":"Q41587","ISO3166-2":"BR-GO","wikipedia":"pt:Goiás","short_name":"GO","admin_level":"4","is_in:country":"Brazil","IBGE:GEOCODIGO":"52"},"id":334443},{"arcs":[[43,44]],"type":"Polygon","properties":{"ref":"RS","flag":"https://upload.wikimedia.org/wikipedia/commons/6/63/Bandeira_do_Rio_Grande_do_Sul.svg","name":"Rio Grande do Sul","place":"state","name:ar":"ريو غراندي دو سول","name:be":"Рыу-Гранды-ду-Сул","name:bg":"Рио Гранди до Сул","name:de":"Rio Grande do Sul","name:en":"Rio Grande do Sul","name:eo":"Suda Rio-Grando","name:es":"Río Grande del Sur","name:eu":"Hegoaldeko Rio Grande","name:fa":"ریو گرانده جنوبی","name:gl":"Río Grande do Sur","name:he":"ריו גראנדה דו סול","name:hi":"रियो ग्रांडे दो सुल","name:hy":"Ռիու Գրանդի դու Սուլ","name:ja":"リオグランデ・ド・スル","name:ka":"რიუ-გრანდი-დუ-სული","name:kk":"Риу-Гранди-ду-Сул","name:ko":"히우그란지두술","name:la":"Flumen Magnum Meridionale","name:lt":"Pietų Rio Grandė","name:lv":"Riugrandi du Sula","name:mk":"Јужна Рио Гранде","name:mr":"रियो ग्रांदे दो सुल","name:os":"Риу-Гранди-ду-Сул","name:pl":"Rio Grande do Sul","name:pt":"Rio Grande do Sul","name:qu":"Urin Hatunmayu suyu","name:ru":"Риу-Гранди-ду-Сул","name:sh":"Rio Grandi du Sul","name:sr":"Рио Гранде до Сул","name:tg":"Риу Гранди ду Сул","name:th":"รีโอกรันดีโดซูล","name:uk":"Ріу-Гранді-ду-Сул","name:uz":"Riu-Grandi-du-Sul","name:zh":"南里奥格兰德","website":"http://www.rs.gov.br/","boundary":"administrative","timezone":"America/Sao_Paulo","wikidata":"Q40030","ISO3166-2":"BR-RS","wikipedia":"pt:Rio Grande do Sul","short_name":"RS","admin_level":"4","source:name":"IBGE","is_in:country":"Brazil","IBGE:GEOCODIGO":"43"},"id":242620},{"arcs":[[-44,45,46,47]],"type":"Polygon","properties":{"ref":"SC","flag":"https://upload.wikimedia.org/wikipedia/commons/1/1a/Bandeira_de_Santa_Catarina.svg","name":"Santa Catarina","place":"state","source":"IBGE","name:ar":"سانتا كاتارينا","name:be":"Санта-Катарына","name:bg":"Санта Катарина","name:de":"Santa Catarina","name:en":"Santa Catarina","name:eo":"Sankta Katarino","name:fa":"سانتا کاتارینا","name:he":"סנטה קטרינה","name:hi":"सांता कातारीना","name:hy":"Սանտա Կատարինա","name:ja":"サンタ カタリーナ","name:ka":"სანტა-კატარინა","name:ko":"산타카타리나","name:la":"Sancta Catharina","name:lt":"Santa Katarina","name:lv":"Santakatarina","name:mk":"Санта Катарина","name:mr":"सांता कातारिना","name:os":"Сантæ-Катаринæ","name:pl":"Santa Catarina","name:pt":"Santa Catarina","name:ru":"Санта-Катарина","name:sr":"Санта Катарина","name:tg":"Санта Катарина","name:th":"ซันตากาตารีนา","name:uk":"Санта-Катаріна","name:uz":"Santa-Katarina","name:zh":"圣卡塔琳娜","website":"http://www.sc.gov.br/","boundary":"administrative","timezone":"America/Sao_Paulo","wikidata":"Q41115","ISO3166-2":"BR-SC","wikipedia":"pt:Santa Catarina","short_name":"SC","admin_level":"4","source:name":"IBGE","is_in:country":"Brazil","IBGE:GEOCODIGO":"42"},"id":296584},{"arcs":[[48,-4,49,50,-16,51]],"type":"Polygon","properties":{"ref":"AM","flag":"https://upload.wikimedia.org/wikipedia/commons/6/6b/Bandeira_do_Amazonas.svg","name":"Amazonas","fixme":"Revisar: Cambio por importacion directa de nuevos limites en Colombia","place":"state","source":"IBGE","name:ar":"الأمازون","name:be":"Амазонас","name:bg":"Амазонас","name:ca":"Amazones","name:de":"Amazonas","name:en":"Amazonas","name:eo":"Amazonio","name:fa":"آمازوناس","name:he":"אמזונאס","name:hi":"आमेज़ोनास","name:hy":"Ամազոնաս","name:ja":"アマゾナス","name:ka":"ამაზონასი","name:ko":"아마조나스","name:la":"Amazones","name:lt":"Amazonė","name:lv":"Amazonasa","name:mk":"Амазон","name:mr":"अमेझोनास","name:os":"Амазонас","name:pl":"Amazonas","name:pt":"Amazonas","name:qu":"Amarumayu","name:ru":"Амазонас","name:sr":"Амазонас","name:tg":"Амазонас","name:th":"อามาโซนัส","name:uk":"Амазонас","name:zh":"亚马孙","website":"http://www.amazonas.am.gov.br/","boundary":"administrative","wikidata":"Q40040","ISO3166-2":"BR-AM","wikipedia":"pt:Amazonas","short_name":"AM","admin_level":"4","is_in:country":"Brazil","IBGE:GEOCODIGO":"13"},"id":332476},{"arcs":[[52,-50,-3]],"type":"Polygon","properties":{"ref":"AC","flag":"https://upload.wikimedia.org/wikipedia/commons/4/4c/Bandeira_do_Acre.svg","name":"Acre","place":"state","source":"IBGE","name:ar":"أكري","name:be":"Акры","name:bg":"Акри","name:de":"Acre","name:en":"Acre","name:eo":"Akro","name:fa":"اکری","name:gn":"Akre","name:he":"אקרי","name:hi":"आक्री","name:hy":"Ակրի","name:ja":"アクレ","name:ka":"აკრი","name:ko":"아크리","name:lt":"Akrė","name:lv":"Akri","name:mk":"Акре","name:ml":"അക്രേ","name:mr":"आक्रे","name:os":"Акри","name:pl":"Acre","name:pt":"Acre","name:qu":"Aqri","name:ru":"Акри","name:sr":"Акре","name:tg":"Акри","name:th":"อาเกร","name:uk":"Акрі","name:uz":"Akri","name:zh":"阿克里","website":"http://www.ac.gov.br/","boundary":"administrative","timezone":"America/Rio_Branco","wikidata":"Q40780","ISO3166-2":"BR-AC","iso3166-2":"BR-AC","wikipedia":"pt:Acre","short_name":"AC","admin_level":"4","is_in:country":"Brazil","IBGE:GEOCODIGO":"12"},"id":326266},{"arcs":[[-23,-42,53,54,-5,-49,55]],"type":"Polygon","properties":{"ref":"MT","flag":"https://upload.wikimedia.org/wikipedia/commons/0/0b/Bandeira_de_Mato_Grosso.svg","name":"Mato Grosso","place":"state","source":"IBGE","name:ar":"ماتو غروسو","name:be":"Мату-Гросу","name:bg":"Мато Гросо","name:de":"Mato Grosso","name:en":"Mato Grosso","name:eo":"Mato-Groso","name:fa":"ماتو گروسو","name:gl":"Mato Groso","name:he":"מאטו גרוסו","name:hi":"मातो ग्रोसो","name:hy":"Մատու Գրոսու","name:ja":"マット グロッソ","name:ka":"მატუ-გროსუ","name:ko":"마투그로수","name:la":"Silva Crassa","name:lt":"Mato Grosas","name:lv":"Matugrosu","name:mk":"Мато Грошо","name:mr":"मातो ग्रोसो","name:os":"Мату-Гросу","name:pl":"Mato Grosso","name:pt":"Mato Grosso","name:ru":"Мату-Гросу","name:sh":"Matu Grosu","name:sr":"Мато Гросо","name:tg":"Мату Гросу","name:th":"มาตูโกรสซู","name:uk":"Мату-Гросу","name:uz":"Matu-Grosu","name:zh":"马托格罗索","website":"http://www.mt.gov.br/","boundary":"administrative","timezone":"America/Cuiaba","wikidata":"Q42824","ISO3166-2":"BR-MT","wikipedia":"pt:Mato Grosso","short_name":"MT","admin_level":"4","is_in:country":"Brazil","IBGE:GEOCODIGO":"51"},"id":333597},{"arcs":[[-35,-24,-56,-52,-18,56,57,58]],"type":"Polygon","properties":{"ref":"PA","flag":"https://upload.wikimedia.org/wikipedia/commons/0/02/Bandeira_do_Par%C3%A1.svg","name":"Pará","place":"state","name:ar":"بارا","name:be":"Пара","name:bg":"Пара","name:de":"Pará","name:en":"Pará","name:eo":"Parao","name:fa":"پارا","name:gn":"Para","name:he":"פארה","name:hy":"Պարա","name:ja":"パラー","name:ka":"პარა","name:ko":"파라","name:la":"Para","name:lt":"Para","name:lv":"Para","name:mk":"Пара","name:mr":"पारा","name:os":"Пара","name:pl":"Pará","name:pt":"Pará","name:ru":"Пара","name:sh":"Para","name:sr":"Пара","name:tg":"Пара","name:th":"ปารา","name:uk":"Пара","name:uz":"Para","name:zh":"帕拉","website":"http://www.pa.gov.br/","boundary":"administrative","wikidata":"Q39517","ISO3166-2":"BR-PA","wikipedia":"pt:Pará","short_name":"PA","admin_level":"4","is_in:country":"Brazil","IBGE:GEOCODIGO":"15"},"id":185579},{"arcs":[[-33,59,-43,-26,-7,60,-27,-19,61]],"type":"Polygon","properties":{"ref":"BA","flag":"https://upload.wikimedia.org/wikipedia/commons/2/28/Bandeira_da_Bahia.svg","name":"Bahia","place":"state","source":"IBGE","name:ar":"باهيا","name:be":"Баія","name:bg":"Баия","name:de":"Bahia","name:en":"Bahia","name:eo":"Bahio","name:es":"Bahía","name:fa":"باهیا","name:gl":"Baía","name:he":"באהיה","name:hi":"बाहिया","name:hy":"Բաիա","name:ja":"バイーア","name:ka":"ბაია","name:ko":"바이아","name:lt":"Bahija","name:lv":"Baija","name:mk":"Баја","name:mr":"बाईया","name:os":"Баия","name:pl":"Bahia","name:pt":"Bahia","name:ru":"Баия","name:sr":"Баија","name:tg":"Баия","name:th":"บาเยีย","name:uk":"Баїя","name:uz":"Baiya","name:zh":"巴伊亚","website":"http://www.ba.gov.br/","boundary":"administrative","timezone":"America/Bahia","wikidata":"Q40430","ISO3166-2":"BR-BA","wikipedia":"pt:Bahia","short_name":"BA","admin_level":"4","is_in:country":"Brazil","IBGE:GEOCODIGO":"29"},"id":362413},{"arcs":[[62,-58]],"type":"Polygon","properties":{"ref":"AP","flag":"https://upload.wikimedia.org/wikipedia/commons/0/0c/Bandeira_do_Amap%C3%A1.svg","name":"Amapá","place":"state","source":"IBGE","name:ar":"أمابا","name:be":"Амапа","name:bg":"Амапа","name:de":"Amapá","name:en":"Amapá","name:eo":"Amapao","name:fa":"آماپا","name:gn":"Amapa","name:he":"אמאפה","name:hi":"अमापा","name:hy":"Ամապա","name:ja":"アマパー","name:ka":"ამაპა","name:kk":"Амапа","name:ko":"아마파","name:la":"Amapa","name:lt":"Amapa","name:lv":"Amapa","name:mk":"Амапа","name:mr":"अमापा","name:os":"Амапа","name:pl":"Amapá","name:pt":"Amapá","name:ru":"Амапа","name:sh":"Amapa","name:sr":"Амапа","name:tg":"Амапа","name:th":"อามาปา","name:uk":"Амапа","name:uz":"Amapa","name:zh":"阿马帕","website":"http://www.ap.gov.br/","boundary":"administrative","timezone":"America/Belem","wikidata":"Q40130","ISO3166-2":"BR-AP","wikipedia":"pt:Amapá","short_name":"AP","admin_level":"4","is_in:country":"Brazil","IBGE:GEOCODIGO":"16"},"id":331463},{"arcs":[[[63]],[[64]],[[-28,-61,-6,-14,65,66]]],"type":"MultiPolygon","properties":{"ref":"PE","flag":"https://upload.wikimedia.org/wikipedia/commons/5/59/Bandeira_de_Pernambuco.svg","name":"Pernambuco","place":"state","source":"IBGE","name:ar":"بيرنامبوكو","name:be":"Пернамбуку","name:bg":"Пернамбуко","name:de":"Pernambuco","name:en":"Pernambuco","name:eo":"Pernambuko","name:fa":"پرنامبوکو","name:fr":"Pernambouc","name:he":"פרנמבוקו","name:hi":"पेरनाम्बुको","name:hy":"Պերնամբուկու","name:ja":"ペルナンブーコ","name:ka":"პერნამბუკუ","name:ko":"페르남부쿠","name:la":"Pernambucum","name:lt":"Pernambukas","name:lv":"Pernambuku","name:mk":"Пернамбуко","name:mr":"पर्नांबुको","name:os":"Пернамбуку","name:pl":"Pernambuco","name:pt":"Pernambuco","name:ru":"Пернамбуку","name:sr":"Пернамбуко","name:tg":"Пернамбуку","name:th":"เปร์นัมบูกู","name:uk":"Пернамбуку","name:uz":"Prenambuku","name:zh":"伯南布哥","website":"http://www.pe.gov.br/","boundary":"administrative","timezone":"America/Recife","wikidata":"Q40942","ISO3166-2":"BR-PE","wikipedia":"pt:Pernambuco","short_name":"PE","admin_level":"4","is_in:country":"Brazil","IBGE:GEOCODIGO":"26"},"id":303702},{"arcs":[[67,68,-31,69]],"type":"Polygon","properties":{"ref":"RJ","flag":"https://upload.wikimedia.org/wikipedia/commons/7/73/Bandeira_do_estado_do_Rio_de_Janeiro.svg","name":"Rio de Janeiro","place":"state","name:am":"ሪዮ ዴ ጃኔይሮ","name:ar":"ريو دي جانيرو","name:az":"Rio de Janeyro","name:ba":"Рио-де-Жанейро","name:be":"Рыа-дэ-Жанэйра","name:bg":"Рио де Жанейро","name:bn":"রিউ দি জানেইরু","name:ce":"Рио-де-Жанейро","name:cv":"Рио-де-Жанейро","name:de":"Rio de Janeiro","name:el":"Ρίο ντε Τζανέιρο","name:en":"Rio de Janeiro","name:eo":"Rio-de-Ĵanejro","name:es":"Río de Janeiro","name:fa":"ریودو ژانیرو","name:fy":"Rio de Janêro","name:gl":"Río de Xaneiro","name:he":"ריו דה ז'ניירו","name:hi":"रियो डि जेनेरो","name:hy":"Ռիո դե Ժանեյրո","name:ja":"リオ デ ジャネイロ","name:ka":"რიო-დე-ჟანეირო","name:kk":"Рио-де-Жанейро","name:ko":"리우데자네이루","name:ky":"Рио-де-Жанейро","name:la":"Flumen Ianuarii","name:lt":"Rio de Žaneiras","name:lv":"Riodežaneiro","name:mk":"Рио де Жанеиро","name:ml":"റിയോ ഡി ജനീറോ","name:mn":"Рио-де-Жанейро","name:mr":"रियो दि जानेरो","name:os":"Рио-де-Жанейро","name:pa":"ਰਿਓ ਡੀ ਜਨੇਰੋ","name:pl":"Rio de Janeiro","name:pt":"Rio de Janeiro","name:ru":"Рио-де-Жанейро","name:sh":"Rio de Žaneiro","name:sq":"Rio de Zhaneiro","name:sr":"Рио де Жанеиро","name:ta":"இரியோ டி செனீரோ","name:tg":"Рио-де-Жанейро","name:th":"รีโอเดจาเนโร","name:tk":"Rio-de-Žaneýro","name:tt":"Рио-де-Жанейро","name:ug":"Rio dé Janéyro","name:uk":"Ріо-де-Жанейро","name:ur":"ریو دے جینیرو","name:uz":"Rio-de-Janeyro","name:yi":"ריא דע זשאנערא","name:zh":"里約熱內盧","website":"http://www.rj.gov.br/","boundary":"administrative","timezone":"America/Sao_Paulo","wikidata":"Q41428","ISO3166-2":"BR-RJ","wikipedia":"pt:Rio de Janeiro","short_name":"RJ","admin_level":"4","is_in:country":"Brazil","IBGE:GEOCODIGO":"33"},"id":57963},{"arcs":[[70,71,72,73,-68]],"type":"Polygon","properties":{"ref":"SP","flag":"https://upload.wikimedia.org/wikipedia/commons/2/2b/Bandeira_do_estado_de_S%C3%A3o_Paulo.svg","name":"São Paulo","place":"state","source":"IBGE","name:ab":"Сан-Паулу","name:am":"ሳው ፓውሉ","name:ar":"ساو باولو","name:ay":"San Pauluw","name:az":"San Paulo","name:ba":"Сан-Паулу","name:be":"Сан-Паўлу","name:bg":"Сао Пауло","name:bn":"সাঁউ পাউলু","name:ce":"Сан-Паулу","name:cv":"Сан-Паулу","name:de":"São Paulo","name:dv":"ސައޮ ޕައުލޯ","name:el":"Σάο Πάολο","name:en":"São Paulo","name:eo":"San-Paŭlo","name:es":"San Pablo","name:fa":"سائوپائولو","name:gl":"San Paulo","name:he":"סאו פאולו","name:hi":"साओ पाउलो","name:hy":"Սան Պաուլո","name:io":"Sao Paulo","name:it":"San Paolo","name:ja":"サンパウロ","name:ka":"სან-პაულუ","name:kk":"Сан-Паулу","name:ko":"상파울루","name:kv":"Сан-Паулу","name:la":"Sanctus Paulus","name:lt":"San Paulas","name:lv":"Sanpaulu","name:mk":"Сао Паоло","name:ml":"സാവോ പോളോ","name:mn":"Сан-Паулу","name:mr":"साओ पाउलो","name:ne":"साओ पाउलो","name:os":"Сан-Паулу","name:pa":"ਸਾਓ ਪਾਓਲੋ","name:pl":"São Paulo","name:pt":"São Paulo","name:ru":"Сан-Паулу","name:sa":"साओ पाओलो","name:sh":"Sao Paulo","name:sr":"Сао Пауло","name:ta":"சாவோ பாவுலோ","name:tg":"Сан-Паулу","name:th":"เซาเปาลู","name:tk":"San-Paulu","name:tr":"Сан Паулу","name:tt":"Сан-Паулу","name:ug":"San Pawlo","name:uk":"Сан-Паулу","name:ur":"ساؤ پالو","name:uz":"San-Paulu","name:wa":"Sawo Pålo","name:yi":"סאו פאולא","name:yo":"Sao Paulo","name:zh":"圣保罗","website":"http://www.sp.gov.br/","boundary":"administrative","timezone":"America/Sao_Paulo","wikidata":"Q175","ISO3166-2":"BR-SP","wikipedia":"pt:São Paulo","short_name":"SP","admin_level":"4","is_in:country":"Brazil","IBGE:GEOCODIGO":"35"},"id":298204},{"arcs":[[-32,-69,-74,74,-40,-38,-39,-60]],"type":"Polygon","properties":{"ref":"MG","flag":"https://upload.wikimedia.org/wikipedia/commons/f/f4/Bandeira_de_Minas_Gerais.svg","name":"Minas Gerais","place":"state","source":"IBGE","name:ar":"ميناس جيرايس","name:be":"Мінас-Жэрайс","name:bg":"Минас Жерайс","name:de":"Minas Gerais","name:en":"Minas Gerais","name:eo":"Minas-Ĝerajso","name:fa":"میناس گرایس","name:gl":"Minas Xerais","name:he":"מינאס ז'ראיס","name:hi":"मिनास जेरायज़","name:hy":"Մինաս Ժերայս","name:ja":"ミナス ジェライス","name:ka":"მინას-ჟერაისი","name:ko":"미나스제라이스","name:ku":"Minas Grais","name:la":"Fodinae Generales","name:lt":"Minas Žeraisas","name:lv":"Minasžeraisa","name:mk":"Минаш Жераис","name:mr":"मिनास जेराईस","name:os":"Минас-Жерайс","name:pl":"Minas Gerais","name:pt":"Minas Gerais","name:ru":"Минас-Жерайс","name:sr":"Минас Жераис","name:tg":"Минас Жерайс","name:th":"มีนัสเชไรส์","name:uk":"Мінас-Жерайс","name:uz":"Minas-Jerays","name:zh":"米纳斯吉拉斯","website":"http://www.mg.gov.br/","boundary":"administrative","timezone":"America/Sao_Paulo","wikidata":"Q39109","ISO3166-2":"BR-MG","wikipedia":"pt:Minas Gerais","short_name":"MG","admin_level":"4","is_in:country":"Brazil","IBGE:GEOCODIGO":"31"},"id":315173},{"arcs":[[-66,-13,75,76]],"type":"Polygon","properties":{"ref":"PB","flag":"https://upload.wikimedia.org/wikipedia/commons/b/bb/Bandeira_da_Para%C3%ADba.svg","name":"Paraíba","place":"state","source":"IBGE","name:ar":"بارايبا","name:be":"Параіба","name:bg":"Параиба","name:de":"Paraíba","name:en":"Paraíba","name:eo":"Paraibo","name:fa":"پارائیبا","name:gn":"Parayva","name:he":"פאראיבה","name:hi":"परेबा","name:hy":"Պարաիբա","name:ja":"パライバ","name:ka":"პარაიბა","name:ko":"파라이바","name:la":"Parahyba","name:lt":"Paraiba","name:lv":"Paraiba","name:mk":"Параиба","name:mr":"परैबा","name:os":"Параибæ","name:pl":"Paraíba","name:pt":"Paraíba","name:ru":"Параиба","name:sh":"Paraiba","name:sr":"Параиба","name:tg":"Параиба","name:th":"ปาราอีบา","name:uk":"Параїба","name:uz":"Paraiba","name:zh":"帕拉伊巴","website":"http://www.paraiba.pb.gov.br/","boundary":"administrative","timezone":"America/Fortaleza","wikidata":"Q38088","ISO3166-2":"BR-PB","wikipedia":"pt:Paraíba","short_name":"PB","admin_level":"4","is_in:country":"Brazil","IBGE:GEOCODIGO":"25"},"id":301464},{"arcs":[[[77]],[[-76,-12,78]]],"type":"MultiPolygon","properties":{"ref":"RN","flag":"https://upload.wikimedia.org/wikipedia/commons/3/30/Bandeira_do_Rio_Grande_do_Norte.svg","name":"Rio Grande do Norte","place":"state","source":"IBGE;Bing","name:ar":"ريو غراندي دو نورتي","name:be":"Рыу-Гранды-ду-Норты","name:bg":"Рио Гранди до Норти","name:de":"Rio Grande do Norte","name:en":"Rio Grande do Norte","name:eo":"Norda Rio-Grando","name:es":"Río Grande del Norte","name:eu":"Iparraldeko Rio Grande","name:fa":"ریو گرانده شمالی","name:gl":"Río Grande do Norte","name:he":"ריו גראנדה דו נורטה","name:hi":"रियो ग्रांदे दो नॉर्ते","name:hy":"Ռիու Գրանդի դու Նորտի","name:ja":"リオグランデ・ド・ノルテ","name:ka":"რიუ-გრანდი-დუ-ნორტი","name:ko":"히우그란지두노르치","name:la":"Flumen Magnum Septentrionale","name:lt":"Šiaurės Rio Grandė","name:lv":"Riugrandi du Norti","name:mk":"Северна Рио Гранџе","name:mr":"Северна Рио Гранџе","name:os":"Риу-Гранди-ду-Норти","name:pl":"Rio Grande do Norte","name:pt":"Rio Grande do Norte","name:qu":"Chinchay Hatunmayu","name:ru":"Риу-Гранди-ду-Норти","name:sh":"Rio Grandi du Norti","name:sr":"Рио Гранде до Норте","name:tg":"Риу Гранди ду Норти","name:th":"รีโอกรันดีโดนอร์เต","name:uk":"Ріу-Гранді-ду-Норті","name:uz":"Riu-Grandi-du-Norti","name:zh":"北里约格朗德","website":"http://www.rn.gov.br/","boundary":"administrative","timezone":"America/Fortaleza","wikidata":"Q43255","ISO3166-2":"BR-RN","wikipedia":"pt:Rio Grande do Norte","short_name":"RN","admin_level":"4","is_in:country":"Brazil","IBGE:GEOCODIGO":"24"},"id":301079},{"arcs":[[-47,79,80,-72,81]],"type":"Polygon","properties":{"ref":"PR","flag":"https://upload.wikimedia.org/wikipedia/commons/9/93/Bandeira_do_Paran%C3%A1.svg","name":"Paraná","place":"state","source":"IBGE","name:ar":"بارانا","name:be":"Парана","name:bg":"Парана","name:ca":"Paranà","name:de":"Paraná","name:el":"Παρανά","name:en":"Paraná","name:eo":"Paranao","name:fa":"پارانا","name:he":"פרנה","name:hi":"पाराना","name:hy":"Պարանա","name:ja":"パラナ","name:ka":"პარანა","name:ko":"파라나","name:la":"Parana","name:lt":"Parana","name:lv":"Parana","name:mk":"Парана","name:mr":"पाराना","name:os":"Парана","name:pl":"Parana","name:pt":"Paraná","name:ru":"Парана","name:sr":"Парана","name:tg":"Парана","name:th":"ปารานา","name:uk":"Парана","name:uz":"Parana","name:yi":"פאראנא","name:zh":"巴拉那","website":"http://www.pr.gov.br/","boundary":"administrative","timezone":"America/Sao_Paulo","wikidata":"Q15499","ISO3166-2":"BR-PR","wikipedia":"pt:Paraná","short_name":"PR","admin_level":"4","is_in:country":"Brazil","IBGE:GEOCODIGO":"41"},"id":297640},{"arcs":[[-73,-81,82,-54,-41,-75]],"type":"Polygon","properties":{"ref":"MS","flag":"https://upload.wikimedia.org/wikipedia/commons/6/64/Bandeira_de_Mato_Grosso_do_Sul.svg","name":"Mato Grosso do Sul","place":"state","source":"IBGE","name:ar":"ماتو غروسو دو سول","name:be":"Мату-Гросу-ду-Сул","name:bg":"Мато Гросо до Сул","name:de":"Mato Grosso do Sul","name:en":"Mato Grosso do Sul","name:eo":"Suda Mato-Groso","name:es":"Mato Grosso del Sur","name:eu":"Hegoaldeko Mato Grosso","name:fa":"ماتوگروسو جنوبی","name:gl":"Mato Groso do Sur","name:he":"מאטו גרוסו דו סול","name:hi":"मातो ग्रोसो दो सुल","name:hy":"Մատու Գրոսու դու Սուլ","name:ja":"マットグロッソ・ド・スル","name:ka":"მატუ-გროსუ-დუ-სული","name:ko":"마투그로수두술","name:la":"Silva Crassa Meridionalis","name:lt":"Pietų Mato Grosas","name:lv":"Matugrosu du Sula","name:mk":"Јужна Мато Грошо","name:mr":"मातो ग्रोसो दो सुल","name:os":"Мату-Гросу-ду-Сул","name:pl":"Mato Grosso do Sul","name:pt":"Mato Grosso do Sul","name:qu":"Urin Mato Grosso","name:ru":"Мату-Гросу-ду-Сул","name:sh":"Matu Grosu du Sul","name:sr":"Мато Гросо до Сул","name:tg":"Мату Гросу ду Сул","name:th":"มาตูโกรสซูโดซูล","name:uk":"Мату-Гросу-ду-Сул","name:uz":"Matu-Grosu-du-Sul","name:zh":"南马托格罗索","website":"http://www.ms.gov.br/","boundary":"administrative","timezone":"America/Campo_Grande","wikidata":"Q43319","ISO3166-2":"BR-MS","wikipedia":"pt:Mato Grosso do Sul","short_name":"MS","admin_level":"4","is_in:country":"Brazil","IBGE:GEOCODIGO":"50"},"id":334051}]}}}