{"type":"Topology","arcs":[[[9277,1207],[-128,-41],[-9,-33],[-59,-115],[-10,-66],[13,-75],[-11,-31],[-49,-82],[-136,-149],[-35,-72],[-43,-16],[-94,36],[44,165],[-40,92],[-78,6],[-56,43],[-21,36],[-52,16],[-132,-16],[-140,13]],[[8241,918],[28,105],[92,165],[58,72],[71,57],[229,104],[66,55],[44,69],[37,88],[35,130]],[[8901,1763],[141,-18],[-46,-81],[-34,-43],[-5,-45],[56,-94],[25,-26],[87,-61],[46,-23],[126,-6],[-20,-159]],[[11094,1793],[-85,22],[-95,4],[-62,14],[-43,30],[-41,94],[-17,62],[-35,43],[-33,-18],[-17,-44],[-8,-58],[7,-71],[-6,-123],[-11,-20],[-49,3],[-87,-15],[-157,-52],[-70,-62],[-75,-138],[-459,-163],[-152,34],[-272,-157],[-50,29]],[[8901,1763],[9,46],[9,195],[24,66],[132,129],[135,70],[-11,74],[-54,102],[-90,52],[-48,45],[-80,52],[34,35],[-16,47]],[[8945,2676],[131,-15],[314,-109],[11,16],[82,32],[93,105],[37,3],[199,64],[117,49],[92,13],[26,13],[27,45],[4,46]],[[10078,2938],[60,4],[20,16],[50,-7],[0,-25],[38,-7],[97,39],[75,-28],[52,37],[18,33],[45,-6],[28,-50],[58,12],[28,-15],[98,7],[62,-50],[58,1],[39,24],[23,-12],[34,16],[18,41],[43,-9],[33,18],[20,-69],[-2,-59],[16,-25],[52,-19],[4,-77],[43,-59],[-12,-79],[-14,-11],[-3,-54],[16,-37],[35,-40],[8,-57],[79,-85],[28,-4],[54,-33],[36,-34],[-9,-56],[-56,-14],[-58,5],[-34,32],[-102,-33],[-27,-54],[63,-8],[14,-30],[33,-27],[-10,-92],[-22,-15],[-16,-82],[-17,-16],[-53,-15],[-27,-37]],[[3610,3137],[-80,11],[-114,172],[-139,-46],[-91,-74],[-41,64],[-46,44],[-45,98],[-66,104],[-8,56],[11,46],[-2,76],[-16,93],[-60,94]],[[2913,3875],[23,44],[36,11],[61,3],[89,-27],[134,42],[-17,37],[65,44],[54,9],[96,8],[111,144],[65,111],[40,48],[101,22],[65,27],[42,3],[101,-81],[157,-64],[53,-38],[57,-14]],[[4246,4204],[4,-115],[-33,-65],[-33,-30],[-66,-75],[-17,-50],[2,-80],[26,-29],[47,-15],[45,7],[48,-12],[90,-102],[-7,-52],[-49,-50],[-77,-25],[-85,-117],[-119,-99],[-17,-59],[-79,-67],[-167,-42],[-149,10]],[[2654,2314],[-9,-94],[-35,-88],[-48,-146],[7,-124],[-32,-14],[-132,23],[-101,51],[-95,18],[-237,5]],[[1972,1945],[-30,87],[-5,40],[-29,66],[7,33],[33,48],[92,43],[41,37],[30,42],[-194,278],[-90,158],[-39,56],[-11,60],[-88,75],[-30,64],[-10,47],[-61,189],[-17,25],[-68,-3],[-42,32],[-56,23],[-34,34],[-8,48],[-73,64]],[[1290,3491],[16,46],[-11,20],[36,61],[49,32],[30,37],[61,34],[-14,23],[25,24],[-3,27],[31,27],[13,77],[73,8],[34,29]],[[1630,3936],[58,6],[41,-23],[70,-25],[55,2],[75,43],[116,11],[50,30],[65,21],[-8,-111],[12,-95],[51,-76],[-93,-106],[52,6],[55,-25],[59,-58],[76,-105],[49,-97],[36,-34],[38,-18],[-27,-59],[-10,-137],[-26,-171],[-4,-144],[23,-41],[84,-33],[14,-16],[13,-68],[-25,-103],[86,-53],[34,-42],[5,-101]],[[7653,330],[-50,9],[-114,-12]],[[7489,327],[-47,153],[-81,-39],[-124,-9],[-49,10],[-125,12],[-57,-14],[-38,31],[-21,50],[-14,80],[-75,158],[-64,53],[-34,13],[-50,70],[-40,32],[-101,16],[-32,17],[-15,60],[27,61],[-13,48],[-3,63],[-28,44],[-12,74],[-46,61],[-79,42],[-74,-33],[-86,25],[-87,48],[-56,45],[-61,62],[-20,60]],[[5984,1620],[38,40],[55,23],[69,60],[43,17],[66,-40],[125,9],[21,26],[-96,130],[-24,41],[248,116],[96,70],[9,19],[-11,95],[7,43],[31,80],[24,125]],[[6685,2474],[17,83],[41,25],[77,-3],[71,-67],[56,-74],[107,-51],[105,48],[40,7],[43,34],[77,3],[48,24],[20,48]],[[7387,2551],[41,-131],[27,-62],[33,-126],[32,-83],[62,-54],[13,-38],[1,-64],[34,-47],[4,-61],[-10,-85],[-45,-124],[7,-103],[111,-246],[127,-39],[56,-53],[32,-174],[47,-44],[29,-5],[59,-37],[50,-61],[45,-15],[38,24],[61,-5]],[[8241,918],[-38,-139],[-36,-58],[-58,-25],[-160,-7],[-30,-70],[-31,6],[-42,-28],[-148,-33],[-44,-31],[-17,-28],[-17,-78],[33,-97]],[[7516,2631],[-80,-29],[-49,-51]],[[6685,2474],[-185,205],[-68,50],[-102,41],[-56,53],[-118,37],[-27,77],[18,48],[-15,97],[-79,273],[-27,17],[-12,48],[-14,104],[-24,25],[-5,45],[10,98],[25,83],[9,100],[-4,78],[-16,33],[-48,70],[-34,16],[-57,-4],[-47,40]],[[5809,4108],[-25,152],[12,35],[29,10],[58,102],[19,111],[-8,59],[-25,44],[-12,45],[-30,27],[-49,16],[-48,116],[31,51],[9,34],[-8,54],[-74,97],[-7,50],[68,60]],[[5749,5171],[28,-27],[99,15],[76,59],[66,-26],[14,-18],[61,-18],[28,1],[39,-31],[22,-47],[28,-26],[61,40],[45,52],[76,0],[49,36],[35,2],[99,90],[31,-12],[21,-30],[41,0],[24,-27],[48,-31],[49,-16]],[[6789,5157],[-15,-103],[4,-69],[11,-38],[4,-91],[-17,-44],[-34,-22],[-24,-37],[-21,-59],[17,-38],[39,-34],[100,-37],[19,-22],[50,-119],[9,-98],[48,-23],[109,-120],[38,-11],[54,-31],[11,-24],[34,-149],[0,-90],[29,-23],[54,-7],[31,-14],[94,-92],[22,-66],[13,-88],[6,-88],[-54,-180],[-7,-40],[31,-68],[8,-91],[-14,-60],[25,-45],[38,-28],[52,-71],[-52,-116],[-32,-40],[-6,-43],[53,-107]],[[5984,1620],[-49,7],[-50,16],[-83,8],[-35,20],[-26,31],[-43,26],[-110,90],[-212,122]],[[5376,1940],[63,92],[18,63],[-2,50],[-57,36],[-14,108],[-39,66],[-102,92],[-21,39],[6,42],[-43,54],[-55,97],[-16,116],[-11,31],[-61,105],[123,30],[79,71],[30,16],[71,14],[48,-11],[71,67],[-98,50],[-37,45],[-60,126],[-53,147],[1,26],[55,85],[7,69],[15,40],[38,29],[48,-15],[108,22],[34,-25],[33,-5],[155,66],[35,27],[31,71],[31,178],[2,54]],[[5376,1940],[-80,-89],[-1,-59]],[[5295,1792],[-87,-57],[-74,-24],[-99,-55],[-117,95],[-29,6],[-50,-17],[-120,-9],[-45,7],[-174,78],[-70,-18],[4,-264]],[[4434,1534],[-87,56],[-53,9],[-131,58],[-140,16],[-80,108],[-43,79],[-26,66],[-58,76],[-73,60],[-41,42],[-78,43],[-100,-9],[-72,41],[-196,-42]],[[3256,2137],[-1,233],[7,81],[-70,67],[180,158],[-26,78],[5,72],[16,71],[177,50],[52,49],[21,106],[-7,35]],[[4246,4204],[17,123],[25,28],[117,21],[105,50],[53,62],[12,28],[143,248],[24,65],[47,35],[166,11],[56,-49],[16,-40],[1,-53],[66,-110],[75,-60],[57,31],[41,9],[48,-12],[76,7],[28,35],[-7,82],[-21,71],[2,83],[21,36],[106,64],[32,29],[36,56],[21,49],[125,106]],[[5734,5209],[15,-38]],[[7516,2631],[173,-36],[188,166],[72,24],[59,-3],[64,-13],[23,-14],[78,-124],[273,148],[44,115],[6,69],[-50,97],[26,65],[34,37],[82,68],[1,93],[27,28],[48,12]],[[8664,3363],[61,-111],[236,-318],[42,-103],[-3,-48],[-55,-107]],[[8664,3363],[-42,61],[34,81],[-15,232],[16,93],[-1,29],[-24,87],[5,54],[29,73],[7,106],[15,65],[10,317],[-3,45],[15,40],[62,25],[109,130],[20,11],[48,-10],[34,10],[51,46],[115,139]],[[9149,4997],[42,-9],[6,-40],[26,-61],[29,-6],[27,-56],[-27,-73],[37,-27],[51,-3],[62,-54],[68,-12],[25,-81],[44,-5],[30,32],[50,10],[12,-22],[45,-23],[57,-16],[-23,-28],[10,-36],[-10,-44],[-25,-19],[-23,11],[-36,-22],[-44,28],[-22,1],[-10,-55],[-49,26],[-13,-20],[54,-125],[37,-26],[22,25],[51,17],[44,-3],[66,-66],[19,-117],[17,-13],[-10,-68],[-23,-22],[14,-41],[-25,-71],[-12,-71],[-74,-37],[-32,-33],[-10,-32],[-42,-37],[-30,-6],[-8,-39],[-22,-36],[-4,-44],[74,-81],[-48,-53],[-15,-41],[28,-45],[33,-32],[-6,-27],[48,-60],[54,10],[4,-36],[35,-78],[78,-52],[15,-62],[25,0],[40,32],[35,3],[38,46],[78,-39],[-7,-75],[49,-20]],[[3358,104],[-48,-22],[-26,23],[-57,20],[-36,-2],[-39,20],[-32,-24],[-40,-56],[-29,-4],[-47,32],[-33,-11],[-26,20],[13,39],[53,33],[41,91],[-9,18],[-54,31],[-38,-8],[-80,39],[-90,25],[-41,58],[-38,-11],[-44,15],[-72,-6],[-58,-38],[-60,-3],[-49,19],[-40,43],[1,48],[-34,39],[-57,-21],[-32,18],[-81,6],[-22,66],[-38,3]],[[2116,604],[-25,56],[-44,5],[-72,-16],[-38,125],[-95,59],[-68,7],[-14,34],[117,82],[131,182],[13,83],[-22,48],[-34,34],[-59,17],[-1,97],[-11,75],[27,74],[49,29]],[[1970,1595],[4,70],[68,110],[-4,47],[-38,45],[-28,78]],[[2654,2314],[56,-43],[22,-43],[24,-94],[26,-21],[23,9],[106,-30],[25,-44],[-191,-134],[-69,-93],[2,-31],[89,-49],[37,-29],[83,-42],[78,9]],[[2965,1679],[50,-75],[65,-191],[79,-27],[19,-39],[-21,-90],[212,-1],[68,-136],[17,-49],[43,-170],[-58,-119],[-2,-48],[44,-72],[17,-51],[-1,-88],[-15,-74],[-30,-57],[-19,-17],[-24,-55],[-30,-21],[-35,-93],[14,-102]],[[2116,604],[-86,-38],[-69,-18],[-31,24],[-141,-84],[-45,-54],[-106,24],[-32,0],[-98,-32],[-54,29],[-120,-35],[-34,1],[-22,39],[-49,21],[-27,30],[7,107],[-39,30],[10,75],[-67,26],[-19,24],[-79,-22],[9,68],[-25,39],[-31,-9],[-36,17],[-20,37],[-101,-71],[-52,4],[-88,47],[25,50],[6,45],[-7,46],[-102,90],[-35,-33],[-64,-88],[-39,-35],[-22,6],[-7,34],[6,90],[-14,32],[23,102],[4,130],[8,23],[-19,37],[-4,83],[-12,65],[-69,-6],[-33,28],[-21,-3],[-76,46],[-27,48],[-64,-18],[-35,4],[-36,18],[-57,5],[19,33],[27,10],[-9,47],[26,48],[45,23],[28,-5],[8,43],[35,56],[17,105],[-7,47],[82,33],[14,28],[114,3],[50,-9],[22,18],[61,20]],[[532,2182],[34,-11],[32,8],[73,-25],[31,-40],[17,-73],[39,-45],[46,-39],[23,-4],[59,24],[19,-64],[10,-66],[23,-43],[17,-57],[65,-30],[244,-25],[17,-48],[56,-121],[51,-4],[113,103],[154,-200],[47,73],[40,97],[73,33],[155,-30]],[[6789,5157],[27,-14],[37,7],[25,-27],[42,25],[43,6],[73,-28],[16,20],[68,-4],[38,20],[33,-25],[43,-7],[39,-24],[-14,-31],[62,-9],[55,62],[60,-41],[0,-31],[85,-75],[32,-10],[31,28],[11,41],[57,12],[53,2],[9,-28],[46,-39],[79,-47],[24,-4],[9,43],[64,-22],[41,0],[30,-22],[41,13],[65,-18],[72,41],[78,-58],[41,-5],[43,25],[5,101],[71,45],[2,31],[34,46],[-5,52],[53,28],[73,-31],[65,7],[17,-16],[66,3],[21,18],[27,-17],[0,-45],[64,-2],[80,-69],[43,-2],[30,-38],[56,-4],[28,-14],[8,-45],[41,21],[23,-5]],[[3256,2137],[-38,9],[-28,-82],[-51,-67],[-95,-51],[-34,-75],[-12,-89],[-33,-103]],[[1630,3936],[-27,26],[21,33],[-16,65],[11,77],[34,34],[9,41],[23,-5],[79,42],[-7,53],[24,5],[54,53],[23,36],[40,23],[16,-11],[56,-3],[32,34],[38,10],[32,26],[30,-1],[24,44],[46,26],[14,57],[18,17],[0,34],[51,27],[4,37],[28,40],[33,4],[22,29],[-1,38],[45,47],[-6,43]],[[2380,4917],[43,-5],[92,-52],[42,-56],[20,-127],[21,-37],[45,-17],[83,-16],[7,-20],[-76,-54],[-117,-154],[-24,-50],[12,-52],[-1,-55],[-19,-81],[-28,-33],[21,-47],[35,-31],[35,-3],[53,80],[23,12],[74,-5],[39,-136],[27,-29],[126,-74]],[[7489,327],[-472,-43],[-270,-7],[-58,-22],[-86,3],[-71,63],[-110,-30],[-42,64],[-163,33],[-132,50],[-173,137],[-40,28],[-222,172],[-214,-13],[-24,-53],[-12,-55],[-141,-88],[-184,37],[-95,-39],[-65,-55],[-57,-137],[6,-37],[33,-32],[-15,-51],[-396,-122],[-97,-24],[-96,9],[-67,-16]],[[4226,99],[33,77],[6,32],[-10,46],[83,-59],[19,-7],[-15,89],[10,21],[-24,151]],[[4328,449],[21,-15],[122,-25],[26,14],[35,41],[43,30],[96,26],[34,24],[-5,82],[120,184],[53,36],[24,42],[2,39],[28,52],[58,60],[53,88],[-7,131],[53,54],[33,93],[14,114],[11,23],[47,51],[80,61],[89,54],[-63,84]],[[4328,449],[-38,55],[-6,45],[-32,37],[-6,60],[17,80],[60,33],[31,59],[52,61],[33,101],[1,124],[15,120],[3,86],[-26,34],[20,65],[-18,125]],[[4226,99],[-95,-23],[-224,4],[-141,52],[11,-64],[-4,-66],[-175,33],[-135,-35],[-13,34],[-31,21],[-1,47],[-20,24],[-40,-22]],[[532,2182],[37,72],[-20,49],[36,56],[23,56],[51,6],[62,-89],[37,-24],[34,38],[81,44],[-8,37],[-23,38],[-59,33],[9,31],[-17,84],[-19,50],[-62,60],[31,13],[13,30],[-30,44],[17,58],[21,31],[-8,42],[43,62],[31,17],[-28,63],[-25,26],[15,46],[31,12],[70,75],[-8,23],[9,43],[36,31],[58,10],[27,77],[32,37],[93,55],[57,18],[14,-17],[97,-28]],[[2380,4917],[10,21],[-2,58],[49,19],[14,32],[-39,34],[30,45],[93,117],[32,30],[21,52],[78,-23],[59,62],[-7,43],[31,20],[36,-9],[10,32],[59,73],[20,68],[72,17],[24,-13],[58,32],[53,-19],[40,9],[18,38],[26,14],[107,-30],[19,-21],[34,20],[41,53],[54,-17],[24,4],[58,78],[-26,21],[-7,39],[45,24],[23,67],[41,-32],[48,10],[32,-18],[32,-40],[76,17],[29,-31],[7,-30],[59,-53],[27,-66],[36,-6],[25,22],[81,8],[37,-24],[37,29],[55,15],[36,-49],[31,-18],[19,-29],[40,-1],[35,-52],[-3,-44],[63,-28],[41,70],[56,7],[63,-20],[35,31],[77,40],[4,22],[-17,65],[143,-3],[68,-45],[19,-22],[-1,-41],[77,-61],[91,12],[45,-2],[17,-29],[30,40],[69,23],[22,17],[23,-31],[31,1],[33,-49],[34,-29],[48,-87],[73,-61],[34,-116],[28,-19],[33,3],[61,34],[30,-21],[24,8],[63,-15]],[[11094,1793],[-3,-33],[20,-50],[8,-48],[-8,-36],[-35,-65],[25,-39],[6,-90],[20,-27],[-5,-23],[27,-44],[26,0],[99,-43],[-12,-87],[59,-24],[27,-29],[14,-57],[-8,-33],[50,-34],[4,-42],[-29,-37],[20,-33],[-15,-99],[17,-32],[-12,-55],[-37,-25],[-3,-68],[-160,-76],[-127,15],[-108,28],[-45,46],[-8,44],[-262,135],[-116,-24],[-117,-189],[-340,-191],[-45,6],[-53,-25],[-219,52],[-127,-64],[-315,-52],[-107,49],[-103,71],[-79,65],[-115,-177],[-131,-46],[-123,26],[-75,45],[-147,50],[-194,4],[-111,-9],[-161,44],[-155,-164],[-153,27]]],"transform":{"scale":[0.0002958246780551887,0.00026147536820721233],"translate":[88.7464724,26.702015999999997]},"objects":{"admin_level_4":{"type":"GeometryCollection","geometries":[{"arcs":[[0,1,2]],"type":"Polygon","properties":{"name":"པདྨ་དགའ་ཚལ་རྫོང་ཁག་","name:de":"Pemagatshel","name:en":"Pemagatshel District","name:ja":"ペマガットシェル","boundary":"administrative","wikidata":"Q167279","ISO3166-2":"BT-43","admin_level":"4"},"id":3899611},{"arcs":[[3,-3,4,5,6]],"type":"Polygon","properties":{"name":"བཀྲ་ཤིས་སྒང་རྫོང་ཁག་","name:de":"Trashigang","name:en":"Trashigang District","name:ja":"タシガン","boundary":"administrative","wikidata":"Q652773","ISO3166-2":"BT-41","admin_level":"4"},"id":3899617},{"arcs":[[7,8,9]],"type":"Polygon","properties":{"name":"སྤུ་ན་ཁ་རྫོང་ཁག་","name:de":"Punakha","name:en":"Punakha District","boundary":"administrative","wikidata":"Q587062","ISO3166-2":"BT-23","admin_level":"4"},"id":3899612},{"arcs":[[10,11,12,13]],"type":"Polygon","properties":{"name":"སྤ་རོ་རྫོང་ཁག་","name:de":"Paro","name:en":"Paro District","name:ja":"パロ","name:ru":"Паро","boundary":"administrative","wikidata":"Q652784","ISO3166-2":"BT-11","admin_level":"4"},"id":3899610},{"arcs":[[14,15,16,17,18,19]],"type":"Polygon","properties":{"name":"གཞལམ་སྒང་རྫོང་ཁག་","name:de":"Zhemgang","name:en":"Zhemgang District","name:ja":"シェムガン","boundary":"administrative","wikidata":"Q197564","ISO3166-2":"BT-34","admin_level":"4"},"id":3899622},{"arcs":[[20,-18,21,22,23,24]],"type":"Polygon","properties":{"name":"བུམ་ཐང་རྫོང་ཁག་","name:de":"Bumthang","name:dz":"བུམ་ཐང་རྫོང་ཁག་","name:en":"Bumthang District","name:ja":"ブムタン","name:ru":"Бумтанг","boundary":"administrative","wikidata":"Q463242","ISO3166-2":"BT-33","admin_level":"4"},"id":3899602},{"arcs":[[25,26,-22,-17]],"type":"Polygon","properties":{"name":"ཀྲོང་གསར་རྫོང་ཁག་","name:de":"Trongsa","name:en":"Trongsa District","name:ja":"トンサ","boundary":"administrative","wikidata":"Q728938","ISO3166-2":"BT-32","admin_level":"4"},"id":3899619},{"arcs":[[-27,27,28,29,30,-10,31,32,-23]],"type":"Polygon","properties":{"name":"དབང་འདུས་ཕོ་བྲང་རྫོང་ཁག་","name:de":"Wangdue Phodrang","name:en":"Wangdue Phodrang District","name:ja":"ワンデ・ポドラン","name:ru":"Вангди-Пходранг","boundary":"administrative","wikidata":"Q728933","ISO3166-2":"BT-24","admin_level":"4"},"id":3899621},{"arcs":[[-2,-19,-21,33,34,-5]],"type":"Polygon","properties":{"name":"མོང་སྒར་རྫོང་ཁག་","name:de":"Mongar","name:en":"Mongar District","name:ja":"モンガー","boundary":"administrative","wikidata":"Q389734","ISO3166-2":"BT-42","admin_level":"4"},"id":3899609},{"arcs":[[-6,-35,35,36]],"type":"Polygon","properties":{"name":"བཀྲ་ཤིས་གྱང་ཙེ་རྫོང་ཁག་","name:de":"Trashiyangtse","name:en":"Trashiyangtse District","name:ja":"タシ ヤンツェ","name:ru":"Трашиянгце","boundary":"administrative","wikidata":"Q600200","ISO3166-2":"BT-TY","admin_level":"4"},"id":3899618},{"arcs":[[37,38,39,-11,40,41]],"type":"Polygon","properties":{"name":"ཆུ་ཁ་རྫོང་ཁག་","name:de":"Chukha","name:en":"Chukha District","name:ja":"チュカ","boundary":"administrative","wikidata":"Q652754","ISO3166-2":"BT-12","admin_level":"4"},"id":3899603},{"arcs":[[42,43,-39]],"type":"Polygon","properties":{"name":"བསམ་རྩེ་རྫོང་ཁག་","name:de":"Samtse","name:en":"Samtse District","name:ja":"サムツェ","name:ru":"Самце","boundary":"administrative","wikidata":"Q728917","ISO3166-2":"BT-14","wikipedia":"en:Samtse_District","admin_level":"4"},"id":3899614},{"arcs":[[-36,-34,-25,44]],"type":"Polygon","properties":{"name":"ལྷུན་རྩེ་རྫོང་ཁག་","name:de":"Lhuntse","name:en":"Lhuntse District","name:ja":"ルハントス","name:ru":"Лхунце","boundary":"administrative","wikidata":"Q598793","ISO3166-2":"BT-44","admin_level":"4"},"id":3899608},{"arcs":[[45,-41,-14,46,47,-8,-31]],"type":"Polygon","properties":{"name":"ཐིམ་ཕུ་རྫོང་ཁག་","name:de":"Thimphu","name:en":"Thimphu District","name:ja":"ティンプー","name:ru":"Тхимпху","boundary":"administrative","wikidata":"Q254889","ISO3166-2":"BT-15","admin_level":"4"},"id":3899616},{"arcs":[[48,49,50,-28,-26,-16]],"type":"Polygon","properties":{"name":"གསར་སྤང་རྫོང་ཁག་","name:de":"Sarpang","name:en":"Sarpang District","name:ja":"サルパン","boundary":"administrative","wikidata":"Q728947","ISO3166-2":"BT-31","admin_level":"4"},"id":3899615},{"arcs":[[51,-29,-51]],"type":"Polygon","properties":{"name":"རྩི་རང་རྫོང་ཁག་","name:de":"Tsirang","name:en":"Tsirang District","name:ja":"チラン","boundary":"administrative","wikidata":"Q728922","ISO3166-2":"BT-21","admin_level":"4"},"id":3899620},{"arcs":[[-50,52,-42,-46,-30,-52]],"type":"Polygon","properties":{"name":"དར་དཀར་ན་རྫོང་ཁག་","name:de":"Dagana","name:en":"Dagana District","name:ja":"ダガナ","boundary":"administrative","wikidata":"Q735146","ISO3166-2":"BT-22","admin_level":"4"},"id":3899605},{"arcs":[[-40,-44,53,-12]],"type":"Polygon","properties":{"name":"ཧཱ་རྫོང་ཁག་","name:de":"Haa","name:en":"Haa District","name:ja":"ハ","name:ru":"Хаа","boundary":"administrative","wikidata":"Q754448","ISO3166-2":"BT-13","admin_level":"4"},"id":3899607},{"arcs":[[-32,-9,-48,54]],"type":"Polygon","properties":{"name":"མགར་ས་རྫོང་ཁག་","name:de":"Gasa","name:en":"Gasa District","name:ja":"ガサ","name:ru":"Гаса","boundary":"administrative","wikidata":"Q578294","ISO3166-2":"BT-GA","admin_level":"4"},"id":3899606},{"arcs":[[-20,-1,-4,55]],"type":"Polygon","properties":{"name":"བསམ་གྲུབ་ལྗོངས་མཁར་རྫོང་ཁག་","name:de":"Samdrup Jongkhar","name:en":"Samdrup Jongkhar District","name:ja":"サムドラップ・ジョンカー","boundary":"administrative","wikidata":"Q728929","ISO3166-2":"BT-45","admin_level":"4"},"id":3899613}]}}}