{"transform":{"scale":[0.0009585400840084017,0.0004915116811681165],"translate":[23.1783386,51.257598200000004]},"objects":{"admin_level_4":{"geocoding":{"license":"ODbL (see http://www.openstreetmap.org/copyright)","generator":{"package":"fences-builder","author":{"name":"Mapzen"},"version":"0.1.2"},"creation_date":"2016-01-09"},"geometries":[{"properties":{"admin_level":"4","name:ru":"Сокол","place":"suburb","name":"Сокол","name:be":"Сокал","boundary":"administrative"},"id":26788497,"arcs":[[0]],"osm_type":"way","name":"Сокол","type":"Polygon"},{"properties":{"admin_level":"4","name":"Национальный аэропорт \"Минск\"","name:ru":"Национальный аэропорт \"Минск\"","name:be":"Нацыянальны аэрапорт \"Мінск\"","boundary":"administrative"},"id":31148963,"arcs":[[1]],"osm_type":"way","name":"Национальный аэропорт \"Минск\"","type":"Polygon"},{"properties":{"admin_level":"4","population":"1080120","name:lt":"Mogiliovo sritis","int_name":"Mahilioŭskaja voblasć","boundary":"administrative","population:date":"2012","name":"Могилёвская область","name:uk":"Могильовська область","name:ru":"Могилёвская область","name:de":"Woblast Mahiljou","wikipedia":"ru:Могилёвская_область","name:en":"Maglieu Region","name:sk":"Mahiľovská oblasť","name:be-tarask":"Магілёўская вобласьць","addr:country":"BY","website":"http://region.mogilev.by/","ISO3166-2":"BY-MA","name:fr":"Voblast de Moguilev","name:be":"Магілёўская вобласць","name:pl":"obwód mohylewski"},"id":59162,"arcs":[[2,3,4,5]],"osm_type":"relation","name":"Могилёвская область","type":"Polygon"},{"properties":{"alt_name:be":"Менск","name:ta":"மின்ஸ்க்","name:lt":"Minskas","name:el":"Μινσκ","name:be-tarask":"Менск","name:es":"Minsk","name:mr":"मिन्‍स्‍क","name":"Минск","alt_name:vi":"Minsk;Minxcơva","name:ru":"Минск","name:nl":"Minsk","name:en":"Minsk","name:sk":"Minsk","wikipedia:ru":"Минск","name:fi":"Minsk","name:sv":"Minsk","name:lv":"Minska","name:kv":"Минск","name:udm":"Минск","name:cv":"Минск","old_name:be":"Менск","name:ast":"Minsk","name:pl":"Mińsk","name:sah":"Минскай","name:zh":"明斯克","name:is":"Minsk","name:yi":"מינסק","name:cs":"Minsk","name:kn":"ಮಿನ್ಸ್ಕ್","name:sl":"Minsk","name:la":"Minscum","name:ug":"مىنىسكى","name:uk":"Мінськ","name:rue":"Мінск","name:hr":"Minsk","name:de":"Minsk","name:sr":"Минск","name:th":"มินสก์","name:hi":"मिन्‍स्‍क","name:ml":"മിൻസ്ക്","ISO3166-2":"BY-HM","name:tg":"Минск","place":"city","website":"http://minsk.gov.by/","name:wuu":"明斯克","boundary":"administrative","name:ku":"Mînsk","name:bat-smg":"Minsks","name:ky":"Минск","name:bg":"Минск","name:eo":"Minsko","population":"1941000","admin_level":"4","name:hu":"Minszk","name:ga":"Minsc","name:mk":"Минск","name:vi":"Minxcơ","name:mhr":"Минск","name:he":"מינסק","name:cu":"Мѣньскъ","name:fa":"مینسک","capital":"yes","name:ar":"مينسك","name:ckb":"مینسک","nat_name":"Мінск","name:tt":"Минск","name:et":"Minsk","name:fr":"Minsk","addr:country":"BY","name:hy":"Մինսկ","int_name":"Minsk","name:kk":"Минск","name:ur":"منسک","name:bo":"མིན་སིཀ།","population:date":"2015","name:ja":"ミンスク","name:myv":"Минск ош","wikipedia":"be:Горад_Мінск","name:gl":"Minsk - Мінск","name:ko":"민스크","name:os":"Минск","name:pnb":"منسک","name:ka":"მინსკი","name:be":"Мінск"},"id":59195,"arcs":[[[0]],[[1]],[[6],[7],[8],[9],[10],[11],[12]]],"osm_type":"relation","name":"Минск","type":"MultiPolygon"},{"properties":{"admin_level":"4","name":"Гольф-клуб","name:ru":"Гольф-клуб","name:be":"Гольф-клуб","boundary":"administrative"},"id":191715585,"arcs":[[-13]],"osm_type":"way","name":"Гольф-клуб","type":"Polygon"},{"properties":{"admin_level":"4","name":"Гольф-клуб","name:ru":"Гольф-клуб","name:be":"Гольф-клуб","boundary":"administrative"},"id":191715585,"arcs":[[-13]],"osm_type":"way","name":"Гольф-клуб","type":"Polygon"},{"properties":{"name:pl":"obwód miński","admin_level":"4","name:lt":"Minsko sritis","population":"1403491","name":"Минская область","name:uk":"Мінська область","name:ru":"Минская область","name:de":"Minskaja Woblasz","wikipedia":"ru:Минская_область","name:en":"Minsk Region","ISO3166-2":"BY-MI","name:be-tarask":"Менская вобласьць","population:date":"2012","website":"http://minsk-region.gov.by/","addr:country":"BY","int_name":"Minskaja voblasć","name:be":"Мінская вобласць","boundary":"administrative"},"id":59752,"arcs":[[[-12]],[[-9]],[[-8]],[[-10]],[[-13]],[[-11]],[[13,14,15,16,-4],[-7],[-1],[-2]]],"osm_type":"relation","name":"Минская область","type":"MultiPolygon"},{"properties":{"admin_level":"4","name":"Национальный аэропорт \"Минск\"","name:ru":"Национальный аэропорт \"Минск\"","name:be":"Нацыянальны аэрапорт \"Мінск\"","boundary":"administrative"},"id":31148963,"arcs":[[1]],"osm_type":"way","name":"Национальный аэропорт \"Минск\"","type":"Polygon"},{"properties":{"admin_level":"4","name:ru":"Сокол","place":"suburb","name":"Сокол","name:be":"Сокал","boundary":"administrative"},"id":26788497,"arcs":[[0]],"osm_type":"way","name":"Сокол","type":"Polygon"},{"properties":{"admin_level":"4","population":"1061248","name:lt":"Gardino sritis","int_name":"Hrodzienskaja voblasć","boundary":"administrative","population:date":"2012","name":"Гродненская область","name:uk":"Гродненська область","name:ru":"Гродненская область","name:hr":"Grodnenska oblast","name:de":"Hrodsenskaja Woblasz","wikipedia":"ru:Гродненская область","name:en":"Hrodna Region","name:sk":"Hrodnianska oblasť","name:be-tarask":"Гарадзенская вобласьць","addr:country":"BY","website":"http://region.grodno.by/","ISO3166-2":"BY-HR","name:fr":"Voblast de Hrodna","name:be":"Гродзенская вобласць","name:pl":"obwód grodzieński"},"id":59275,"arcs":[[-16,-18,-19,-20]],"osm_type":"relation","name":"Гродненская область","type":"Polygon"},{"properties":{"name:pl":"obwód homelski","admin_level":"4","name:lt":"Gomelio sritis","population":"1429707","name":"Гомельская область","name:uk":"Гомельська область","name:ru":"Гомельская область","name:de":"Woblast Homel","wikipedia":"ru:Гомельская_область","name:en":"Homiel Raion","ISO3166-2":"BY-HO","name:be-tarask":"Гомельская вобласьць","population:date":"2012","website":"http://gomel-region.gov.by/","addr:country":"BY","int_name":"Homieĺskaja voblasć","name:be":"Гомельская вобласць","boundary":"administrative"},"id":59161,"arcs":[[20,-14,-3,21],[22]],"osm_type":"relation","name":"Гомельская область","type":"Polygon"},{"properties":{"admin_level":"4","population":"1391476","name:lt":"Bresto sritis","int_name":"Bresckaja voblasć","boundary":"administrative","population:date":"2012","name":"Брестская область","name:uk":"Берестейська область","name:ru":"Брестская область","name:de":"Woblast Brest","wikipedia":"ru:Брестская область","name:en":"Brest Region","name:sk":"Brestská oblasť","name:be-tarask":"Берасьцейская вобласьць","addr:country":"BY","website":"http://brest-region.by/","ISO3166-2":"BY-BR","name:fr":"Voblast de Brest","name:be":"Брэсцкая вобласць","name:pl":"obwód brzeski"},"id":59189,"arcs":[[23,17,-15,-21]],"osm_type":"relation","name":"Брестская область","type":"Polygon"},{"properties":{"admin_level":"4","population":"1214041","name:lt":"Vitebsko sritis","name:ca":"Província de Vítsiebsk","name":"Витебская область","name:uk":"Вітебська область","name:ru":"Витебская область","name:de":"Wizebskaja Woblasz","wikipedia":"ru:Витебская область","name:en":"Vitebsk Region","ISO3166-2":"BY-VI","int_name":"Viciebskaja voblasć","name:be-tarask":"Віцебская вобласьць","population:date":"2012","website":"http://vitebsk-region.gov.by/","addr:country":"BY","boundary":"administrative","name:be":"Віцебская вобласць","name:pl":"obwód witebski"},"id":59506,"arcs":[[-25,-5,-17,19]],"osm_type":"relation","name":"Витебская область","type":"Polygon"}],"type":"GeometryCollection"}},"arcs":[[[4940,5322],[-3,-2],[-2,0],[0,1],[-2,0],[-1,-5],[-5,-1],[-1,3],[-2,1],[-2,-1],[1,-1],[0,-3],[-1,0],[-6,1],[-1,0],[-3,-1],[-6,8],[0,1],[1,2],[2,2],[3,0],[2,1],[2,1],[-1,2],[-1,5],[0,4],[2,1],[0,3],[4,5],[2,2],[0,-2],[5,2],[0,-10],[-2,-3],[1,0],[1,-1],[1,0],[1,1],[8,-2],[4,-13],[-1,-1]],[[5105,5320],[-12,-13],[3,-3],[-7,-7],[-32,43],[-2,-1],[0,1],[-2,-2],[-5,6],[3,3],[-4,6],[-1,1],[-1,2],[0,-1],[-1,2],[-1,2],[-2,2],[-9,11],[-2,7],[3,3],[11,-10],[4,0],[9,7],[6,6],[-28,37],[7,7],[49,-63],[-6,-7],[25,-33],[-5,-6]],[[8536,3733],[-23,9],[-6,34],[-80,0],[-6,22],[-5,-11],[-12,11],[-17,-11],[-6,45],[-5,11],[-92,-11],[-6,11],[-11,22],[23,22],[0,45],[-12,0],[-17,11],[-6,23],[-23,-11],[-5,0],[0,44],[-35,34],[12,22],[-6,22],[-17,-11],[-12,11],[-17,-11],[-17,34],[28,31],[6,14],[12,11],[-6,11],[-11,11],[-4,0],[-88,-11],[-6,11],[-46,-11],[-17,-11],[0,-23],[-17,-11],[-46,11],[-32,-5],[1,-13],[-25,-3],[-5,-1],[-8,0],[-3,-1],[1,-8],[3,-23],[-13,0],[-7,-4],[-21,2],[0,-11],[-17,34],[-11,0],[17,45],[-104,19],[12,14],[-23,22],[17,23],[0,22],[-11,11],[-6,-33],[-6,0],[-11,-34],[-6,-11],[-34,11],[-17,-44],[-23,0],[-10,-27],[-2,-7],[-28,0],[-18,19],[-11,-8],[-23,-22],[5,-23],[-5,-11],[-23,0],[-6,11],[-23,-11],[-17,-22],[-12,4],[-22,7],[-12,-11],[0,11],[-5,11],[-35,-56],[-17,12],[-17,-12],[-12,12],[-28,-23],[-17,23],[-23,100],[-29,34],[-12,28],[-126,39],[-17,-56],[-7,1],[-4,-1],[-6,-11],[-11,22],[-23,0],[23,34],[-18,33],[-17,-11],[6,-22],[-12,0],[-22,-12],[-6,67],[-57,-33],[-46,-56],[0,-78],[17,-34],[0,-22],[6,-11],[17,-90],[-12,0],[-5,-11],[-29,0],[6,-22],[23,0],[-12,-11],[0,-23],[12,0],[-23,-33],[5,-11],[16,-4],[1,-2],[-24,-17],[-3,2],[-20,-6],[-10,-7],[-27,32],[1,21],[-1,2],[-11,-3],[2,-10],[-31,-14],[-1,-16],[-6,3],[-5,-12],[-6,-4],[15,-27],[-1,-12],[-10,-3],[1,-10],[-19,-10],[8,-26],[23,-23],[22,11],[12,-33],[-12,-11],[0,-23],[-11,0],[-17,-33],[11,0],[12,-45],[43,-37],[8,9],[17,-17],[-22,-22],[5,-22],[-5,-11],[-18,0],[-5,-12],[-29,0],[-11,23],[-6,-11],[-6,0],[-17,22],[-6,-11],[-23,11],[-34,-11],[-12,11],[-40,0],[-51,-56],[-40,-22],[-6,0],[-12,22],[-17,0],[0,22],[-11,0],[-12,-11],[-5,-11],[0,11],[-23,0],[-6,11],[-69,12],[-23,33],[-17,-11],[-40,22],[6,23],[-41,-34],[-51,-100],[0,-34],[6,-11],[-6,-11],[11,-12],[0,-22],[-17,0],[-6,-11],[-5,11],[-35,-11],[-97,-11],[0,-11],[6,-34],[-6,-11],[-34,-67],[-46,-67],[-23,11],[-23,-34],[-52,12],[-5,-23],[0,-22],[17,0],[0,-22],[23,0],[0,-34],[-58,0],[0,-11],[-11,0],[-26,-49],[-20,8],[2,7],[-12,7],[-6,0],[-11,-6],[-13,-19],[-14,15],[-8,0],[-1,4],[-10,-1],[-9,7],[-9,0],[-2,-2],[-13,0],[-9,-16],[-4,-3],[-5,0],[-8,7],[-6,-4],[-3,-12],[-18,-2],[-25,11],[-12,-1],[0,-6],[-17,2],[-1,-6],[-5,-4],[-10,21],[-19,-12],[-9,-24],[-15,13]],[[5519,2895],[2,6],[2,2],[-8,9],[4,5],[-20,32],[-35,22],[-51,17],[6,61],[57,45],[6,22],[17,67],[-23,56],[-12,0],[0,11],[6,12],[34,11],[23,44],[-5,56],[-12,0],[-28,79],[11,33],[11,11],[18,-11],[23,34],[40,-34],[5,2],[6,-2],[27,55],[-33,46],[0,44],[-11,23],[11,33],[-20,60],[13,20],[13,-1],[-17,11],[-6,33],[-17,0],[6,34],[-11,19],[-7,11],[-5,-5],[-9,-1],[-4,2],[-25,-12],[-7,3],[-16,0],[-3,-11],[-11,0],[-10,-2],[-1,6],[-14,-2],[-1,15],[7,1],[-27,25],[-1,4],[-1,0],[3,-33],[5,2],[1,-8],[2,-3],[-7,-2],[-1,-9],[-6,0],[-6,-1],[-6,1],[-15,-2],[-1,19],[6,9],[-7,41],[12,22],[-12,11],[-23,0],[-11,23],[0,-23],[-23,-22],[0,-22],[-12,11],[6,11],[-11,22],[-23,0],[-6,-22],[-11,0],[-12,22],[-34,-22],[-6,45],[-20,-1],[-32,23],[-11,0],[-6,11],[6,34],[-29,22],[-5,45],[22,-11],[33,22],[1,-1],[-2,-4],[1,-4],[2,-4],[13,-5],[79,-27],[103,0],[0,34],[103,11],[11,45],[-5,44],[-29,45],[-38,19],[-8,3],[-6,12],[0,51],[4,4],[4,-2],[8,-4],[15,-1],[-1,8],[-1,11],[6,5],[12,5],[5,12],[0,101],[-23,22],[-29,11],[-20,8],[-3,4],[9,7],[6,-5],[6,5],[-1,17],[9,-3],[11,7],[6,-4],[2,-7],[0,-7],[13,-1],[10,-5],[6,8],[3,2],[2,11],[-1,2],[6,8],[14,-5],[37,50],[6,9],[5,-11],[18,11],[0,11],[-6,11],[11,0],[12,-33],[6,-10],[11,15],[-3,9],[20,6],[19,-6],[8,8],[2,9],[-4,12],[-15,-6],[-1,4],[-7,4],[0,6],[-5,6],[-3,-2],[-2,-2],[4,-5],[0,-5],[6,-4],[4,-6],[0,-7],[-5,1],[-12,0],[-35,17],[0,11],[35,34],[57,0],[0,34],[34,0],[-11,22],[6,22],[11,11],[-6,23],[92,-67],[75,0],[0,33],[37,13],[4,-23],[5,2],[11,-25],[6,0],[34,-11],[19,-25],[15,-20],[12,-45],[43,-5],[-2,-16],[11,0],[5,10],[-11,22],[5,11],[-5,12],[-6,33],[23,0],[-26,23],[3,11],[17,0],[7,7],[16,15],[6,-11],[23,0],[17,-11],[17,11],[6,-11],[11,0],[18,22],[-6,22],[-12,0],[6,45],[-11,22],[5,12],[23,-12],[17,23],[-11,33],[6,45],[23,0],[5,-22],[12,0],[6,11],[5,0],[23,-45],[23,0],[12,22],[40,12],[11,22],[46,22],[17,34],[0,56],[6,11],[17,0],[29,-45],[23,0],[5,11],[-5,56],[11,-11],[12,22],[11,0],[-40,23],[6,22],[91,0],[12,11],[6,34],[-35,11],[-6,11],[-34,0],[-6,34],[-51,-11],[-12,11],[23,11],[32,36],[-9,20],[-11,11],[0,11],[-6,11],[-11,12],[11,11],[11,33],[-11,11],[-11,23],[0,56],[-23,22],[11,34],[-6,33],[-28,22],[0,12],[17,22],[63,45],[23,-12],[-12,23],[12,33],[-6,56],[12,11],[-3,19],[-2,19],[-13,7],[-11,11],[23,23],[11,56],[-11,11],[0,11],[23,22],[-6,11],[11,12],[-11,11],[17,11],[-17,0],[0,11],[-11,11],[0,11],[-35,0],[0,34]],[[6490,6078],[23,11],[17,-22],[17,22],[12,0],[0,11],[6,12],[17,-12],[17,34],[0,33],[17,0],[6,34],[17,11],[29,-11],[0,11],[-12,34],[18,33],[45,11],[0,-11],[41,-22],[34,-45],[23,22],[34,0],[23,-11],[4,14],[8,20],[34,-23],[29,34],[28,-22],[17,22],[0,22],[18,0],[5,-22],[-9,-15],[21,-41],[-12,-11],[34,-32],[9,5],[5,2],[15,3],[12,0],[4,-5],[-2,-3],[-2,-4],[0,-22],[34,0],[0,-11],[17,11],[-22,56],[0,22],[22,0],[18,-22],[11,11],[0,11],[23,0],[0,11],[-29,12],[-11,33],[6,11],[11,-11],[17,0],[12,-11],[0,-11],[11,-11],[10,10],[-2,20],[8,7],[7,15],[-23,26],[-5,11],[11,22],[46,0],[17,-22],[23,-45],[1,-32],[4,0],[1,3],[28,7],[6,22],[-11,23],[11,11],[29,-22],[25,0],[8,-9],[13,-3],[11,67],[23,12],[6,-12],[-12,-33],[6,-22],[-7,-30],[-11,-12],[-9,-7],[-8,-1],[-4,-3],[-2,-5],[0,-11],[-10,-17],[0,-9],[-6,-28],[28,-12],[12,12],[34,-23],[17,56],[18,11],[17,0],[11,-11],[12,11],[0,34],[11,11],[6,-11],[11,0],[2,-34],[8,-33],[19,0],[6,-56],[28,22],[6,-33],[23,-11],[-11,0],[5,-12],[6,0],[6,-11],[5,11],[-5,12],[-6,22],[40,0],[-34,22],[17,11],[23,34],[-17,11],[11,11],[17,45],[23,0],[6,22],[-17,23],[-23,11],[0,11],[34,11],[6,0],[32,21],[15,-9],[39,22],[-17,44],[11,0],[0,23],[23,0],[17,-11],[17,0],[6,-12],[40,0],[-5,-33],[11,0],[40,11],[40,-22],[29,22],[-6,11],[6,23],[11,11],[0,22],[23,22],[23,-44],[29,0],[11,-11],[23,11],[12,-56],[11,0],[6,11],[23,34],[6,22],[40,11],[11,22],[17,0],[18,12],[-18,22],[12,11],[17,0],[11,-11],[38,11]],[[8373,6536],[0,-1],[1,-6],[7,3],[2,2],[6,2],[5,-3],[2,-2],[1,-1],[6,-2],[1,-9],[1,-17],[1,-7],[2,-14],[0,-6],[-2,-7],[-1,-4],[1,-1],[3,-3],[6,-1],[4,-5],[3,-7],[2,-13],[1,-10],[3,-12],[4,-8],[4,-4],[3,-3],[2,-1],[0,-5],[-4,-8],[-7,-6],[-2,-11],[-4,-6],[-3,-6],[-1,-5],[5,-3],[9,4],[6,-1],[4,-2],[5,-6],[7,0],[3,-4],[4,-6],[9,-2],[0,-1],[5,-6],[5,-10],[2,-4],[1,-5],[-1,-9],[-2,-5],[0,-7],[6,-2],[3,-3],[1,-5],[0,-6],[-4,-3],[-15,-15],[-1,0],[-8,-11],[-6,-7],[0,-6],[4,-4],[10,-2],[1,0],[7,2],[6,3],[5,-2],[3,-7],[-3,-5],[-6,-8],[0,-4],[6,-11],[3,-4],[-1,-5],[-9,-23],[-1,-11],[-1,-14],[3,-23],[0,-13],[2,-8],[5,-9],[7,-1],[3,3],[5,6],[4,2],[3,-4],[2,-5],[5,-4],[6,-1],[6,-7],[4,-1],[22,-12],[0,-11],[2,-5],[0,-2],[4,2],[5,2],[3,-2],[1,-4],[5,-1],[3,2],[1,3],[5,-4],[0,-8],[-4,-3],[-4,0],[-8,6],[-6,3],[-5,-4],[-3,-7],[-3,-6],[2,-6],[4,-2],[6,5],[11,0],[12,-2],[13,-3],[8,-2],[5,-3],[5,-7],[1,-5],[2,-5],[0,-1],[1,1],[0,-1],[2,0],[0,1],[1,0],[1,1],[1,0],[0,-3],[2,0],[0,-1],[3,0],[0,-1],[1,1],[1,-1],[1,0],[0,-1],[1,0],[0,-1],[1,0],[0,-1],[1,-1],[1,0],[-4,-3],[1,-2],[3,-6],[2,-4],[9,-1],[1,-1],[1,0],[0,-2],[1,-1],[1,-2],[1,-1],[0,-4],[1,-2],[0,-1],[2,1],[1,1],[1,0],[0,2],[2,0],[0,2],[1,1],[4,1],[-1,1],[1,2],[1,1],[1,-1],[2,-4],[3,-2],[4,-8],[-1,-6],[-3,-8],[-1,-9],[-2,-4],[0,-7],[3,-5],[8,-4],[11,1],[7,-3],[5,-7],[4,-2],[6,3],[4,2],[9,-4],[6,-3],[4,-5],[0,-8],[2,-9],[5,-6],[7,-2],[6,5],[8,-1],[5,-3],[6,-7],[10,3],[8,3],[6,0],[7,-2],[6,-2],[12,3],[11,15],[2,-1],[1,-1],[0,-2],[-1,0],[-1,-1],[-1,0],[0,-1],[1,-2],[1,-1],[0,-1],[-1,1],[-2,1],[-1,0],[-1,-1],[0,-1],[1,-2],[0,-1],[-1,1],[-1,-1],[0,-1],[2,-1],[1,-2],[1,-2],[2,-1],[2,1],[4,-2],[4,-6],[1,-4],[4,-6],[-1,-1],[1,-3],[4,-2],[1,-3],[2,0],[0,-2],[1,-3],[0,-7],[-2,-2],[0,-8],[-3,-1],[1,-5],[5,-7],[10,6],[8,2],[3,3],[8,5],[8,2],[16,7],[0,-19],[9,-3],[8,5],[-2,3],[3,4],[3,3],[7,-3],[5,7],[4,-1],[7,1],[3,-1],[2,-1],[-1,-5],[-1,-6],[-1,-11],[-2,-12],[-2,-12],[-4,-9],[-10,-3],[-1,-2],[0,-10],[23,0],[4,4],[2,0],[3,-2],[2,-3],[0,-4],[10,13],[3,-3],[5,10],[11,3],[1,5],[5,4],[4,11],[5,-3],[-8,-13],[9,-4],[3,-4],[3,-5],[4,-2],[4,3],[6,9],[5,1],[3,-3],[2,-7],[7,-9],[9,11],[22,5],[4,-8],[-16,-25],[-1,-2],[1,-4],[1,-3],[3,0],[4,-5],[1,-6],[0,-1],[-2,-2],[-5,-5],[15,-9],[-1,-1],[-3,0],[-2,-2],[-1,-1],[1,-2],[2,-2],[1,-2],[0,-1],[-2,-2],[-3,2],[-1,0],[-1,-1],[-2,-14],[-1,-7],[-1,-8],[-2,-4],[-5,-3],[-2,-5],[-2,-6],[-4,-5],[-3,-4],[-1,-6],[-5,-5],[-2,-3],[-1,-5],[0,-2],[-5,-3],[-1,-5],[4,-4],[17,-13],[17,-5],[1,-56],[-1,-1],[-1,1],[0,-1],[-1,0],[-1,-1],[-2,0],[0,-1],[-2,0],[-1,1],[0,-1],[-2,0],[-2,1],[-1,0],[-1,-1],[-4,0],[0,-2],[-1,0],[0,-1],[-1,0],[0,-2],[-1,0],[-1,-1],[0,-1],[-2,0],[-1,-1],[0,-3],[-1,-2],[-1,0],[-3,-1],[-3,1],[-2,0],[-1,-1],[-1,-1],[1,-2],[2,-2],[1,-1],[0,-1],[-1,0],[-1,-1],[-2,-1],[0,-1],[-3,-4],[-3,0],[-1,1],[-1,0],[-1,-1],[0,-1],[-1,0],[-1,-1],[0,-1],[1,-2],[1,0],[1,1],[1,1],[1,0],[1,-1],[1,0],[0,-11],[-3,-4],[0,-2],[4,0],[1,-1],[1,-2],[0,-2],[-2,-1],[-2,0],[-1,-2],[3,-2],[2,-2],[1,-1],[0,-2],[-1,-2],[-1,-2],[-1,0],[-2,-1],[1,-3],[4,-7],[0,-4],[-3,-4],[0,-2],[2,-3],[3,-4],[0,-1],[-2,-2],[-1,-1],[1,-1],[-1,-1],[-1,0],[-1,-1],[-1,0],[-3,1],[-2,3],[-1,1],[0,1],[-1,1],[-3,0],[-1,-1],[0,-4],[1,-1],[0,-1],[-1,-2],[-3,-2],[0,-2],[1,-1],[3,1],[1,-1],[1,0],[2,-5],[0,-3],[-2,-2],[-2,-3],[-4,1],[-7,1],[0,-5],[-1,-3],[-3,-3],[-1,-5],[1,-3],[0,-9],[3,-2],[0,-10],[1,-4],[-1,-2],[-6,-3],[-3,-1],[-3,-2],[-4,-1],[-3,-2],[-2,-2],[-6,0],[-2,1],[-2,-1],[-1,-1],[0,-1],[-1,-1],[0,-2],[5,0],[0,-1],[1,-2],[4,-3],[2,-4],[1,0],[2,1],[0,1],[1,2],[3,2],[2,0],[1,-2],[-4,-5],[0,-4],[3,-1],[0,-3],[-1,-2],[9,0],[11,3],[2,-1],[-6,-14],[-6,-2],[-2,1],[-4,4],[-2,3],[-6,-5],[0,-5],[-2,-7],[-6,2],[-11,2],[-6,1],[-3,-8],[1,-5],[-1,-3],[-3,-5],[-3,-1],[0,-5],[1,-3],[1,-1],[1,1],[1,2],[4,1],[0,-3],[2,-2],[2,1],[2,-2],[0,-3],[-2,-4],[-2,-1],[-1,-3],[-1,0],[-1,1],[-3,0],[-1,-1],[1,-3],[-3,-2],[-3,2],[-1,5],[-2,2],[-8,-1],[-5,-6],[-3,-1],[-3,1],[-2,0],[0,-3],[2,-2],[2,-3],[3,-3],[2,-1],[-1,-3],[-3,-1],[0,-3],[1,-2],[1,-1],[2,-1],[1,1],[2,3],[1,1],[1,0],[2,-2],[1,-7],[0,-2],[-1,-2],[-1,-1],[1,-6],[1,-4],[2,-2],[-1,-1],[-1,-2],[-1,-2],[1,-3],[-1,-3],[-2,0],[0,1],[1,3],[-1,2],[-2,0],[-1,-2],[0,-3],[1,-1],[1,-1],[1,-2],[1,-4],[-1,-2],[-2,-1],[-1,1],[-1,2],[-2,0],[-1,-1],[1,-2],[-1,-1],[1,-1],[1,0],[1,1],[1,0],[0,-6],[-1,0],[-2,1],[-1,1],[-2,0],[0,-4],[2,-2],[1,-2],[2,-2],[1,0],[1,-1],[0,-1],[1,0],[1,-1],[1,0],[1,1],[1,1],[-1,0],[-1,1],[-1,0],[-2,2],[1,1],[0,2],[3,0],[0,1],[1,0],[2,-1],[3,-1],[1,0],[1,2],[0,1],[-1,1],[-2,0],[0,1],[1,1],[0,1],[-1,0],[0,2],[2,0],[1,-1],[0,1],[1,1],[-1,1],[-1,-1],[-1,1],[1,1],[1,2],[0,1],[-1,1],[-3,0],[0,1],[2,0],[2,2],[0,1],[1,0],[-1,-1],[0,-1],[1,-1],[1,-1],[2,0],[2,1],[1,-1],[-1,-2],[0,-1],[2,0],[2,2],[-1,3],[1,4],[1,1],[1,0],[2,-1],[2,1],[3,-1],[2,2],[5,0],[1,-1],[2,-2],[3,2],[1,0],[1,-1],[-1,-4],[0,-3],[-1,-2],[-2,1],[0,1],[-1,0],[-1,-1],[0,-1],[1,0],[1,-1],[0,-2],[1,0],[2,-1],[2,1],[0,1],[1,1],[1,0],[0,-2],[1,-1],[2,0],[1,1],[1,0],[1,1],[-1,1],[-1,0],[0,2],[3,0],[4,-2],[2,-4],[3,-4],[3,-4],[2,-2],[2,1],[1,1],[0,3],[1,0],[-1,-2],[0,-2],[2,0],[-1,-2],[1,-1],[3,0],[1,-1],[1,-3],[1,-2],[1,0],[0,-1],[1,1],[0,4],[1,1],[1,0],[1,-1],[2,-2],[1,-1],[0,-2],[1,-3],[1,-2],[0,-2],[1,-1],[2,2],[1,0],[1,1],[1,-1],[0,-6],[1,-1],[3,0],[2,-1],[0,-1],[2,0],[1,1],[0,2],[-1,1],[2,0],[2,2],[0,2],[2,0],[0,-2],[1,-3],[1,-1],[1,1],[2,0],[2,-1],[2,1],[2,-1],[2,-2],[1,-2],[0,-2],[-1,-3],[1,-2],[4,0],[3,-1],[0,-1],[1,-2],[1,-2],[2,-1],[1,0],[0,1],[1,3],[1,3],[1,3],[0,1],[-1,2],[0,2],[2,1],[0,3],[2,4],[1,2],[1,0],[1,-1],[0,-1],[2,-1],[1,1],[0,1],[3,1],[1,-2],[3,0],[0,2],[1,2],[0,1],[2,1],[4,-1],[0,-3],[1,-1],[1,1],[-1,2],[0,2],[1,0],[0,1],[1,0],[4,-2],[1,-2],[5,0],[2,-2],[1,0],[0,-3],[2,-1],[1,0],[1,2],[1,2],[1,-1],[1,-1],[-1,-1],[0,-1],[-1,-1],[1,-2],[1,0],[2,2],[1,0],[1,-1],[1,0],[0,2],[1,2],[0,5],[-1,1],[1,1],[0,2],[1,-1],[0,-1],[2,0],[2,2],[0,-1],[1,-1],[2,0],[2,1],[2,2],[1,0],[1,-2],[0,-1],[2,-1],[1,0],[0,3],[1,5],[3,1],[3,1],[2,2],[1,2],[0,3],[2,1],[1,4],[2,2],[1,5],[2,-1],[4,4],[4,-2],[9,3],[1,-2],[8,0],[1,-5],[6,0],[6,3],[10,-5],[5,-1],[4,-1],[8,-1],[1,0],[-1,5],[-6,9],[7,2],[4,-1],[11,-4],[5,2],[6,-1],[6,-2],[5,5],[4,4],[4,-5],[3,5],[5,13],[22,2],[6,6],[6,-7],[0,-4],[8,0],[-1,-11],[1,-4],[4,1],[6,-1],[-1,-7],[4,-1],[23,-4],[1,-8],[1,-6],[3,4],[7,8],[3,-2],[0,-3],[1,-1],[2,0],[0,1],[2,0],[2,-2],[1,0],[0,-2],[3,0],[0,2],[2,3],[2,1],[1,3],[3,2],[13,-30],[3,-2],[1,-5],[-5,1],[-3,-5],[4,-19],[10,-9],[28,0],[5,14],[24,7],[3,-5],[4,-7],[-5,-3],[-19,-12],[4,-9],[12,8],[4,-2],[1,1],[7,-4],[11,2],[6,-3],[3,3],[6,-4],[4,-6],[11,-9],[4,-2],[6,0],[6,-12],[-1,-2],[3,-6],[5,-3],[-2,-20],[4,-18],[11,-6],[4,1],[18,19],[5,5],[19,3],[1,-6],[9,1],[12,7],[6,2],[7,7],[15,2],[-1,-17],[-1,-5],[4,-12],[8,-2],[10,-2],[1,0],[11,-14],[8,-11],[0,-4],[1,-7],[1,-4],[-1,-3],[0,-3],[-2,-3],[2,-4],[0,-2],[-1,-2],[0,-2],[1,-2],[1,0],[0,-4],[-1,-1],[-1,-3],[-2,-3],[2,-5],[-10,-8],[-2,7],[-2,3],[-1,0],[0,-2],[-2,-2],[-3,0],[-1,-2],[-2,-1],[-4,-2],[-1,1],[-5,-4],[-2,-4],[-2,-3],[-5,-4],[-2,-1],[-2,-5],[-3,2],[-6,0],[-3,2],[-2,3],[-3,1],[-2,1],[-1,-1],[1,-1],[-1,-1],[-3,-1],[-3,2],[-1,0],[-1,-1],[-1,-1],[-2,-12],[-7,0],[-4,1],[0,-20],[-1,-9],[3,0],[3,-3],[2,-3],[-2,-6],[-3,-8],[3,-2],[-1,-10],[14,-8],[-1,4],[-1,2],[-1,10],[4,0],[1,3],[-4,2],[1,4],[-2,3],[1,5],[-1,5],[1,3],[2,1],[2,-4],[4,-13],[5,-5],[7,-7],[-10,-14],[1,-5],[0,-11],[-3,-7],[0,-10],[-3,-4],[-3,-3],[-7,-7],[5,-20],[5,-7],[8,-1],[4,-10],[1,-5],[1,-2],[7,-6],[2,-6],[-1,-3],[2,-3],[1,-3],[3,-3],[6,-4],[7,-3],[4,-3],[4,-3],[0,-3],[-1,-4],[-6,-9],[0,-11],[3,-10],[1,-1],[4,1],[3,1],[3,0],[4,-1],[2,1],[14,-8],[3,-1],[2,0],[0,-3],[2,-1],[2,0],[0,1],[1,0],[0,-1],[1,1],[0,-1],[1,0],[0,-1],[1,0],[0,-1],[1,0],[1,-1],[1,0],[-1,-1],[1,0],[0,-3],[1,0],[0,-3],[1,0],[0,-2],[1,0],[0,-2],[1,0],[0,-3],[1,0],[0,-1],[1,0],[1,-1],[3,0],[1,-2],[5,-2],[2,-1],[1,0],[0,-1],[3,-3],[0,-3],[3,0],[0,-1],[1,1],[1,-1],[1,-1],[1,0],[1,-1],[-1,-1],[0,-2],[-2,0],[0,-1],[-2,-2],[-1,0],[0,1],[-1,-1],[0,-1],[-1,-1],[-1,0],[0,-1],[1,0],[1,-1],[-1,-2],[-2,0],[-1,-2],[0,-1],[1,-2],[-1,-1],[1,-2],[3,2],[3,0],[5,1],[3,1],[11,0],[1,1],[5,-1],[7,-3],[4,-3],[6,5],[16,-11],[0,-17],[2,-3],[-2,-6],[-1,-5],[0,-4],[1,-4],[3,1],[3,-5],[-5,-26],[13,0],[8,-8],[3,4],[0,1],[7,7],[3,11],[-1,8],[2,25],[9,4],[8,-19],[20,-12],[7,-9],[7,-7],[-11,-3],[-3,-5],[-3,1],[-4,-1],[-5,4],[-2,-1],[-1,-11],[-3,-7],[20,-13],[9,-2],[5,3],[8,-1],[5,-1],[9,-2],[17,-4],[12,0],[3,3],[17,-7],[-4,-7],[0,-12],[-5,-7],[2,-9],[3,-12],[2,-5],[1,-3],[7,-9],[0,-5],[-4,-3],[-4,-1],[-5,9],[-2,-1],[-3,-3],[-7,-4],[0,-7],[5,-4],[-1,-6],[-1,-3],[-2,-3],[0,-6],[4,-8],[4,-9],[6,-2],[2,-4],[-4,0],[-2,-3],[-7,1],[-2,1],[-2,-1],[-1,-3],[1,-3],[4,-6],[-1,-6],[-12,-14],[-5,-6],[-3,-7],[2,-5],[0,-1],[1,-3],[1,-2],[1,-6],[1,-3],[1,-6],[4,-12],[6,-15],[-2,-14],[-1,-4],[-3,-13],[-10,-3],[-7,0],[-5,2],[-3,2],[-7,-4],[-8,0],[-7,5],[0,9],[-2,7],[-6,-1],[-8,-8],[-11,-9],[-37,-5],[-4,9],[-2,10],[-5,1],[-3,-2],[-2,-5],[-1,-6],[2,-7],[2,-10],[1,-2],[0,-8],[-4,-7],[-1,-2],[-3,-2],[-9,-1],[-6,-6],[-1,-7],[1,-9],[-5,-6],[-1,-9],[-1,-8],[-3,-4],[-3,3],[-2,2],[-6,10],[-2,-2],[-13,9],[-5,0],[-6,2],[-6,1],[-3,-4],[-3,-6],[-15,-3],[0,21],[-7,1],[-5,-4],[-8,-1],[-9,0],[-6,-2],[-3,-10],[9,-2],[16,-6],[0,-27],[-10,-13],[-1,-7],[0,-6],[-3,-7],[-1,-6],[-1,-3],[-1,-2],[0,-8],[-1,-5],[-2,-4],[-3,-3],[0,-1],[-2,-2],[-1,-2],[-1,-4],[-2,-5],[-1,-2],[-2,-4],[0,-1],[-2,-3],[-1,-1],[-3,-2],[-2,-3],[-2,-2],[0,-7],[-3,-5],[-4,-6],[-3,-4],[-5,-6],[-1,-4],[-1,-3],[1,-5],[-3,-4],[-2,-7],[-1,-2],[-2,-1],[-6,0],[-5,-1],[-3,-3],[-2,-4],[0,-12],[-5,-4],[-4,-4],[-9,-16],[-13,4],[-8,3],[-16,4],[-1,-5],[-9,-4],[-12,-4],[-13,-18],[-6,-9],[3,-15],[2,-12],[-5,-7],[-6,-9],[-1,-13],[-7,-5],[-3,-4],[-13,-11],[-3,-6],[-5,-8],[-15,-3],[-9,1],[-8,0],[-6,1],[-5,2],[-2,4],[-5,2],[-6,-1],[-4,-3],[-1,-3],[-2,-1],[-1,-5],[0,-5],[-2,-3],[-4,-5],[0,-4],[2,-5],[-1,-5],[0,-2],[1,-4],[-3,-6],[-1,-4],[3,-3],[0,-6],[-1,-1],[-17,10],[-7,1],[-10,7],[-5,0],[-11,2],[-3,-2],[-8,-6],[-2,-6],[-1,-4],[-3,-5],[2,-10],[0,-7],[-6,-4],[-8,-2],[-9,-6],[-9,0],[-6,-2],[-6,-1],[-11,-4],[-10,-3],[-2,-1],[-6,-1],[-9,-2],[-14,2],[-4,2],[-9,2],[-5,4],[-8,9],[-5,-1],[-1,0],[-1,-1],[-5,2],[-3,2],[-5,1],[-5,3],[-4,1],[-11,4],[-1,8],[1,7],[1,4],[-14,-7],[-14,-7],[0,-16],[-6,-1],[-8,1],[-8,0],[-6,-1],[-5,0],[-7,1],[-10,-1],[-10,-4],[-7,4],[-7,3],[-8,5],[9,33],[-5,3],[-21,10],[-11,6],[0,-2],[-7,3],[-4,-11],[-2,1],[-5,-6],[-2,1],[-3,1],[-8,2],[-6,1],[-3,1],[-18,1],[-3,2],[-2,3],[-1,4],[-2,6],[-3,4],[-3,5],[-3,4],[-4,0],[-1,2],[-2,6],[0,8],[-2,2],[-1,3],[-4,5],[-1,3],[-2,3],[-1,3],[-2,9],[2,7],[-3,9],[-2,5],[0,5],[-2,9],[0,15],[2,2],[0,3],[-2,5],[0,3],[-5,6],[-13,1],[-4,2],[-3,4],[-1,2],[-8,8],[-6,13],[-1,1],[-1,0],[-3,4],[-2,5],[-2,-1],[-3,0],[0,-1],[-1,1],[-1,0],[-1,-1],[0,-2],[-2,-2],[-1,-3],[-1,0],[-2,-1],[-2,-2],[-2,0],[-1,2],[-1,0],[-1,1],[-1,0],[-5,9],[-8,8],[-2,2],[-4,3],[-10,5],[-11,4],[-7,2],[-4,2],[-5,-1],[-4,0],[-1,1],[-4,6],[0,1],[-1,1],[0,3],[-2,1],[-1,-1],[-1,1],[0,1],[-3,0],[0,1],[-2,1],[-2,-1],[-3,0],[-2,2],[-2,0],[-10,13],[-6,9],[-9,-15],[-5,-14],[-7,-7],[-9,-7],[-6,-8],[0,-1],[-2,-9],[-6,-10],[-9,-5],[-12,0],[-3,-3],[-21,-3],[-5,16],[-7,3],[-12,-4],[-1,-1],[-8,5],[-12,9],[-18,0],[-11,4],[-7,6],[-7,2],[-6,-4],[-7,2],[-7,1],[-14,-1],[-11,2],[-8,3],[-7,0],[4,-12],[2,-7],[-2,-10],[8,-9],[1,-6],[4,-5],[-2,-9],[-1,-8],[0,-2],[-3,-7],[-14,-8],[-5,-12],[4,-8],[-4,-10],[-10,-7],[-10,-10],[-2,-3],[-4,-6],[-6,1],[1,-11],[2,-10],[0,-8],[-1,-2],[0,-4],[2,-3],[3,1],[6,1],[9,-6],[2,-5],[9,-11],[2,-6],[2,-6],[-10,-4],[2,-23],[-19,0],[-13,-1],[0,-7]],[[4873,5330],[0,-3],[-4,-1],[-1,-1],[-3,0],[-4,-1],[-1,-1],[-2,0],[-6,-3],[-7,0],[-16,2],[-3,1],[-14,1],[-12,2],[-5,0],[-9,-5],[-2,-1],[-10,-6],[0,-5],[-3,-8],[10,3],[6,1],[5,1],[12,0],[2,5],[9,-5],[2,-4],[1,-3],[0,-1],[-1,-1],[0,-2],[1,-1],[2,-1],[-1,0],[1,-1],[1,0],[1,-1],[2,-1],[2,0],[0,-1],[6,-2],[2,-3],[7,0],[-3,-20],[-6,-6],[-2,3],[-3,-1],[-6,-4],[-4,-1],[1,-3],[-7,1],[-6,0],[-2,-1],[-1,-3],[1,-4],[0,-22],[-9,0],[0,-1],[-1,0],[-1,2],[-1,-1],[0,1],[-1,0],[-4,-1],[-5,-2],[-1,-1],[-5,0],[-4,4],[-4,4],[-2,1],[-1,1],[-1,1],[-2,1],[-1,1],[-1,0],[0,3],[-9,8],[-8,9],[-1,0],[0,-1],[-2,-2],[-3,0],[0,1],[-1,0],[0,-2],[1,0],[0,-1],[-1,-2],[-1,-1],[-1,0],[-1,-1],[0,-6],[1,0],[0,-2],[-2,-3],[1,-2],[0,-1],[-4,0],[0,2],[-1,1],[-3,0],[0,-1],[-1,0],[-1,1],[-2,0],[-5,3],[2,-4],[2,-2],[5,-6],[0,-3],[1,-1],[0,-1],[-1,-1],[2,-2],[1,-1],[1,-2],[3,-4],[-5,-5],[-1,1],[-1,-2],[0,-1],[-12,-16],[-1,-1],[-3,-2],[-1,0],[-1,-1],[-1,0],[-1,1],[-2,0],[-1,1],[-1,0],[-2,1],[-1,0],[-2,1],[-4,2],[-2,2],[-1,0],[0,-1],[-2,2],[1,3],[1,1],[0,1],[2,4],[1,2],[2,2],[0,2],[1,0],[1,2],[0,1],[1,1],[1,1],[-1,1],[-1,0],[-1,1],[-1,0],[-1,1],[0,-1],[-2,-2],[-1,-1],[-7,8],[-1,2],[4,4],[-2,2],[-1,-1],[-1,-1],[-2,0],[0,-1],[-1,-1],[0,-1],[-1,0],[1,-1],[-1,0],[0,-2],[-1,0],[0,-2],[-1,-2],[0,-2],[-1,-1],[0,-1],[-1,-4],[-1,-2],[-2,0],[1,1],[0,2],[1,0],[0,2],[1,2],[1,3],[0,3],[1,2],[1,3],[1,2],[1,0],[-1,2],[1,0],[1,1],[2,2],[4,3],[3,1],[1,1],[1,0],[2,1],[2,3],[1,2],[0,4],[-1,2],[-1,3],[-3,1],[-1,4],[-2,4],[-2,3],[-1,2],[-1,-1],[-2,-3],[-1,-3],[-3,-5],[-3,-2],[-2,-2],[-2,-1],[-3,-2],[-1,-1],[-2,0],[-3,-1],[-3,-1],[-5,0],[-4,-1],[-50,0],[-7,-1],[-2,0],[-2,-1],[1,-3],[1,-4],[2,-5],[0,-2],[1,-2],[0,1],[2,1],[6,1],[3,-1],[1,-3],[-1,-15],[2,-2],[3,-6],[0,-2],[1,-1],[2,-4],[1,-2],[-1,-4],[-1,0],[1,-1],[0,-1],[-2,0],[2,-6],[0,-2],[-6,-2],[1,-3],[4,2],[0,-1],[-4,-2],[2,-6],[-7,-3],[-2,6],[1,3],[0,1],[2,1],[3,2],[-3,7],[-3,-1],[0,-2],[-1,0],[0,-3],[-1,0],[0,1],[-1,1],[-3,10],[-1,1],[-5,14],[-2,6],[-1,0],[-2,-1],[-1,1],[2,2],[2,0],[-1,4],[-1,3],[0,2],[-2,1],[0,3],[3,0],[1,-1],[4,0],[1,1],[1,0],[-1,3],[-4,13],[-1,1],[-21,0],[-2,1],[-14,3],[-3,0],[-2,-2],[0,-1],[-1,0],[-4,5],[-23,5],[-6,0],[-2,2],[-7,1],[-10,2],[-3,0],[0,-2],[-1,-1],[0,-2],[-1,-1],[0,-3],[-1,0],[-2,2],[0,-3],[-2,1],[0,3],[-1,0],[-2,-2],[-1,-1],[-1,-1],[-1,2],[1,0],[0,1],[-1,0],[-1,2],[0,-1],[-1,2],[-1,-1],[-1,1],[3,5],[0,3],[-2,1],[-4,0],[-4,1],[-1,0],[-2,1],[-4,1],[-3,1],[-3,2],[-2,2],[-2,1],[-3,3],[-1,-1],[-1,-1],[-1,-1],[0,7],[-2,3],[-1,2],[-2,2],[-2,5],[-1,4],[-1,5],[-1,4],[-3,11],[-1,3],[-8,-1],[-4,0],[0,-3],[-14,0],[0,-7],[3,0],[-1,-7],[-5,1],[-7,4],[-5,5],[-8,12],[4,0],[7,4],[1,4],[9,0],[0,-3],[5,0],[0,15],[5,0],[1,-2],[3,0],[0,6],[3,0],[0,-11],[3,0],[1,2],[1,4],[0,1],[-2,9],[-3,10],[-1,0],[2,-9],[-1,-1],[-8,-1],[0,2],[-1,0],[0,1],[-2,2],[-1,1],[-1,1],[1,1],[0,1],[1,0],[0,6],[1,2],[0,2],[-2,2],[0,10],[-1,2],[1,1],[1,-1],[0,-10],[1,-1],[0,-2],[1,-1],[0,-2],[-1,-4],[1,-3],[-1,-1],[3,1],[6,1],[1,1],[0,2],[-2,6],[-1,6],[-1,5],[0,1],[-1,1],[1,0],[-1,3],[1,3],[0,6],[1,1],[0,2],[-1,2],[-2,1],[-1,1],[-2,0],[0,1],[2,0],[4,2],[1,0],[1,1],[1,4],[0,1],[1,5],[2,8],[3,7],[3,8],[3,6],[2,4],[3,5],[1,3],[1,1],[1,2],[2,2],[2,3],[1,2],[-1,1],[-2,2],[-1,2],[0,1],[1,-1],[1,-1],[2,0],[3,1],[1,1],[1,2],[2,3],[0,4],[-1,0],[-1,1],[0,1],[5,0],[0,1],[1,0],[1,1],[1,0],[1,2],[1,2],[4,6],[4,6],[2,2],[1,2],[2,2],[3,2],[2,1],[2,2],[2,1],[2,0],[4,1],[3,1],[3,0],[4,1],[9,0],[5,1],[5,0],[3,2],[4,0],[3,-1],[1,0],[9,1],[7,0],[0,1],[1,0],[3,1],[5,0],[0,-1],[7,1],[8,0],[6,1],[9,1],[7,0],[8,1],[5,0],[3,-1],[3,0],[2,-1],[1,2],[0,-2],[2,-1],[1,2],[1,-1],[-1,-2],[4,-2],[10,-7],[1,0],[2,-2],[5,-3],[4,-2],[1,-1],[1,1],[1,-2],[1,0],[2,1],[4,1],[-1,0],[-1,2],[5,2],[0,1],[-2,-2],[-3,4],[2,2],[0,3],[5,-1],[4,-1],[1,0],[0,-1],[-1,-3],[0,-2],[-1,-1],[0,-1],[-1,0],[-1,-1],[-2,0],[-4,-1],[0,-2],[-1,0],[-1,-1],[-1,-2],[1,-1],[0,-1],[1,1],[2,2],[1,-1],[-1,-3],[-1,0],[7,-5],[1,0],[19,-14],[0,1],[1,0],[0,-1],[5,-4],[0,1],[-2,1],[0,3],[1,1],[1,1],[-1,1],[1,0],[6,4],[1,-1],[1,-1],[0,-2],[1,-1],[2,1],[5,3],[-1,2],[1,0],[0,-1],[2,0],[0,1],[2,2],[2,1],[1,0],[4,2],[0,4],[-2,0],[-2,-2],[-1,1],[1,1],[-1,1],[1,2],[2,-1],[3,1],[1,-1],[1,6],[14,0],[13,-3],[3,-1],[3,-2],[10,9],[1,-2],[4,4],[2,-4],[3,-1],[1,-1],[2,-11],[0,-3],[-3,-5],[-4,1],[1,-9],[2,0],[2,-13],[0,-1],[-1,1],[-1,-1],[-3,0],[-5,1],[-3,-1],[3,-11],[-1,1],[-3,-1],[2,-4],[-4,-1],[1,-1],[-5,-3],[-1,1],[-3,-1],[-6,0],[0,-1],[1,-1],[1,-1],[1,-2],[0,-4],[8,-3],[24,10],[-7,-17],[0,-1],[2,0],[8,-4],[-4,-4],[0,-1],[-3,-5],[0,-1],[1,0],[0,-2],[30,-23],[0,-3],[1,0],[0,-2],[9,0],[0,2],[3,0],[5,1],[30,0],[1,-2],[2,2],[1,1],[4,5],[2,-2],[3,-2],[6,2],[1,0],[0,-6],[9,0],[0,-45]],[[4425,5318],[0,2],[-3,9],[0,1],[-2,0],[-3,-1],[0,-6],[-6,1],[0,-6],[14,0]],[[4485,5256],[-3,1],[-1,-1],[-1,0],[-3,-1],[0,-1],[-3,-1],[-1,0],[0,-1],[3,-2],[1,1],[1,1],[0,1],[4,0],[1,1],[2,2]],[[4720,5208],[0,1],[-1,0],[0,-1],[-1,0],[0,-1],[-2,-1],[0,-1],[-1,-1],[-1,0],[0,-1],[-1,0],[-1,-1],[0,-1],[-1,-1],[-1,-1],[0,-1],[-1,0],[0,-1],[-1,-1],[0,-2],[-1,-1],[-1,-1],[-2,2],[-1,0],[-3,2],[-1,0],[0,-2],[-1,0],[-1,1],[-3,0],[0,1],[-1,0],[1,1],[-3,1],[-1,-2],[-2,-3],[0,-1],[1,0],[0,-2],[1,0],[1,-1],[1,0],[3,-2],[2,-1],[2,-1],[1,-1],[4,0],[1,-1],[1,0],[4,2],[1,2],[2,1],[2,3],[0,1],[3,3],[0,1],[4,4],[0,1],[1,1],[-1,1],[1,0],[0,1],[1,1],[-1,0],[-1,-1],[-1,2],[-1,-1],[-2,2],[2,1]],[[4754,5307],[-7,15],[-11,-7],[-3,7],[-1,-1],[0,1],[-1,0],[-2,-1],[1,5],[-1,1],[-2,0],[-5,-3],[-1,0],[0,1],[1,0],[-1,1],[0,-1],[-2,0],[0,-1],[-2,0],[0,-1],[-1,0],[-1,-1],[-1,1],[0,1],[-1,0],[0,-2],[-1,0],[0,-1],[-1,0],[0,-1],[-1,0],[0,-3],[-1,-1],[0,-1],[-1,-1],[0,-1],[-1,-1],[0,-1],[-1,-3],[-1,-3],[-2,-2],[0,-1],[-1,-1],[0,-1],[-1,-2],[0,-6],[1,0],[0,-1],[3,-3],[1,0],[0,-1],[6,-5],[2,-2],[1,-1],[9,-9],[1,-1],[2,-1],[1,-1],[0,-1],[1,-1],[1,0],[5,-5],[6,-6],[4,-3],[1,3],[2,3],[3,5],[-2,2],[0,6],[6,35],[-1,2]],[[4720,5208],[2,-2],[2,2],[-2,2],[-1,1],[0,-2],[-1,-1]],[[4799,5356],[0,2],[-5,4],[-1,1],[-1,2],[-5,1],[-3,1],[-1,1],[-1,2],[-17,0],[-3,-4],[-5,-3],[-3,-4],[-4,-7],[-3,1],[0,-2],[2,0],[0,-3],[7,0],[2,-1],[7,0],[3,-1],[1,-1],[0,-1],[1,0],[1,1],[3,0],[1,-1],[1,-1],[1,-2],[1,-2],[1,-1],[6,0],[0,3],[-1,1],[0,2],[-1,1],[0,1],[1,0],[0,4],[14,4],[0,1],[1,0],[0,1]],[[5519,2895],[-1,-3],[-1,-8],[-14,-33],[-15,2],[7,-14],[-10,-9],[-3,-183],[0,-34],[-23,-33],[-29,-11],[-40,-67],[-86,-12],[-63,-11],[-6,34],[-63,-11],[-17,78],[-109,-34],[-23,12],[-23,-12],[0,-11],[-3,-2],[10,-65],[-5,-4],[-19,-16],[0,-11],[-1,-43],[-31,-2],[-20,-24],[-23,11],[-5,-11],[-80,44],[-12,-11],[-46,-11],[-17,0],[-34,11],[-35,34],[-5,33],[-12,22],[-29,0],[5,20],[13,59],[-6,22],[-17,-11],[0,33],[-12,-11],[-6,23],[-28,-34],[-29,34],[-6,-23],[-34,-22],[-40,22],[-6,-22],[-63,11],[-17,-56],[-11,-11],[-6,-11],[-6,0],[-17,-11],[23,-79],[-23,-33],[-29,-34],[-11,-22],[-29,-11],[-6,-23]],[[4272,2300],[-45,23],[0,45],[-69,0],[17,55],[-23,45],[-115,101],[6,0],[6,11],[-17,0],[0,11],[11,0],[6,56],[-23,0],[0,78],[40,11],[-1,20],[5,4],[3,6],[-30,49],[6,22],[-29,11],[-17,0],[2,33],[44,1],[-6,78],[-17,11],[-12,0],[12,56],[-22,61],[-7,17],[-1,-3],[-4,-8],[-52,-78],[-29,22],[-28,11],[-21,21],[-14,13],[-34,-11],[-29,0],[-46,56],[-5,55],[-12,23],[6,33],[-12,11],[-5,-11],[-29,0],[6,-22],[-40,22],[-7,19],[-8,1],[-6,-1],[-31,15],[0,11],[-40,45],[-35,-104],[-28,-19],[-17,56],[-63,-112],[-6,0],[0,22],[-34,33],[-29,34],[6,34],[23,22],[17,22],[34,45],[0,11],[-11,0],[-12,12],[-8,18],[-20,37],[0,12],[-23,55],[5,23],[18,0],[11,22],[40,0],[-6,78],[23,34],[46,-22],[12,11],[-23,67],[-23,0],[-6,11],[-11,56],[-63,0],[-35,22],[0,34],[-17,22],[-29,0],[6,22],[-17,23],[-12,0],[-22,11],[-18,56],[35,11],[0,22],[17,23],[23,0],[0,44],[46,0],[17,123],[-23,0],[-11,79],[-12,11]],[[3321,4290],[12,11],[22,-11],[23,45],[12,-12],[11,12],[6,-12],[17,23],[46,-11],[17,0],[6,22],[57,11],[0,22],[-23,34],[-5,67],[0,78],[-23,23],[-6,0],[-11,-23],[-18,11],[51,54],[1,1],[-6,24],[-6,11],[6,11],[-23,0],[-11,22],[-29,12],[12,11],[-41,44],[-11,45],[-46,45],[0,22],[-17,22],[-23,0],[6,56],[-57,17],[-6,6],[0,22],[-46,89],[11,23],[-17,22],[23,23],[-17,33],[-23,-22],[-17,22],[11,0],[-5,22],[0,12],[34,0],[-29,78],[35,0],[5,22],[12,3],[8,-21],[3,-4],[58,56],[11,-11],[12,11],[11,11],[-29,56],[6,0],[6,-11],[11,0],[35,22],[28,45],[-40,89],[0,11],[-28,-22],[-24,-20],[-11,-2],[-27,-14],[-13,2],[21,52],[8,49],[-6,67],[-40,-11],[-29,-24],[-11,-6],[-6,7],[-6,-22],[-11,11],[0,-11],[-12,0],[-11,-11],[-17,0],[-18,11],[0,22],[-22,34],[5,22],[-17,34],[6,22],[-17,23],[5,44],[12,45],[-35,-22],[-22,11],[-6,-23],[23,-33],[-6,-11],[-52,19],[-5,3],[-40,45],[4,25],[6,4],[24,27],[17,67],[12,-11],[-6,-23],[11,0],[12,-11],[11,11],[12,-11],[17,34],[11,0],[18,22],[11,0],[6,11],[40,43],[17,-21],[17,23],[23,-23],[4,-21],[4,6],[6,4],[24,-11],[16,-15],[10,-2],[11,17],[23,-11],[8,18],[1,7],[12,9],[-6,13],[8,8],[9,-10],[5,7],[-1,3],[-7,3],[-1,9],[23,45],[12,0],[3,25],[7,-1],[7,32],[20,-1],[3,12],[17,-11],[29,22],[0,33],[-6,0],[13,26],[8,25],[19,54],[15,-4],[3,10],[-5,2],[0,6],[-6,0],[3,22],[16,0],[3,18],[5,13],[6,4],[23,-6],[4,2],[6,1],[11,17],[25,12],[16,45],[2,5],[-9,5],[-7,1],[-3,3],[3,7],[0,3],[2,5],[3,-3],[2,2],[-6,10],[20,33],[-6,5],[8,22],[-6,8],[-9,9],[5,7],[3,8],[-6,20],[4,6],[-5,5],[-7,-8],[-3,2],[-3,-3],[-3,3],[2,2],[-3,3],[8,15],[-17,7],[4,10],[2,7],[-2,4],[0,1],[-4,5],[13,12],[-2,6],[-3,6],[-11,2],[1,8],[20,-11],[5,-5],[0,7],[13,0],[2,-4],[9,-8],[1,-3],[2,0],[2,29],[-5,2],[-1,10],[1,14],[5,2],[-1,11],[-7,2],[5,9],[16,-12],[8,1],[7,-6],[3,8],[2,12],[0,4],[-11,8],[-15,7],[-10,-1],[2,20],[2,10],[3,36],[-6,-1],[2,13],[6,3],[2,7],[5,0],[3,7],[-7,2],[-10,-9],[-12,-1],[-15,1],[-2,11],[-10,4],[-10,2],[-17,-22],[-6,11],[-5,0],[1,6],[-1,6],[-6,0],[-2,6],[-6,6],[-3,-1],[-18,81],[-11,8],[-11,34],[17,44],[-5,33],[-23,0],[-23,12],[-57,100],[-6,22],[-6,0],[-11,22],[-2,2],[-1,3],[0,3],[-9,-6],[0,-3],[-1,-1],[-24,-3],[-17,-15],[-15,10],[-10,-14],[-12,-2],[-3,6],[13,8],[-17,28],[3,5],[5,18],[-2,0],[-5,-4],[0,6],[-3,3],[2,13],[13,4],[3,8],[-4,7],[2,5],[3,11],[-2,6],[18,13],[-90,91],[6,34]],[[3241,7509],[6,0],[22,44],[23,-22],[10,6],[8,5],[0,26],[-5,0],[0,-5],[-3,-3],[-15,16],[17,22],[17,0],[12,-11],[11,0],[5,-5],[1,-1],[5,-5],[18,0],[17,-34],[11,4],[13,5],[4,2],[2,-4],[0,-2],[1,-1],[3,-15],[29,-11],[23,22],[35,-29],[12,-10],[13,-10],[17,18],[20,18],[4,12],[5,1],[2,2],[0,4],[-12,13],[-13,12],[4,6],[9,-5],[6,0],[5,4],[4,2],[6,-6],[8,-5],[2,9],[4,5],[6,4],[3,4],[4,2],[1,-2],[-1,-4],[8,-12],[6,0],[2,-5],[5,4],[9,-13],[6,5],[8,5],[13,-17],[4,-13],[6,-4],[1,-2],[0,-3],[2,-1],[4,-3],[4,2],[6,-2],[12,2],[0,12],[1,10],[1,3],[4,2],[3,1],[3,-4],[4,4],[2,3],[3,1],[3,-4],[8,-4],[3,-4],[6,1],[6,-3],[9,5],[1,7],[1,4],[2,4],[2,0],[4,-2],[2,-3],[1,-4],[3,-6],[6,-4],[6,7],[5,1],[-1,6],[-1,4],[0,11],[1,10],[-20,0],[0,6],[-8,5],[-1,1],[1,2],[2,3],[0,4],[2,22],[12,19],[22,-5],[0,-14],[17,-22],[23,45],[1,2],[3,-2],[3,-2],[8,2],[6,2],[6,4],[2,1],[1,-2],[0,-3],[2,-4],[1,-7],[6,1],[1,-2],[0,-4],[5,-2],[1,-5],[2,-1],[1,-1],[1,-1],[0,-5],[13,-1],[1,0],[0,-6],[1,-1],[2,-3],[0,-5],[1,-1],[2,-3],[2,1],[2,-1],[8,-10],[7,-2],[4,1],[1,-2],[-2,-5],[-2,-20],[0,-5],[1,-1],[1,0],[0,1],[1,0],[0,-7],[1,-3],[1,-3],[2,0],[1,-1],[2,-1],[1,0],[3,1],[3,-1],[4,2],[4,2],[9,1],[5,3],[4,1],[3,2],[2,8],[4,4],[1,6],[69,0],[0,11],[-17,11],[0,11],[51,0],[23,22],[23,-33],[6,16],[0,2],[1,1],[3,0],[1,1],[1,1],[-1,3],[0,2],[3,0],[1,2],[0,3],[1,0],[4,-7],[4,-7],[5,-6],[4,5],[2,4],[1,5],[2,3],[8,-1],[5,0],[1,-6],[1,-5],[5,-16],[51,11],[11,-11],[0,-5],[2,-5],[6,-10],[-6,-2],[-5,-3],[-1,-8],[0,-23],[5,-11],[2,-6],[4,7],[3,4],[8,-5],[0,-26],[14,0],[10,-8],[3,-3],[6,-1],[-3,-14],[-7,-15],[-3,-38],[0,-7],[3,-2],[4,-1],[13,-1],[4,0],[8,-7],[4,-5],[2,-4],[1,-5],[8,-11],[1,-12],[2,-8],[2,-6],[2,0],[3,-1],[5,0],[5,-4],[14,-11],[13,-12],[11,-8],[9,7],[3,0],[4,4],[6,8],[4,-11],[1,-5],[7,0],[4,2],[2,-3],[11,3],[3,-8],[8,3],[-2,-8],[17,-14],[16,-15],[-3,-4],[0,-23],[1,-12],[-2,-2],[-7,-2],[-6,-1],[-1,-3],[1,-7],[2,-3],[3,-1],[17,-2],[15,12],[6,1],[8,3],[12,-8],[1,-1],[7,0],[8,-3],[-1,-11],[1,-9],[-4,-6],[-5,-5],[-1,-3],[0,-2],[-2,-2],[0,-2],[-2,-4],[3,-25],[-9,-8],[-7,-5],[4,-4],[45,3],[13,0],[7,1],[9,-1],[5,-2],[5,-3],[5,-2],[1,4],[2,3],[3,-2],[3,-2],[7,8],[1,1],[10,-8],[11,-8],[-2,-9],[4,-2],[8,0],[4,-5],[2,-3],[17,-10],[11,-3],[1,-9],[4,-3],[-2,-21],[0,-23],[1,1],[0,-3],[2,-37],[0,-27],[-1,-11],[0,-4],[16,-16],[7,-4],[-1,-3],[-37,-15],[2,-19],[9,-5],[21,-20],[14,0],[14,-14],[9,-10],[-3,-14],[3,-7],[10,-9],[11,-2],[9,1],[14,8],[11,7],[16,-2],[6,2],[12,5],[37,51],[35,-50],[24,-13],[44,-43],[0,-11],[17,-11],[23,11],[-3,23],[9,22],[17,0],[0,11],[35,11],[34,0],[0,22],[29,12],[-12,22],[12,22],[5,0],[0,-11],[81,34],[11,-11],[-17,-12],[40,-44],[0,-23],[11,0],[6,11],[12,-33],[5,-11],[12,11],[0,-11],[11,-11],[29,-23],[57,-78],[17,0],[35,34],[11,55],[12,123],[5,12],[92,0],[6,-23],[29,23],[5,-12],[23,23],[6,-23],[11,12],[18,-12],[5,-22],[35,-56],[5,-33],[-17,-23],[17,-44],[29,0],[23,11],[11,-11],[23,22],[23,-11],[6,0],[0,-11],[23,-12],[29,-11],[23,23],[17,11],[0,22],[-17,34],[28,0],[3,5],[8,0],[5,2],[4,1],[1,-1],[7,-7],[20,-2],[27,-10],[8,-2],[20,-20],[10,-10],[8,11],[2,-2],[-3,-6],[3,-7],[4,-1],[5,0],[5,4],[0,2],[1,2],[12,12],[-5,11],[-2,18],[0,11],[3,9],[8,6],[9,1],[14,-2],[10,2],[3,6],[6,6],[25,31],[24,-20],[37,-7],[1,0],[1,1],[12,19],[31,4],[0,-2],[14,3],[-11,-22],[7,-8],[9,-5],[4,4],[4,-3],[2,2],[1,-2],[-18,-19],[-4,-3],[6,-9],[5,-4],[4,-24],[2,-9],[-8,-7],[-12,-10],[4,-4],[8,-2],[3,-1],[4,1],[3,-8],[18,7],[4,-3],[1,-6],[3,-5],[4,-3],[13,11],[7,-11],[-2,-9],[6,-19],[3,-2],[5,22],[20,16],[6,3],[-1,5],[7,9],[0,4],[6,6],[10,0],[19,-18],[4,6],[1,8],[14,18],[17,17],[1,-1],[-20,-28],[10,-7],[16,-7],[5,6],[6,-4],[12,29],[0,7],[6,0],[6,4],[1,7],[-5,16],[10,11],[19,-1],[9,5],[4,1],[11,-14],[-4,-20],[16,0],[6,-32],[-7,-4],[-1,-2],[-6,-1],[-2,-14],[-5,3],[-10,-7],[-4,-9],[8,-4],[-10,-18],[7,-9],[0,-6],[1,-5],[-4,-17],[-8,-5],[-4,-4],[-1,-18],[-7,-18],[1,-3],[9,-10],[2,-4],[-7,-6],[7,-10],[-2,-5],[-3,-8],[-8,-7],[-6,-18],[-12,-11],[0,-12],[-21,-18],[5,-10],[5,-5],[4,6],[6,-1],[-1,-12],[-4,-4],[24,-42],[-17,-2],[1,-31],[-3,-15],[8,-15],[-1,-6],[12,4],[7,-20],[-5,-12],[-10,1],[-5,10],[-8,-3],[-10,-30],[-38,-18],[-7,-2],[-17,4],[-4,-3],[1,-5],[0,-9],[5,3],[5,-1],[6,1],[7,-3],[0,-6],[-9,-20],[8,-17],[3,-4],[-1,-5],[8,-23],[23,0],[12,-11],[-18,0],[-11,-11],[0,-22],[-6,-11],[-5,-23],[5,-11],[-17,-22],[-6,18],[-11,-29],[-12,-34],[29,-22],[40,22]],[[794,3093],[6,1],[75,4],[1,21],[83,-1],[-1,21],[21,-1],[-1,14],[13,-1],[26,-18],[4,-7],[11,-1],[0,-5],[-8,-18],[-6,-20],[4,-4],[2,-6],[7,-10],[9,3],[8,-4],[4,-3],[4,8],[6,-6],[4,5],[20,-12],[0,15],[7,-5],[3,-35],[3,-3],[9,4],[1,3],[-1,35],[2,2],[7,0],[0,5],[18,14],[14,-9],[-2,-9],[-7,-8],[-3,-12],[3,-2],[5,1],[4,10],[4,0],[3,-2],[9,4],[2,-3],[2,3],[40,-22],[22,11],[10,6],[14,4],[4,7],[5,2],[3,8],[12,-2],[2,-2],[0,-37],[1,-6],[54,2],[40,1],[3,0],[14,2],[-2,6],[5,0],[2,-6],[14,0],[15,4],[3,1],[2,5],[13,18],[5,-2],[1,2],[4,1],[0,-7],[3,-8],[8,1],[-1,44],[-3,0],[-2,8],[0,8],[-6,8],[0,8],[-5,2],[11,20],[7,19],[5,17],[1,14],[8,-2],[3,14],[3,7],[-2,2],[5,27],[-8,4],[-5,-9],[-12,-5],[-1,4],[9,4],[6,7],[-7,7],[5,6],[-9,5],[-11,5],[8,23],[15,15],[14,25],[-3,2],[5,7],[2,-1],[3,4],[5,-6],[8,6],[4,-4],[19,17],[-25,15],[-1,5],[7,8],[-8,-1],[-15,8],[5,25],[4,2],[4,6],[2,0],[1,1],[27,27],[4,-4],[19,17],[-1,20],[15,9],[8,0],[5,2],[5,-1],[-1,5],[6,18],[23,-2],[-5,-12],[3,-10],[0,-16],[-3,-20],[-3,-15],[12,-6],[6,1],[15,-12],[10,14],[16,-3],[6,1],[3,7],[6,-3],[-3,-11],[0,-3],[1,-1],[3,4],[12,-11],[3,11],[4,-2],[5,9],[8,0],[6,21],[12,-4],[-7,-23],[17,-7],[8,14],[12,-9],[8,0],[6,13],[10,-4],[0,-6],[17,-1],[16,14],[6,22],[17,0],[29,-34],[17,-33],[-6,-34],[12,-33],[17,-11],[17,0],[29,67],[11,0],[6,-34],[-11,-22],[0,-23],[5,-22],[-5,-22],[5,-23],[-11,-11],[11,-22],[12,0],[11,33],[12,0],[17,-22],[0,22],[29,12],[0,11],[17,0],[11,-34],[12,0],[23,-11],[5,11],[0,11],[12,34],[51,33],[6,0],[12,-78],[40,-11],[28,34],[-5,22],[-35,0],[-1,9],[-5,36],[35,33],[-23,34],[-12,33],[12,11],[11,-11],[29,0],[12,-11],[17,11],[5,0],[35,10],[6,35],[-6,33],[6,12],[5,-12],[6,12],[11,33],[23,23],[12,0],[34,22],[12,11],[5,22],[35,23],[23,0],[-6,11],[23,45],[-17,33],[-17,0],[-2,17],[25,5],[17,56],[-12,12],[6,55],[-29,23],[-11,22],[23,23],[0,44],[23,0],[-12,23],[0,11],[-34,11],[28,0],[12,33],[-6,0],[6,23],[11,0],[-17,22],[0,23],[6,0],[6,-12],[11,0],[23,12],[-11,11],[5,33],[23,56],[-5,56],[17,0],[5,22],[18,12],[11,22],[46,0],[6,-22],[46,0],[28,22],[12,-11],[5,-11],[18,0],[0,11],[11,11],[6,11],[40,0],[-6,-22],[23,11],[23,-11],[29,0],[-3,-12],[-3,-11],[51,0],[6,-11],[-6,-11],[18,-11],[11,11],[12,-11],[28,45],[0,-34],[12,-11],[11,22],[23,11],[18,-21],[51,-1],[23,11],[69,-11],[5,0],[17,-45],[12,23],[29,11],[11,0]],[[3161,7609],[-4,-2],[-4,-1],[-5,-3],[-2,-3],[-5,-1],[-3,-2],[-2,-2],[-2,-1],[0,5],[-6,-2],[-5,3],[-9,-1],[-7,0],[-1,-3],[-6,-1],[-4,-3],[-4,-7],[-3,-1],[-3,1],[-2,1],[-7,5],[-7,2],[-2,-1],[-3,-1],[0,-1],[2,-2],[0,-9],[1,-6],[-5,-7],[-5,-9],[-28,-3],[-7,-1],[1,-3],[-1,-7],[-2,-2],[-1,-2],[4,-8],[4,-9],[-5,-2],[-4,-2],[1,-2],[-3,-1],[-6,-2],[-10,-1],[-2,-5],[12,-9],[-3,-3],[-5,2],[-21,0],[-8,3],[-6,-2],[-3,2],[-19,9],[-12,7],[0,12],[-2,1],[-5,-1],[-5,-8],[-3,3],[-13,-6],[-3,-4],[-6,1],[-3,-1],[-1,-2],[-8,-4],[2,-2],[-7,-6],[-12,-12],[-9,-2],[-3,-5],[-8,-6],[-7,4],[-12,6],[-7,1],[-1,-2],[0,-2],[-3,-3],[0,-1],[-1,-2],[0,-2],[-1,-2],[-3,-1],[-1,1],[-1,0],[-1,-1],[-2,0],[-4,-1],[-2,0],[-1,-1],[-6,-1],[-4,-17],[7,-2],[0,-1],[-1,0],[0,-1],[-2,-1],[0,-4],[-1,-3],[0,-2],[-1,0],[0,-1],[-1,0],[0,-4],[1,0],[0,-2],[1,0],[0,-2],[1,0],[0,-2],[-1,0],[0,-1],[2,0],[0,-1],[1,0],[0,-1],[-2,0],[0,-2],[-1,-1],[0,-1],[-1,0],[0,-3],[-1,-1],[0,-2],[-1,0],[0,-8],[-1,0],[0,-1],[-2,0],[0,-1],[-1,0],[0,-1],[-1,0],[0,-1],[-2,0],[0,-3],[-1,0],[-1,1],[-1,0],[0,-1],[-1,0],[0,-4],[-1,0],[0,-3],[-4,0],[0,-1],[-1,0],[0,-2],[-1,0],[0,-2],[-1,0],[0,-2],[-2,0],[0,-1],[-2,0],[0,-2],[-1,0],[0,-1],[-1,0],[0,-1],[-6,0],[0,-2],[-1,0],[0,-2],[1,0],[0,-1],[-1,0],[0,-2],[-1,0],[0,-2],[1,0],[0,-1],[-1,0],[0,-1],[-1,0],[0,1],[-1,0],[0,1],[-2,0],[0,-1],[-1,0],[0,1],[-1,0],[0,-2],[-1,0],[0,-1],[-1,-1],[-1,0],[0,-3],[1,-1],[-1,0],[0,-2],[3,0],[0,-4],[-2,0],[0,-1],[-1,0],[0,1],[-1,0],[0,1],[-1,1],[0,-4],[-1,0],[0,1],[-1,0],[0,-1],[1,0],[0,-1],[-1,0],[0,-7],[-1,0],[0,-1],[-1,0],[0,-1],[-1,0],[0,-1],[-1,0],[0,-1],[-1,0],[0,1],[-1,0],[0,-1],[-2,0],[0,-3],[-2,0],[0,-2],[-1,-1],[-1,0],[0,-1],[-2,0],[0,-1],[1,0],[0,-2],[-2,0],[0,-2],[-2,0],[0,-1],[-1,0],[0,-1],[-8,0],[0,-1],[-1,0],[0,-1],[-1,-1],[-1,-1],[0,-2],[-1,0],[0,-1],[-1,-1],[0,-1],[-1,0],[0,-2],[-1,-1],[0,-7],[1,0],[0,-5],[1,-2],[-1,-5],[0,-1],[1,-1],[0,-1],[1,0],[1,-1],[1,-1],[1,-1],[0,-1],[1,0],[0,-2],[-1,0],[0,-1],[-1,-1],[-1,-1],[-1,-1],[0,-1],[-1,-1],[0,-2],[-1,-1],[0,-13],[-1,-1],[0,-1],[-1,-1],[0,-1],[-1,-2],[-1,-1],[-1,-1],[0,-2],[-1,0],[0,-1],[-1,0],[0,-1],[-7,0],[0,-1],[-11,0],[0,1],[-1,0],[-1,1],[0,1],[-1,0],[-1,-1],[0,-3],[-1,-1],[0,-1],[-1,0],[0,-3],[-1,-1],[0,-2],[-2,0],[-1,-1],[-2,-4],[-2,-5],[0,-7],[-3,-4],[-2,-4],[-3,-6],[1,-2],[-1,-2],[1,-2],[0,-7],[2,-10],[1,-8],[1,-4],[1,-7],[0,-7],[1,-3],[2,-7],[3,-7],[1,-2],[2,-6],[1,-3],[0,-4],[-1,-9],[-2,-6],[-1,-4],[0,-8],[1,-11],[0,-12],[1,-9],[-1,-7],[0,-15],[-1,-2],[0,-7],[-1,-6],[-1,-6],[-1,-8],[-4,-9],[-3,-5],[0,-12],[1,-6],[0,-4],[1,-2],[1,-3],[1,-5],[-1,-3],[-5,2],[-2,0],[-1,-2],[-1,-3],[5,-11],[-1,-1],[1,-6],[2,-9],[2,-12],[1,-9],[2,-10],[2,-12],[1,-4],[0,-3],[2,-11],[2,-1],[0,-2],[1,0],[-1,-1],[0,-1],[-1,-2],[0,-1],[-1,0],[0,-2],[-1,-1],[0,-1],[-1,-1],[0,-2],[-1,0],[2,-2],[1,-1],[0,-2],[1,0],[1,-1],[0,-3],[-1,0],[0,-1],[-1,-1],[0,-1],[1,-2],[1,0],[0,-1],[2,0],[0,-1],[1,0],[3,-5],[2,-3],[1,-2],[0,-2],[-1,0],[0,-3],[-1,0],[1,-4],[-1,0],[0,-2],[-1,-2],[-1,-1],[0,-6],[1,0],[0,-1],[1,-1],[1,-1],[0,-8],[1,-1],[0,-4],[1,-1],[0,-3],[-1,0],[0,-2],[-1,0],[0,-3],[-1,0],[0,-2],[1,0],[0,-2],[1,0],[0,-1],[1,0],[0,-1],[-1,0],[0,-1],[-1,0],[0,-1],[-1,-1],[0,-1],[2,0],[0,-1],[1,-1],[1,-1],[0,1],[1,0],[0,-15],[1,0],[0,-1],[1,0],[0,-4],[-1,0],[0,-1],[-1,0],[-1,-1],[4,-8],[-1,0],[-5,-3],[3,-2],[-3,-4],[-7,-9],[0,-7],[-2,-2],[-1,-1],[0,-1],[-1,0],[-2,-2],[-1,0],[-6,-4],[-1,0],[-1,-1],[-1,0],[0,-1],[-3,-2],[-4,-4],[-4,-4],[-4,-4],[-5,-4],[-3,-2],[-2,-2],[-7,-6],[-2,2],[-3,-3],[-1,-2],[-4,-4],[-5,-3],[-4,-4],[-4,-3],[-2,-3],[-3,-6],[-2,-7],[-4,-7],[-4,-9],[-5,-12],[-5,-10],[-1,-3],[-1,-6],[-2,-15],[-2,-7],[-2,-7],[-1,-5],[-3,-5],[0,-1],[-2,-2],[-1,-1],[0,-1],[-1,0],[0,-6],[-1,0],[0,-2],[-1,0],[0,-1],[-1,0],[0,-2],[-1,0],[-1,-3],[3,-2],[-1,-3],[-1,-4],[-2,-3],[-5,1],[-4,0],[-4,-3],[-4,-1],[0,-1],[-3,-4],[-3,-2],[-3,-3],[-1,-3],[-9,-5],[2,-4],[2,-5],[7,-1],[4,6],[3,-1],[2,-1],[5,-3],[0,-2],[1,0],[0,-1],[-1,0],[0,-1],[1,0],[0,-2],[-1,0],[0,-1],[-3,0],[0,-1],[-1,0],[0,-1],[-1,0],[0,-2],[-1,0],[0,-1],[-1,0],[3,-5],[-2,-2],[1,-7],[0,-6],[3,-1],[1,-8],[0,-5],[1,0],[2,-7],[2,-7],[1,-5],[2,-2],[-2,-5],[-2,-5],[0,-3],[-4,-6],[-5,-8],[-2,-2],[-2,-4],[-1,-1],[-2,-4],[-5,-9],[-1,-3],[-3,-5],[-5,1],[-5,0],[0,1],[-1,2],[-1,1],[0,1],[-3,4],[-2,-4],[0,-1],[-1,-1],[0,-2],[-1,-4],[0,-2],[-2,-6],[1,-5],[1,-4],[2,-4],[1,-3],[0,-1],[1,-1],[0,-2],[1,-6],[0,-5],[1,0],[1,-2],[-8,-5],[-6,-4],[-9,-6],[-4,-2],[-3,-2],[-3,0],[-1,-9],[-1,-8],[0,-2],[-1,-3],[-1,-3],[-1,-6],[0,-3],[-1,-6],[-1,-8],[-19,0],[-6,-1],[1,-5],[0,-2],[1,-7],[3,-7],[13,0],[2,-8],[1,-3],[-2,-3],[-2,-1],[-1,-1],[4,-11],[0,-2],[1,-3],[1,-2],[3,2],[3,1],[7,3],[3,1],[6,2],[3,2],[11,4],[2,-13],[7,-2],[6,-2],[8,-3],[12,-4],[7,14],[3,2],[6,-4],[7,-11],[4,4],[1,2],[5,6],[5,6],[5,5],[4,1],[12,2],[7,-9],[6,-8],[3,-4],[2,-4],[11,-17],[-1,-1],[6,-7],[-1,-1],[2,-3],[-6,-7],[-5,-6],[8,-11],[-10,-10],[4,-4],[4,-5],[3,-4],[4,-5],[9,10],[2,-3],[2,-3],[4,3],[3,-1],[3,-3],[2,1],[1,-1],[3,-3],[3,3],[8,-10],[-5,-4],[4,-6],[2,-2],[-2,-1],[3,-5],[1,-3],[2,-4],[1,-3],[-1,-3],[1,-2],[4,-6],[2,-2],[1,-2],[2,-4],[6,-7],[0,-2],[4,-6],[6,-1],[4,2],[1,-9],[-4,-2],[-1,0],[-1,-1],[-13,-8],[2,-3],[-5,-2],[-5,-3],[0,-1],[-7,-3],[0,1],[-3,-2],[4,-11],[-2,-3],[0,-1],[3,-1],[1,0],[3,-3],[0,-3],[-1,-2],[0,-1],[1,-1],[0,-1],[3,0],[2,-1],[2,-2],[1,-2],[1,0],[0,-1],[3,-1],[0,-1],[2,0],[0,-1],[1,-1],[0,-2],[1,0],[0,-2],[1,-1],[1,-2],[2,-1],[0,-2],[-1,-2],[1,-1],[0,-1],[1,-2],[0,-3],[1,0],[0,-1],[1,0],[0,-1],[-1,0],[0,-3],[-1,-1],[0,-1],[-1,-1],[-1,-2],[0,-4],[-1,0],[0,-1],[-1,-1],[0,-1],[-1,-1],[-1,-1],[0,-1],[-1,-1],[-1,-1],[-1,-1],[6,-5],[3,-6],[0,-3],[1,-6],[0,-5],[-1,-6],[4,1],[1,-5],[1,-3],[4,2],[-1,-10],[-2,-11],[0,-1],[-1,0],[0,-1],[-1,0],[0,1],[-1,0],[0,1],[1,0],[0,1],[-1,0],[0,-1],[-1,0],[-1,-1],[0,1],[-1,0],[0,1],[-1,0],[0,1],[1,0],[0,-1],[1,0],[0,1],[-1,0],[0,2],[1,1],[-1,1],[2,0],[0,1],[-1,0],[0,3],[2,0],[0,1],[-3,0],[0,-1],[-2,0],[0,1],[-1,0],[0,2],[-1,0],[0,-1],[-1,0],[0,1],[-1,0],[0,1],[-1,0],[0,-1],[-1,-3],[-6,1],[-1,-3],[-8,1],[-7,2],[-11,1],[-1,-10],[-5,2],[1,9],[-12,3],[-1,6],[-4,3],[-9,4],[-5,-1],[-2,0],[-3,-1],[4,-4],[2,-6],[-2,-2],[-5,-9],[-13,-6],[2,-14],[-5,-15],[-4,2],[-4,0],[-3,-2],[-4,1],[-7,-1],[-4,-4],[-6,-8],[-2,-8],[-2,-5],[-11,5],[-1,-7],[-7,4],[-4,3],[2,4],[-1,5],[-4,3],[-3,5],[5,6],[-5,2],[-11,-4],[-3,1],[-2,0],[-6,2],[0,6],[-8,1],[-8,1],[-4,2],[-2,0],[-1,1],[-1,0],[-3,2],[-4,2],[-6,2],[-2,0],[-3,-4],[-1,-1],[-3,-3],[-2,-2],[-3,4],[-2,5],[-2,5],[-4,1],[-12,5],[1,5],[-4,0],[-1,4],[0,9],[1,2],[-4,5],[-3,-5],[-2,2],[-3,2],[-1,5],[-1,7],[-2,3],[-1,0],[-3,-1],[0,1],[1,5],[1,2],[0,1],[-1,2],[1,2],[3,11],[6,0],[10,4],[8,6],[0,-2],[4,1],[2,3],[3,2],[8,4],[3,6],[4,2],[0,5],[2,7],[1,4],[0,1],[-1,5],[0,7],[-2,7],[-3,1],[-3,-1],[-3,3],[-6,4],[-2,2],[3,0],[-2,13],[12,1],[6,9],[2,-2],[0,-3],[2,0],[3,-3],[2,0],[0,-1],[3,-5],[1,-2],[5,2],[3,0],[5,-2],[1,8],[0,7],[-2,2],[-4,2],[-2,4],[-4,6],[-5,8],[-3,5],[-4,11],[5,2],[-2,5],[-2,6],[-4,-1],[-1,10],[0,2],[-3,2],[-5,-1],[-3,5],[5,2],[2,0],[3,3],[2,3],[1,2],[-2,9],[-3,-1],[-3,-3],[-9,4],[-6,2],[-2,1],[-3,5],[-9,0],[-7,5],[-3,-1],[0,4],[-1,6],[-1,7],[-1,2],[0,4],[-2,2],[0,1],[-1,0],[0,9],[-1,3],[-2,4],[0,3],[1,3],[1,3],[0,5],[-6,2],[-5,1],[0,-2],[-6,2],[0,-8],[-1,-4],[4,-8],[-6,4],[-4,0],[-7,1],[-3,0],[0,-7],[-1,0],[0,-8],[-2,0],[0,-2],[-3,0],[-5,-1],[-2,-1],[0,-6],[-2,-1],[-1,4],[-5,0],[-1,-1],[0,-1],[-1,0],[-4,1],[-2,0],[1,2],[0,2],[1,4],[0,6],[-12,-1],[0,-4],[-10,0],[-4,-4],[-3,-3],[-7,-7],[-8,-1],[-3,-2],[-2,-4],[0,-6],[-1,-2],[-2,-4],[-4,-4],[-4,-4],[-1,1],[-1,0],[0,-4],[-11,6],[-4,2],[-3,-7],[-2,-4],[0,1],[-3,1],[-6,-2],[-3,-2],[-1,-2],[-4,-7],[-3,-4],[-2,-1],[-1,0],[0,-1],[-2,0],[0,-1],[-1,0],[0,1],[-1,0],[0,1],[-2,0],[0,-1],[-3,0],[0,-1],[1,0],[0,-2],[-1,1],[-1,0],[0,1],[-1,0],[0,2],[-1,0],[0,1],[-3,0],[0,3],[-1,0],[0,-1],[-1,0],[0,-1],[-1,0],[0,2],[-1,0],[0,-1],[-1,0],[0,-3],[-1,1],[0,-1],[-1,0],[-4,-2],[-8,-3],[-11,0],[-8,-1],[-1,-1],[-1,0],[-1,1],[-1,0],[0,1],[-1,0],[0,-1],[-3,0],[0,1],[1,0],[0,1],[-2,0],[0,-1],[-1,0],[0,-1],[-3,0],[-1,1],[0,1],[-1,0],[0,1],[-1,0],[0,3],[-1,1],[1,1],[0,1],[-2,0],[0,1],[-1,0],[0,1],[-1,0],[0,-1],[-1,0],[0,2],[1,0],[0,1],[-1,0],[0,1],[-2,0],[0,1],[-1,0],[-1,1],[1,0],[-1,1],[-1,0],[-1,-1],[0,1],[-1,1],[-1,0],[0,2],[1,0],[0,-1],[1,0],[0,2],[-2,0],[0,4],[-1,0],[0,1],[-1,0],[0,-1],[-1,1],[0,-1],[-1,1],[0,1],[-2,0],[0,-1],[-1,0],[-3,-7],[-1,-5],[-4,-12],[-2,-3],[-2,-2],[-2,-6],[-2,-6],[-2,-7],[-6,6],[-4,5],[-2,3],[-2,4],[-2,3],[-2,4],[-2,-1],[-3,-2],[-4,-2],[-2,-2],[-5,-4],[-1,-1],[-1,0],[0,-1],[-1,0],[0,-1],[-1,0],[0,-2],[1,0],[0,-2],[1,0],[0,-1],[-2,0],[0,-1],[1,0],[0,1],[1,0],[0,-1],[-1,-1],[-1,-1],[0,-3],[1,0],[0,-1],[-1,0],[0,-1],[-1,0],[0,-1],[1,-1],[-1,0],[0,-2],[1,0],[0,-2],[-1,0],[0,-10],[-1,-1],[0,-2],[-1,0],[0,-1],[-1,0],[-2,-2],[-2,-1],[-1,0],[0,-1],[-1,0],[0,-1],[-1,-1],[0,-2],[1,-1],[0,-7],[-1,-2],[0,-2],[-1,-1],[0,-2],[1,-2],[0,-7],[-1,-1],[0,-2],[-1,-1],[0,-3],[-1,-1],[-1,-1],[0,-1],[-1,0],[-1,-1],[-1,0],[0,-1],[-1,-1],[0,-2],[-1,-1],[1,0],[0,-2],[-1,0],[0,-1],[1,0],[0,-2],[-1,0],[0,-2],[-1,0],[-1,-1],[0,-1],[-1,0],[-1,-1],[-1,0],[-1,-2],[-1,-2],[0,-1],[-1,-1],[-1,0],[-1,-1],[-2,-1],[-3,1],[0,-1],[-5,-4],[0,-3],[-1,0],[-2,-2],[-1,-1],[-4,-2],[-1,0],[0,-1],[-1,0],[-3,-2],[-2,-1],[-1,0],[0,-1],[-1,-1],[0,-8],[2,-7],[-4,-4],[-8,-3],[-1,0],[-2,-1],[-2,-2],[-1,-3],[-1,-2],[-1,0],[-3,-1],[-1,0],[-1,-1],[0,-1],[-1,0],[0,-1],[-4,-6],[-2,-4],[-1,-2],[-5,-8],[-3,-3],[-3,-3],[-2,-3],[-2,-3],[-2,-2],[-2,-3],[-4,-8],[-6,-8],[-1,-3],[-3,-3],[-5,-5],[0,-1],[-3,-8],[-5,-4],[-8,-1],[0,-1],[-1,-1],[-1,0],[-1,-4],[-1,-7],[-1,-2],[0,-1],[-4,-4],[0,-1],[-3,2],[-3,0],[-4,3],[-1,1],[-2,1],[-1,0],[-2,1],[-12,0],[-9,-1],[-6,-1],[-6,1],[-8,1],[-1,1],[-1,1],[-1,0],[0,1],[-1,0],[-6,7],[-2,1],[-4,1],[-5,1],[-1,0],[-1,1],[-1,0],[-1,1],[-7,8],[-1,1],[0,1],[-1,11],[-1,1],[-6,7],[5,2],[-3,7],[-3,5],[-2,2],[-7,7],[-4,-3],[-2,0],[-4,7],[0,-1],[-1,-1],[-2,-1],[-1,-1],[-2,0],[-1,-1],[-1,0],[-1,-1],[-2,-1],[-2,-2],[-1,-1],[-1,0],[-2,-1],[-2,0],[-2,-2],[-3,0],[0,-2],[-2,0],[-1,2],[-1,0],[0,1],[-1,0],[0,-1],[-3,-1],[0,-1],[-2,-1],[-2,-3],[0,-1],[-1,0],[0,-4],[-1,0],[0,-1],[-5,0],[0,-1],[-3,-1],[-2,1],[-1,0],[-1,-1],[-2,-2],[-1,-1],[-2,-2],[-1,-1],[-1,0],[-1,-1],[-7,0],[0,-1],[-1,-1],[-1,0],[-1,-1],[-2,-1],[-1,-1],[-2,-1],[-1,-1],[0,-1],[-3,0],[-2,-2],[0,-1],[-4,0],[-5,-2],[-2,-1],[-5,-3],[-2,0],[-1,1],[-1,3],[-2,0],[-1,1],[-2,0],[-3,-2],[-1,0],[-1,-1],[-4,0],[0,-1],[-1,-1],[-5,0],[-3,-1],[-3,0],[-2,5],[-2,-2],[-5,2],[-1,-5],[-7,-1],[-3,-1],[-5,-2],[2,-2],[2,-4],[4,-4],[3,-3],[4,-7],[3,-5],[-4,-3],[-3,-3],[-4,-4],[-4,-3],[-4,-4],[-2,-2],[-3,-3],[-3,-3],[-1,-1],[-1,0],[-5,-5],[-5,-4],[-7,-1],[-3,4],[-4,5],[-3,-2],[-4,-1],[0,-1],[-1,-3],[0,-2],[2,-3],[1,-3],[0,-1],[-1,-2],[-1,0],[0,-1],[1,0],[1,-2],[0,-1],[1,-1],[0,-2],[1,-4],[0,-3],[1,-1],[0,-3],[1,-2],[0,-2],[1,0],[0,-1],[1,0],[1,-1],[1,-1],[2,-2],[1,0],[4,-2],[1,0],[0,-1],[1,-1],[2,-4],[1,0],[3,-2],[0,-1],[1,0],[0,-1],[4,-8],[0,-1],[1,0],[1,-1],[0,-1],[1,-1],[1,-3],[2,-3],[1,-4],[0,-2],[1,0],[0,-1],[1,0],[0,-2],[1,-2],[0,-2],[1,-1],[0,-2],[1,-1],[0,-1],[1,0],[1,-1],[0,-1],[1,-1],[1,-1],[0,-1],[2,-4],[0,-3],[1,0],[0,-2],[1,-1],[0,-1],[1,-3],[0,-3],[1,-1],[0,-2],[-1,0],[0,-1],[1,0],[0,-2],[-1,-1],[0,-1],[1,0],[0,-3],[-1,-1],[0,-1],[3,0],[0,-2],[1,-1],[-1,-1],[0,-1],[-1,0],[0,-2],[-1,0],[0,-5],[-1,-1],[0,-6],[-1,0],[0,-3],[1,0],[1,-1],[-1,-1],[0,-2],[4,-1],[1,-1],[5,-4],[1,-1],[1,0],[1,-1],[0,-1],[1,-2],[1,0],[0,-1],[1,-1],[1,-1],[2,-5],[1,-1],[1,1],[5,-1],[1,0],[10,4],[-1,3],[7,5],[8,-9],[-1,-8],[-3,-4],[-6,-5],[-4,8],[-4,-4],[-1,2],[-3,0],[-4,-1],[-2,-1],[-1,0],[-12,-3],[0,-1],[3,0],[0,-1],[1,0],[0,-4],[1,0],[0,-3],[3,-4],[-3,-3],[-2,-5],[-3,-2],[1,-7],[-4,0],[-6,2],[-3,-2],[-1,-3],[-2,-4],[-4,-9],[-3,1],[-3,-1],[1,-6],[6,-5],[5,-3],[-4,-3],[-3,-1],[-3,1],[-1,-3],[-9,4],[-7,7],[-7,-6],[-1,0],[0,-1],[-2,-4],[-6,0],[-1,-1],[0,-1],[-4,0],[-1,-1],[-1,-1],[0,-4],[-1,-1],[0,-1],[-2,0],[0,2],[-1,1],[0,1],[-1,1],[0,1],[-1,0],[0,1],[-1,0],[0,1],[-1,0],[0,1],[-2,1],[-1,2],[-1,0],[0,2],[1,0],[0,4],[-2,0],[0,1],[-1,0],[0,2],[-1,0],[0,-1],[-1,0],[0,-1],[-1,0],[1,-1],[-1,-1],[-5,-8],[5,-3],[4,-6],[-3,-2],[-4,-6],[-11,-14],[-10,-12],[4,-3],[2,-2],[3,-4],[-2,-6],[-13,2],[-20,-5],[-1,0],[-3,1],[-2,2],[-18,-8],[1,9],[1,2],[3,1],[1,3],[2,7],[2,3],[-2,18],[2,17],[4,5],[2,3],[3,15],[-1,0],[0,2],[1,1],[0,1],[1,2],[0,1],[1,2],[0,3],[1,0],[0,4],[-1,2],[-1,1],[-1,1],[0,2],[-1,0],[0,1],[-2,3],[0,1],[-1,1],[-1,1],[-4,0],[0,1],[-2,0],[0,1],[-9,0],[0,-1],[-2,0],[0,-1],[-2,0],[0,-1],[-6,0],[0,1],[-1,0],[-1,-1],[0,-1],[-3,-3],[-3,-5],[-2,-4],[-2,-3],[2,-1],[-4,-5],[-9,2],[-6,-1],[-3,0],[1,5],[-13,-6],[-5,8],[-1,2],[0,-1],[-1,0],[0,-2],[-1,0],[0,-1],[-5,0],[0,-1],[-1,0],[0,-1],[-1,0],[0,-1],[-1,-1],[0,-1],[-1,0],[0,-1],[-1,-1],[-1,0],[0,-1],[-2,0],[0,-2],[-1,0],[0,-4],[-1,-1],[-1,-1],[0,-3],[-2,0],[0,2],[-1,0],[-1,-1],[0,-1],[-1,0],[0,-1],[-2,0],[0,1],[-1,0],[0,-2],[1,0],[0,-2],[1,-1],[0,-2],[-1,0],[0,-1],[1,-1],[0,-1],[-1,0],[0,-1],[2,0],[-1,-1],[-2,0],[0,-1],[-1,0],[0,-1],[-1,0],[0,1],[-1,0],[0,-2],[-1,0],[0,2],[-1,0],[0,-2],[-1,0],[0,-1],[-1,0],[0,-1],[-1,0],[0,-1],[-1,0],[0,1],[-2,0],[0,-1],[-2,0],[0,1],[-1,-1],[0,1],[-1,0],[0,-1],[-1,-1],[0,-1],[1,0],[0,-1],[-2,0],[0,1],[-1,0],[0,-1],[1,0],[0,-1],[-4,0],[0,-3],[-1,0],[-1,-1],[-2,0],[0,1],[-2,0],[0,2],[-1,0],[0,-2],[-2,0],[0,-1],[-1,0],[0,-1],[-3,0],[0,-1],[-1,-1],[0,-1],[-1,-1],[0,1],[-1,0],[0,-1],[-1,0],[0,-1],[-1,0],[0,-1],[-1,0],[0,-1],[-1,-1],[1,0],[0,-1],[-1,0],[0,-2],[-1,0],[0,-1],[-1,0],[0,-3],[-2,0],[0,-1],[1,0],[0,-2],[-1,0],[0,1],[-1,0],[0,-1],[-1,0],[0,-1],[-1,0],[0,-1],[-2,0],[0,-1],[-1,0],[0,1],[-1,0],[0,-2],[-1,0],[0,1],[-1,0],[0,-1],[-1,0],[0,-1],[-2,0],[0,-4],[-2,0],[0,1],[-1,0],[0,-2],[1,0],[-1,-1],[0,-1],[-1,0],[0,1],[-3,0],[0,-2],[-1,0],[0,-1],[-1,0],[0,-1],[-3,-1],[-7,-6],[-11,0],[-3,-7],[-4,-1],[-3,-4],[2,-13],[-1,0],[0,-1],[-1,0],[0,-2],[1,0],[0,-2],[-1,0],[-1,-1],[1,0],[0,-3],[-1,0],[-1,-1],[1,0],[0,-2],[-3,0],[0,-4],[-1,0],[0,-1],[1,0],[0,-1],[-2,0],[0,-2],[-2,0],[0,-1],[-1,0],[0,1],[-1,-1],[0,-1],[-2,0],[0,-2],[1,0],[0,-1],[-1,0],[0,-1],[-2,0],[0,-1],[-1,0],[0,-6],[-1,0],[-1,-1],[-1,0],[0,-1],[-1,0],[0,-1],[-1,0],[0,1],[-1,0],[0,-1],[-1,0],[0,-1],[1,0],[0,-2],[-2,0],[-1,-1],[0,-1],[-2,0],[0,-1],[-2,0],[0,-1],[2,0],[0,-2],[-2,0],[0,1],[-1,-1],[-1,0],[-1,1],[0,-2],[-1,0],[0,1],[-1,-1],[-1,0],[0,1],[-1,0],[0,-2],[-1,0],[0,-1],[-1,0],[0,-4],[-2,0],[1,-1],[0,-1],[-1,0],[0,-5],[-1,0],[0,-1],[-1,0],[0,-2],[-1,0],[0,-2],[-2,0],[0,-3],[-1,0],[0,-2],[-1,0],[0,1],[-1,0],[0,-2],[-2,0],[0,-1],[-2,0],[0,-4],[-1,0],[0,-1],[2,0],[-1,-1],[1,-1],[-1,0],[0,-3],[-1,0],[0,-2],[-1,0],[0,-1],[1,-1],[0,-1],[-1,0],[0,-2],[-2,0],[1,-1],[0,-1],[1,0],[0,-1],[-1,0],[-1,-1],[1,0],[0,-1],[-3,0],[0,-3],[-1,0],[0,-2],[-3,0],[0,-1],[-1,0],[0,-2],[-1,0],[0,-1],[-2,0],[0,2],[-1,0],[0,-1],[-1,0],[0,-2],[-2,0],[0,-1],[-1,0],[0,-2],[-2,0],[0,1],[-1,-1],[0,1],[-1,0],[0,-1],[1,-1],[-1,-1],[0,1],[-3,0],[0,6],[-23,-1],[-23,-1],[-6,-2],[-13,-3],[-21,-8],[-22,16],[-3,0],[-1,1],[-1,1],[0,1],[-1,1],[-2,2],[-8,0],[-1,2],[-1,1],[0,2],[-1,0],[0,2],[-1,1],[-2,1],[-1,1],[-2,1],[-1,0],[0,2],[-1,1],[0,1],[-1,1],[0,2],[-1,2],[0,4],[1,0],[0,1],[1,1],[2,1],[1,1],[1,1],[0,3],[1,1],[-1,2],[1,0],[0,3],[-1,1],[-1,1],[-1,0],[-21,-11],[-14,27],[-10,2],[0,7],[-2,1],[-4,5],[2,13],[-10,8],[1,-6],[-2,-3],[-4,0],[-5,4],[-8,-12],[-5,3],[-3,3],[-2,-2],[-2,1],[0,-1],[-3,1],[-2,1],[-6,4],[0,11],[6,5],[-7,11],[-4,6],[-2,5],[-2,4],[-5,-4],[-5,-4],[-10,0],[-3,-3],[-6,-4],[-1,-2],[-12,-3],[-3,1],[-5,0],[-1,-1],[-2,-3],[-7,-8],[-2,-2],[-3,1],[-2,0],[-6,2],[-14,0],[-4,5],[-3,-3],[-1,-3],[-1,-2],[-7,-7],[1,-5],[0,-5],[1,-2],[-1,-4],[0,-1],[-1,-3],[-24,-7],[-6,-1],[-10,-3],[-7,-2],[-7,-2],[-7,-2],[-6,-1],[-6,-2],[-7,-2],[-6,-2],[-7,-2],[-7,-1],[-6,-2],[-7,-2],[-13,-3],[-9,6],[-6,-1],[-3,17],[6,-3],[1,0],[-2,16],[0,2],[-1,2],[-1,2],[-2,5],[-2,5],[-2,7],[-1,4],[-1,0],[-12,10],[0,-1],[-8,-4],[-1,0],[-5,3],[-1,0],[0,1],[-13,11],[2,5],[-12,6],[-3,-4],[-1,-1],[-1,-1],[0,-1],[-1,-1],[0,-1],[2,-5],[0,-9],[-1,-2],[0,-5],[1,0],[0,-2],[-1,0],[0,-1],[-1,-1],[0,-1],[-1,-1],[-1,-2],[-1,0],[-1,-1],[-2,-2],[-2,-1],[-3,-1],[-2,-2],[-1,0],[-1,-1],[-3,-3],[-2,-3],[-1,-1],[-1,0],[-1,-1],[-8,0],[-2,1],[-1,1],[-1,1],[-4,4],[-1,1],[-4,8],[-1,2],[-2,2],[-1,1],[-1,0],[-1,1],[-1,0],[-2,1],[-3,0],[-2,1],[-3,1],[-2,1],[-6,0],[-1,-1],[-1,-1],[-1,-1],[-2,-2],[-1,0],[-2,-2],[-1,-1],[-2,-1],[-1,-2],[-2,-2],[-1,-2],[-1,0],[-2,-2],[0,-1],[-2,-3],[-2,-4],[-1,-2],[-1,-1],[-3,-2],[-1,-2],[-2,-1],[-2,0],[-1,-1],[-2,-1],[-1,-1],[-3,-2],[-3,-2],[-1,-1],[-1,-1],[-1,-1],[0,-1],[-1,-1],[0,-6],[1,-3],[0,-1],[1,-2],[1,-2],[0,-1],[1,-1],[1,-1],[1,-1],[2,-1],[3,-2],[3,-2],[4,-4],[1,-2],[1,-1],[0,-1],[1,0],[0,-3],[1,-4],[0,-1],[1,-4],[-1,-2],[0,-3],[-1,-1],[-1,-1],[0,-1],[-1,-1],[-2,0],[-1,-1],[-3,0],[-1,-1],[-1,0],[-1,-1],[0,-1],[-4,-6],[-2,-2],[-1,-2],[-1,-2],[0,-1],[-1,0],[-1,-1],[-4,0],[-1,1],[-3,0],[-1,1],[-1,-1],[-1,0],[-2,1],[-3,0],[-1,-1],[-1,-1],[0,-1],[-2,0],[0,1],[-1,0],[-1,1],[-1,0],[0,2],[-1,1],[0,4],[1,0],[0,5],[2,0],[0,2],[1,1],[1,1],[0,1],[1,1],[0,1],[1,1],[0,1],[1,0],[0,2],[-1,0],[0,1],[-4,0],[0,-1],[-3,0],[0,1],[1,0],[0,2],[-1,0],[0,1],[-1,0],[0,3],[-2,0],[0,1],[-1,0],[0,1],[-1,0],[0,1],[-1,0],[0,2],[-1,0],[0,2],[-1,0],[0,3],[1,0],[0,1],[1,0],[0,1],[-1,0],[0,1],[-1,0],[0,1],[1,0],[0,1],[-1,0],[0,3],[-1,0],[0,1],[-3,0],[0,3],[-1,0],[0,-1],[-4,0],[0,1],[-2,0],[0,3],[-1,0],[0,1],[-1,0],[0,-2],[-1,0],[0,1],[1,0],[0,1],[-1,0],[0,1],[-2,0],[0,-1],[-1,0],[0,-1],[-2,0],[0,2],[-1,0],[0,-2],[-3,0],[0,1],[-1,0],[0,1],[-1,0],[0,2],[-1,0],[0,-1],[-2,0],[0,4],[-2,0],[0,-1],[-1,-1],[0,1],[-5,0],[0,1],[-1,0],[0,1],[1,0],[0,2],[-2,0],[0,1],[-1,0],[0,1],[1,0],[0,2],[-2,0],[0,-1],[-1,0],[0,1],[-1,0],[-1,1],[0,1],[-1,1],[-1,0],[0,1],[-1,0],[0,1],[-1,0],[0,1],[-2,0],[0,-2],[-1,0],[0,1],[-1,0],[0,1],[-3,0],[-1,1],[0,1],[-1,0],[0,2],[-2,0],[0,1],[-3,0],[0,-1],[1,-1],[0,-2],[1,0],[0,-1],[-1,0],[0,-1],[-1,0],[0,-1],[-1,0],[0,-1],[-2,0],[0,-1],[-1,0],[0,-2],[-2,0],[0,1],[-1,0],[0,1],[-1,0],[0,1],[-2,0],[0,-1],[-1,0],[0,1],[-1,0],[0,-1],[-2,0],[1,-1],[-1,0],[0,-1],[-2,0],[0,-1],[-1,0],[0,-1],[-4,0],[0,1],[-1,0],[0,-1],[-2,0],[0,-1],[-2,0],[0,-1],[-1,0],[0,1],[-3,0],[0,3],[-2,0],[0,1],[-1,0],[0,1],[-1,0],[0,-1],[-2,0],[0,-1],[-1,0],[0,-1],[-1,0],[0,-2],[-1,-1],[0,-1],[-2,0],[0,-1],[-2,0],[0,1],[-2,0],[0,1],[-1,0],[0,2],[-2,0],[0,1],[-2,0],[0,1],[-1,0],[0,1],[-2,0],[-5,1],[-5,-1],[-5,-3],[-7,-4],[-5,-6],[-6,0],[-5,-1],[-3,0],[0,1],[-1,0],[0,-1],[-2,0],[0,-1],[-1,0],[0,-1],[-1,0],[0,-1],[-1,0],[0,-1],[-1,0],[0,-2],[-1,2],[-5,4],[-3,0],[0,1],[-1,1],[0,2],[-1,0],[0,-1],[-1,0],[0,1],[-1,0],[0,2],[1,0],[0,1],[2,0],[-1,1],[0,2],[-1,0],[0,1],[-1,0],[0,2],[2,0],[0,4],[-1,0],[-1,1],[0,1],[-1,0],[0,-2],[-1,0],[0,-1],[1,0],[0,-1],[-2,0],[1,-1],[-2,0],[0,2],[1,0],[0,3],[-1,0],[0,-1],[-1,0],[0,-1],[-1,0],[0,1],[-1,0],[0,2],[-2,0],[0,1],[-1,-1],[0,-1],[-3,0],[0,1],[-1,0],[0,2],[-1,0],[0,-1],[-1,0],[0,1],[-1,0],[0,3],[1,0],[0,1],[-1,0],[1,1],[-1,0],[0,1],[1,0],[0,1],[-2,0],[0,1],[1,0],[0,1],[-2,0],[0,-1],[-1,0],[0,-1],[-2,0],[0,1],[-1,0],[0,-1],[-1,0],[0,2],[-1,0],[0,-1],[-1,0],[0,1],[-1,0],[0,1],[-1,0],[0,2],[-1,0],[0,-1],[-1,1],[0,1],[-1,0],[0,-2],[1,-1],[-1,0],[0,-1],[-1,1],[-1,0],[0,-1],[-1,0],[0,-1],[-1,0],[0,-2],[-1,0],[0,1],[-1,0],[0,-3],[1,0],[0,-1],[-2,0],[0,-1],[-1,0],[0,1],[-1,0],[0,1],[-2,0],[0,1],[1,0],[0,1],[-1,0],[0,-1],[-1,0],[0,1],[1,0],[0,2],[-1,0],[0,-1],[-1,0],[0,2],[-3,0],[0,1],[-1,0],[0,-1],[-1,0],[0,-1],[-1,0],[0,1],[-1,0],[0,1],[-1,0],[0,3],[-1,-1],[1,0],[0,-1],[-1,0],[0,1],[-1,0],[0,-1],[-1,0],[0,-1],[1,0],[0,-1],[-1,0],[0,2],[-1,0],[0,-1],[-1,0],[1,-1],[-2,0],[0,-1],[-1,0],[0,1],[-1,0],[-1,-1],[1,0],[0,-1],[-1,0],[0,2],[-1,0],[0,-1],[-1,0],[0,-1],[-1,0],[0,2],[1,0],[0,1],[-1,0],[0,2],[1,0],[0,1],[-1,0],[0,2],[-2,0],[0,1],[-1,1],[0,1],[-1,0],[0,1],[-1,0],[0,-1],[-1,0],[0,1],[1,0],[0,4],[-1,0],[0,1],[1,1],[-1,0],[0,1],[-1,0],[0,-1],[-1,0],[0,1],[-1,0],[0,2],[-1,0],[0,2],[1,0],[0,1],[1,0],[0,2],[-1,0],[0,-1],[-1,0],[0,1],[1,1],[-1,0],[0,2],[-3,0],[0,-2],[-1,0],[0,1],[-1,0],[0,-1],[-1,0],[0,1],[-1,0],[0,-2],[-2,0],[0,-1],[-1,0],[0,1],[1,0],[-1,1],[-2,0],[0,1],[2,0],[0,1],[-2,0],[-1,1],[0,-4],[-1,-22],[0,-7],[-1,-12],[0,-8],[-1,-1],[0,-41],[1,-1],[0,-1],[1,-7],[2,-9],[2,-14],[4,-25],[2,-15],[1,-4],[0,-2],[1,-2],[1,-2],[1,-2],[-1,-2],[0,-3],[1,-2],[0,-2],[-1,-1],[-1,0],[0,-3],[2,-1],[0,-1],[1,-1],[3,-3],[1,-1],[2,-1],[0,-1],[2,-1],[1,0],[1,2],[2,1],[2,0],[2,-3],[2,0],[2,-1],[1,-1],[2,-4],[1,-6],[1,-3],[-1,-1],[-2,-2],[-3,0],[-1,-3],[0,-4],[1,-2],[3,-3],[1,-2],[2,-2],[-2,-8],[-1,-1],[-1,1],[0,-1],[-1,-1],[1,-1],[0,-2],[1,1],[0,-1],[1,-1],[1,0],[1,-2],[1,0],[0,-2],[1,0],[0,-1],[-1,0],[0,-1],[1,0],[0,-1],[-1,0],[-1,-1],[-1,1],[-1,1],[-1,0],[0,-1],[-1,-4],[-1,-3],[-1,0],[-1,-20],[0,-25],[-1,-10],[0,-8],[1,-9],[2,-20],[2,-28],[34,-49],[3,-22],[1,-9],[0,-49],[3,-17],[6,-27],[10,-48],[10,-54],[5,-28],[1,-2],[1,-7],[2,-11],[3,-15],[2,-10],[1,-9],[4,-13],[3,-13],[3,-9],[0,-2],[5,-20],[2,-9],[7,-29],[1,-3],[2,-15],[2,-7],[4,-24],[1,0],[5,-12],[2,-6],[1,-6],[8,-26],[9,-32],[6,-24],[3,-12],[4,-14],[11,-41],[2,-5],[4,-13],[13,-39],[8,-21],[1,-5],[3,-8],[8,-28],[2,-10],[1,-2],[3,-9],[4,-19],[7,-31],[7,-26],[1,-3],[27,-94],[25,-78],[38,-25],[1,-1],[2,-8],[3,-12],[1,0],[0,-1],[-1,0],[0,-8],[-2,0],[0,-1],[1,0],[0,-3],[1,0],[0,-2],[1,0],[0,-2],[-2,0],[0,-1],[1,-1],[-1,-1],[-1,0],[-1,-1],[-1,0],[0,-3],[1,-1],[0,-3],[1,-1],[-1,0],[1,-1],[0,1],[1,0],[0,-3],[2,0],[0,-4],[1,-1],[0,1],[1,0],[0,-1],[-1,-1],[-1,0],[0,-3],[1,-1],[0,-7],[-1,0],[0,-1],[2,0],[0,-1],[2,0],[0,-1],[-1,0],[0,-1],[-1,0],[0,-1],[1,0],[1,-1],[0,1],[1,0],[0,-1],[2,-2],[1,0],[0,-1],[1,0],[0,2],[1,0],[0,-1],[1,0],[-1,-1],[0,-1],[2,0],[0,-1],[-1,0],[1,-2],[1,-1],[0,1],[1,0],[1,-1],[1,-1],[1,0],[0,-1],[1,0],[0,-1],[-1,0],[-1,1],[0,-2],[2,0],[0,1],[1,0],[0,-1],[-1,0],[0,-3],[2,0],[0,-1],[-1,-1],[0,-1],[1,0],[0,1],[1,0],[0,-3],[1,0],[0,1],[1,0],[0,-1],[1,-1],[1,-1],[0,-1],[3,0],[0,-2],[-1,0],[0,-2],[1,0],[0,1],[2,0],[0,-1],[-2,0],[0,-1],[2,0],[0,1],[1,0],[0,-1],[-1,-1],[0,-1],[1,0],[0,-3],[2,0],[1,-1],[0,-3],[8,0],[1,-2],[0,-1],[1,0],[0,-2],[1,0],[1,-1],[0,-1],[1,0],[0,-1],[1,0],[0,-3],[1,-1],[0,-2],[-1,0],[0,-1],[1,-1],[1,0],[0,-3],[1,-1],[1,0],[0,1],[2,0],[1,-1],[-1,-1],[-1,1],[-1,0],[0,-1],[1,0],[0,-3],[-2,0],[0,-1],[-1,0],[0,-1],[2,0],[0,1],[1,1],[0,-2],[1,0],[1,-1],[0,-10],[-1,0],[0,-3],[1,0],[0,3],[1,0],[0,-1],[2,0],[1,-1],[-1,0],[0,-4],[-1,0],[0,1],[-1,-1],[-1,0],[0,-2],[1,-1],[0,-2],[-1,0],[0,-2],[-1,-1],[-1,2],[-1,0],[0,-5],[-1,1],[-1,0],[0,-3],[1,0],[0,-2],[1,0],[0,-1],[1,-1],[-1,0],[0,-1],[1,0],[1,-1],[-1,0],[0,-2],[1,-1],[2,0],[0,-5],[-1,-1],[-1,1],[0,-4],[-2,1],[0,-1],[-1,-2],[0,-1],[1,-1],[1,0],[0,-1],[-1,0],[0,-1],[-1,0],[0,2],[-2,0],[0,-2],[-1,0],[0,-1],[-1,0],[0,1],[1,0],[0,1],[-2,1],[0,-1],[-2,0],[0,-2],[1,0],[0,-3],[-1,0],[-1,-1],[0,-1],[-1,0],[0,-1],[-1,0],[1,1],[-1,1],[0,-1],[-1,0],[1,-1],[-1,0],[0,-5],[-1,1],[-1,1],[0,-1],[1,0],[0,-1],[-2,0],[-1,-1],[0,-1],[1,0],[0,-1],[-1,-1],[0,-1],[1,-1],[0,-3],[-3,0],[-1,-1],[1,-1],[2,0],[1,-1],[1,0],[0,-1],[-3,0],[0,-1],[-1,1],[-1,0],[0,-2],[-1,0],[0,-3],[-1,0],[-1,-1],[1,-1],[-1,0],[0,-4],[-1,-1],[-1,-1],[0,-1],[1,-1],[0,-2],[-3,0],[0,-3],[-1,0],[1,-1],[1,0],[0,-1],[-2,1],[-1,0],[0,-1],[1,0],[0,-5],[1,1],[0,-1],[1,0],[0,1],[1,0],[1,-1],[-1,-1],[-1,0],[-1,-1],[0,-1],[1,0],[0,-2],[1,0],[-1,-1],[-1,0],[0,-1],[-1,0],[0,-2],[1,0],[0,2],[1,0],[0,-1],[1,-1],[0,-3],[-1,0],[0,-1],[1,0],[-1,-1],[0,-1],[-1,0],[0,-1],[-1,-1],[0,-1],[-1,1],[-1,-1],[-1,-2],[-1,-1],[0,-5],[2,0],[0,-1],[-2,0],[0,-1],[-1,0],[0,-1],[1,0],[0,-2],[-1,0],[0,-1],[1,-1],[0,-1],[-1,0],[0,-1],[1,0],[0,-1],[1,0],[0,-1],[-2,1],[0,-2],[1,0],[-1,-1],[-1,1],[0,-1],[1,-1],[0,-1],[-1,0],[0,1],[-1,0],[-1,-1],[0,1],[-1,0],[0,-1],[1,0],[0,-1],[-1,0],[0,-1],[-1,0],[0,-4],[-1,-1],[1,0],[-1,-1],[-1,-1],[0,-3],[1,0],[0,-1],[-1,0],[0,-1],[-1,1],[0,-1],[-2,0],[0,-1],[1,0],[0,-1],[1,-1],[-1,0],[0,-2],[-1,0],[1,-1],[0,-1],[1,0],[0,-1],[-1,0],[0,-2],[1,0],[0,1],[1,0],[0,-2],[1,0],[0,1],[2,0],[0,1],[1,0],[0,-2],[-1,-1],[1,0],[0,-2],[1,0],[0,-4],[-1,1],[0,-1],[-1,0],[0,-1],[1,0],[1,1],[0,-3],[2,0],[1,-1],[-3,0],[0,-1],[-1,0],[1,-1],[2,0],[0,-4],[-1,0],[0,-1],[1,-1],[0,1],[1,0],[0,-1],[-1,0],[0,-1],[1,-1],[0,-1],[1,0],[0,-1],[-1,-1],[0,-3],[1,-1],[1,0],[0,-2],[2,0],[0,-5],[1,0],[0,2],[3,0],[0,-2],[1,1],[0,1],[1,0],[0,-2],[1,0],[-1,1],[1,0],[0,-1],[1,0],[0,1],[-1,1],[1,0],[0,-2],[1,0],[0,1],[1,0],[0,-2],[1,0],[0,-1],[2,0],[0,-1],[2,0],[0,-2],[1,0],[0,-1],[1,0],[0,-2],[1,0],[0,-1],[-1,0],[1,-1],[-2,0],[0,-1],[1,0],[0,-1],[-1,0],[0,-2],[-1,0],[0,-2],[1,0],[0,-1],[-1,1],[-1,-1],[1,0],[0,-1],[-1,0],[1,-1],[0,-1],[-1,0],[0,-2],[1,-1],[-2,0],[0,-3],[1,1],[2,0],[-1,-1],[0,-1],[-1,0],[0,-1],[1,-1],[0,1],[1,0],[0,-2],[-1,0],[0,-1],[1,0],[0,-1],[2,0],[0,-1],[1,0],[0,-1],[1,0],[0,-1],[1,0],[1,-1],[0,1],[1,1],[0,-1],[1,1],[1,0],[-1,-1],[1,-1],[1,1],[0,-3],[1,0],[0,-1],[-1,0],[-1,-1],[3,0],[0,-1],[1,0],[0,-2],[1,0],[1,1],[0,-2],[1,-1],[0,-2],[-3,-6],[-3,-4],[2,-9],[2,-3],[5,-3],[2,-3],[4,-1],[1,-3],[1,-8],[0,-4],[2,-13],[5,-46],[-4,-11],[1,-13],[16,-36],[-30,-39],[-1,-1],[0,-70],[1,1],[3,-2],[1,-2],[0,-1],[1,0],[1,-3],[2,-2],[1,-1],[-1,-1],[1,-1],[-1,-11],[0,-18],[-1,-15],[0,-51],[1,-10],[0,-33],[6,-15],[9,-21],[0,-72]],[[3241,7509],[-23,0],[0,33],[-17,11],[0,23],[-17,22],[-23,11]],[[4530,769],[6,12],[-34,55],[5,45],[-5,22],[5,56],[12,12],[23,0],[28,33],[0,22],[-17,23],[23,78],[-34,34],[0,22],[-29,33],[29,45],[11,45],[0,45],[-23,44],[0,11],[17,34],[75,67],[11,22],[-11,23],[11,11],[-5,22],[-29,-11],[-6,11],[-5,23],[-6,11],[6,11],[-29,0],[-23,22],[6,34],[-12,67],[17,56],[-5,22],[12,27],[-18,29],[11,33],[23,0],[-5,79],[-23,11],[0,33],[-12,12],[-28,0],[-23,33],[-63,11],[-12,8],[-23,15],[-5,44],[-109,0],[5,23],[-23,56],[18,33],[5,22]],[[8536,3733],[-20,-1],[-7,-1],[1,-7],[0,-9],[1,-6],[-8,-25],[-1,-4],[1,-25],[2,-25],[-25,-11],[-8,2],[-7,2],[-17,4],[-13,5],[-10,-6],[-11,-11],[-3,-9],[0,-6],[8,-4],[9,-1],[15,-14],[5,-8],[4,-1],[3,-5],[6,-3],[1,-7],[8,-1],[2,0],[4,1],[6,-7],[2,-2],[3,-8],[7,-6],[8,-7],[12,-3],[9,-4],[8,-7],[3,-14],[0,-3],[1,-7],[3,-14],[3,-6],[8,-5],[0,-2],[2,-6],[4,-7],[-3,-13],[-2,-17],[-1,-2],[-1,-7],[1,-6],[2,-7],[9,-5],[5,-11],[2,-7],[4,0],[0,-10],[4,-3],[10,2],[5,-6],[3,-5],[1,-3],[6,-9],[6,-4],[2,-9],[1,-2],[2,-8],[6,-6],[0,-6],[1,-1],[2,-1],[5,0],[4,-4],[4,-2],[2,-3],[2,-2],[2,0],[12,-12],[1,-7],[6,-1],[4,-11],[13,-3],[22,-2],[6,1],[13,3],[5,-7],[-2,-13],[2,-14],[-2,-8],[-11,-7],[-5,-7],[-1,-2],[1,-3],[8,-16],[9,-13],[13,-13],[9,-2],[4,-3],[2,-12],[1,-1],[0,-6],[11,-2],[7,-5],[5,-1],[4,-13],[3,-20],[1,-13],[1,-2],[-1,0],[-7,-16],[1,-8],[6,-2],[2,0],[1,-2],[1,-3],[3,-18],[-5,-14],[-4,-9],[-6,-6],[-12,-8],[-1,-8],[-3,-15],[-6,-8],[-1,-7],[-6,-6],[-6,3],[-7,-6],[-15,-6],[-12,-1],[-4,-1],[-14,-4],[-3,-11],[6,-9],[9,-5],[2,-8],[-2,-11],[6,-7],[10,-10],[11,-14],[1,-9],[13,-10],[3,-5],[3,-6],[0,-4],[-1,-5],[5,-8],[3,-1],[1,-2],[2,-4],[-1,-7],[-1,-8],[-3,-13],[0,-8],[1,-9],[1,-5],[0,-1],[1,0],[1,-2],[-2,-4],[0,-9],[-2,-4],[1,-9],[-1,-5],[13,2],[3,-1],[7,-10],[3,-8],[4,-6],[8,-4],[17,-9],[14,-28],[3,2],[6,0],[5,-3],[0,3],[3,4],[8,-7],[8,1],[6,0],[4,-1],[2,-2],[-6,-2],[-3,-7],[-6,-9],[-4,-7],[0,-1],[-4,-7],[-5,-4],[-8,-4],[-8,2],[-4,15],[-4,8],[-4,-1],[-10,-7],[3,-6],[-3,-6],[2,-10],[-5,-3],[-5,2],[-8,-12],[2,-7],[-3,-2],[-3,-4],[-1,-10],[4,-9],[-8,3],[-7,-5],[-3,3],[-1,7],[-7,0],[-4,-4],[-4,5],[-4,-6],[3,-21],[7,-1],[5,-10],[0,-7],[8,-7],[9,15],[6,4],[11,0],[7,-11],[4,-7],[0,-5],[11,-2],[-10,-19],[-9,-33],[-7,-8],[-7,-2],[-2,0],[-8,-1],[-5,-4],[5,-8],[10,-3],[12,0],[5,-1],[-2,-14],[1,-8],[0,-4],[-10,-1],[-4,-1],[2,-10],[0,-5],[2,0],[3,-18],[-4,-2],[-6,-3],[1,-12],[4,0],[11,1],[0,2],[3,0],[0,2],[11,2],[1,-17],[3,-15],[3,-6],[4,-3],[-5,-20],[0,-1],[-4,-63],[-1,-6],[-2,-27],[4,-13],[-4,-5],[-6,-8],[-4,-4],[-5,7],[-4,-2],[-5,0],[-3,-3],[-7,0],[-4,3],[-3,-1],[4,-17],[6,-10],[3,-4],[7,-8],[10,-15],[11,-13],[6,-10],[3,15],[12,-13],[6,-9],[2,-14],[12,-7],[8,0],[16,2],[17,-12],[9,-11],[4,0],[0,-5],[-8,-8],[-2,-5],[-6,-1],[1,-17],[1,-3],[0,-3],[5,-11],[7,-4],[-2,-4],[-5,-1],[4,-31],[1,-7],[1,-4],[-6,-3],[-1,-9],[-7,-12],[-10,0],[1,-18],[22,-16],[11,9],[14,3],[5,1],[5,-7],[2,-2],[11,3],[7,1],[6,-8],[6,1],[3,2],[1,-1],[5,-4],[1,-47],[0,-3],[2,-28],[1,-14],[-1,-10],[4,-8],[5,-11],[-12,-29],[-4,2],[-2,-1],[-4,-1],[-7,-6],[-10,-10],[-7,-1],[-5,-2],[-2,-1],[-13,-8],[-8,-3],[-3,14],[-7,9],[-15,0],[-15,10],[-14,3],[-2,1],[-4,3],[-5,3],[-7,-6],[-28,2],[-11,-2],[-9,-4],[-7,7],[-6,-2],[-1,-1],[-12,6],[-19,6],[-10,0],[-8,-1],[-11,9],[-9,0],[-7,2],[-3,0],[-5,-6],[-11,-6],[-12,-4],[-2,-3],[-8,2],[-5,5],[-4,1],[-7,1],[-2,2],[-2,5],[-2,9],[-5,5],[-1,14],[0,2],[-1,0],[0,2],[-1,0],[0,1],[-3,0],[0,-1],[-2,0],[-1,1],[-1,-1],[-6,2],[-1,2],[-2,1],[-2,-1],[-1,-1],[-1,1],[-1,2],[-3,1],[0,-1],[-3,-4],[-6,0],[0,-2],[-1,-1],[-3,1],[-4,4],[-7,0],[-4,1],[-1,0],[1,-2],[-2,-2],[-2,0],[-2,-1],[-2,-2],[-1,0],[0,-2],[-2,-2],[-2,-3],[-2,-2],[-1,0],[-2,-2],[-6,2],[5,-8],[6,-10],[0,-6],[-5,-6],[-5,1],[-5,-6],[-1,-2],[-3,-2],[-11,-6],[-12,-4],[-10,-3],[-10,-4],[-3,-3],[-3,-9],[0,-9],[-5,-13],[-9,-7],[10,-8],[-25,-64],[-10,-4],[-25,-10],[-11,-5],[-16,10],[-5,4],[-15,4],[0,8],[-1,5],[-1,1],[-3,3],[-2,6],[0,2],[1,3],[2,4],[0,3],[1,6],[-3,2],[-5,2],[-4,2],[-5,1],[-4,1],[-2,0],[-1,1],[-2,-1],[-3,1],[-5,0],[0,-1],[-1,0],[0,1],[-1,1],[0,-2],[-2,0],[0,2],[-1,0],[-1,-1],[-1,0],[-2,1],[-1,0],[0,1],[-1,-1],[-4,2],[-7,3],[-5,4],[0,4],[-2,3],[1,4],[-2,1],[-1,-2],[-4,4],[1,3],[-3,3],[-2,5],[-1,5],[0,7],[-3,6],[-2,3],[-3,0],[-1,1],[-8,-6],[-2,-5],[-8,-1],[-10,-9],[-5,-3],[-5,-3],[-10,2],[-10,0],[-4,1],[-11,-1],[-5,-4],[-15,-4],[-16,-4],[-6,-3],[-8,-2],[-9,-3],[-3,-1],[-9,-1],[-6,-3],[-1,-3],[-14,2],[-15,7],[-1,2],[0,3],[3,12],[-7,1],[-2,-2],[0,-4],[-8,4],[1,-8],[1,-3],[1,-1],[0,-9],[1,-6],[0,-1],[-1,-2],[-1,-1],[-4,-2],[-3,0],[-2,2],[-1,1],[-4,2],[-1,0],[-2,-1],[-2,-2],[0,-3],[-1,-3],[1,-3],[2,-9],[2,-5],[4,-2],[3,-2],[2,-2],[2,-5],[1,-5],[0,-5],[-1,-4],[-1,-4],[-2,-3],[-1,-4],[-6,-3],[-3,-3],[-1,-2],[-1,-3],[0,-2],[1,-3],[1,-5],[1,-4],[2,-3],[1,-2],[3,-4],[3,-2],[1,-3],[0,-3],[-3,-5],[-3,-3],[-1,-3],[0,-4],[2,-4],[0,-3],[-1,-2],[-2,-1],[-3,0],[-5,4],[-3,2],[-2,0],[-2,-1],[-2,-1],[-2,-6],[-2,-3],[-6,-2],[-2,0],[-2,-4],[-4,-5],[-3,-1],[-5,-2],[-2,-2],[-1,-4],[-1,-4],[0,-5],[2,-3],[3,-1],[5,0],[6,-3],[2,-2],[1,-6],[-1,-4],[-3,-3],[-6,-2],[-10,4],[-3,1],[-3,-3],[-2,-3],[0,-5],[7,-12],[0,-9],[-1,-3],[-2,-2],[-5,-2],[-6,-1],[-5,0],[-2,1],[-3,3],[-3,5],[-1,2],[-2,1],[-3,-1],[-3,-2],[-2,-6],[-2,-3],[-1,-8],[-3,-3],[-7,0],[-2,2],[-2,0],[-2,-2],[-1,-3],[1,-3],[1,-5],[-1,-5],[-1,-2],[-2,-1],[-2,-1],[-2,1],[-3,3],[-3,4],[-2,1],[-2,-1],[-3,-2],[-1,-5],[-3,-3],[-5,-4],[-2,-1],[0,-6],[4,-10],[3,-10],[3,-5],[8,-15],[2,-6],[-1,-4],[-1,-3],[-2,-4],[-4,-4],[-4,-5],[-5,-6],[-4,-5],[-1,-4],[-1,-3],[0,-5],[-1,-5],[-3,-3],[-6,-1],[-8,3],[-8,3],[-12,3],[-7,3],[-4,2],[-4,0],[-3,-1],[-3,-2],[-1,-4],[-2,-6],[-7,-9],[-5,-8],[-4,-5],[-2,-5],[-2,-11],[-4,-11],[-8,-6],[-5,-5],[-4,-8],[-4,-12],[-2,-10],[0,-21],[-3,-13],[-2,-5],[-2,-11],[-2,-7],[-6,-3],[-9,-2],[-9,-3],[-4,-3],[-3,-5],[0,-5],[2,-5],[2,-4],[3,-7],[4,-9],[1,-7],[0,-9],[-2,-8],[-5,-11],[-3,-2],[-12,0],[-6,1],[-6,-1],[-4,-2],[-2,-4],[-1,-4],[0,-4],[-1,-3],[-1,-1],[-3,-5],[-1,-2],[-6,-2],[-5,-3],[-4,-5],[0,-6],[-1,-2],[1,-3],[2,-3],[5,-3],[4,1],[4,3],[7,6],[4,2],[4,0],[5,-2],[4,-2],[1,-5],[0,-7],[-1,-9],[-6,-13],[-12,-16],[-4,-7],[-4,-6],[0,-7],[2,-18],[1,-6],[0,-2],[-1,-2],[0,-2],[-2,-2],[-7,-8],[-3,-1],[-2,-1],[-5,-1],[-3,0],[-4,1],[-3,2],[-7,2],[-11,3],[-6,0],[-2,-1],[-5,-3],[-3,-3],[-3,-3],[-2,-4],[-1,-4],[-1,-3],[1,-2],[1,-4],[1,-3],[2,-6],[4,-8],[7,-10],[2,-5],[1,-3],[1,-5],[0,-4],[-2,-13],[-1,-4],[-2,-6],[-1,-5],[0,-5],[1,-4],[5,-10],[1,-5],[1,-5],[-2,-5],[-2,-4],[-5,-3],[-4,0],[-11,3],[-5,0],[-5,-2],[-2,-4],[-1,-4],[1,-5],[2,-4],[3,-4],[5,-4],[2,-4],[1,-4],[0,-5],[-2,-3],[-3,-2],[-5,-1],[-7,2],[-4,1],[-3,-1],[-2,-2],[-3,-3],[-1,-5],[1,-3],[0,-2],[3,-6],[2,-4],[0,-5],[-2,-6],[-2,-3],[-3,-2],[-4,0],[-6,3],[-3,1],[-2,0],[-4,-1],[-2,-2],[-2,-3],[-1,-5],[0,-3],[1,-2],[4,-6],[4,-2],[3,-2],[10,-4],[6,-2],[8,-7],[7,-5],[4,-3],[3,-4],[1,-4],[0,-5],[-1,-3],[-2,-2],[-3,0],[-6,2],[-6,2],[-3,1],[-4,-2],[-2,-4],[-1,-3],[-1,-5],[1,-5],[2,-7],[4,-6],[6,-9],[2,-5],[2,-5],[2,-14],[2,-3],[3,-2],[3,1],[3,3],[2,6],[5,5],[5,6],[3,3],[3,1],[3,0],[3,-2],[2,-4],[3,-6],[3,-8],[0,-6],[-1,-4],[-3,-5],[-10,-23],[-4,-12],[-1,-10],[2,-6],[6,-7],[4,-5],[3,-5],[3,-6],[3,-8],[0,-21],[2,-10],[3,-6],[6,-8],[2,6],[5,-4],[8,-3],[1,0],[2,-1],[3,-1],[1,-1],[1,-2],[1,-2],[1,-3],[0,-5],[-1,-5],[0,-3],[-4,-3],[-2,0],[-4,-4],[-1,0],[0,1],[-1,1],[-1,0],[-2,-1],[-2,0],[-4,2],[-3,-3],[-6,-3],[-2,0],[-5,-4],[-4,-5],[-3,-4],[-1,-3],[0,-4],[1,-3],[1,-3],[2,-5],[0,-5],[2,-7],[1,-5],[0,-4],[1,-1],[0,-3],[1,-2],[1,-1],[1,-2],[0,-1],[2,-2],[1,-1],[2,-1],[6,0],[1,1],[2,2],[1,2],[3,5],[1,1],[1,2],[1,1],[1,0],[2,1],[3,0],[1,-1],[2,0],[1,-1],[1,-1],[0,-1],[1,-1],[1,-2],[0,-3],[1,0],[-1,-1],[0,-2],[-1,-1],[0,-1],[2,-4],[0,-1],[2,-1],[2,-2],[1,-2],[0,-2],[1,-1],[0,-3],[1,-2],[0,-3],[2,-5],[0,-7],[1,-2],[4,-11],[3,-8],[1,-3],[4,-11],[6,-12],[4,-11],[2,-6],[-1,-2],[0,-3],[-2,-3],[-1,-3],[-2,-1],[-3,-1],[-3,-1],[-4,-3],[-2,-4],[-2,-2],[-1,-3],[-1,-5],[0,-4],[3,-5],[7,-5],[5,-4],[2,-3],[3,-6],[2,-5],[1,-5],[-6,-15],[-3,-4],[-1,0],[-4,-1],[-5,1],[-8,0],[-3,1],[-3,0],[-3,-2],[-3,-3],[-1,-7],[-6,-10],[-7,-6],[-4,-4],[-5,-6],[-4,-7],[2,-5],[5,-2],[3,0],[3,1],[3,1],[1,0],[2,-1],[1,0],[1,-2],[0,-4],[-1,-2],[-2,-2],[-1,-1],[-2,0],[-1,1],[-2,2],[-1,1],[-2,0],[-1,-1],[-1,-1],[-1,-2],[1,-1],[1,-2],[2,-2],[2,-1],[6,0],[2,1],[1,2],[2,1],[1,4],[1,2],[1,1],[3,1],[1,-3],[0,-1],[-1,-2],[-2,-2],[-1,-1],[0,-1],[1,-2],[-2,-1],[-1,-2],[0,-4],[1,-3],[1,-2],[0,-12],[-1,-1],[-1,-2],[0,-2],[-2,-2],[-1,-3],[-2,-3],[-2,-2],[-2,-1],[-1,-1],[-1,0],[-1,-1],[-2,1],[-2,0],[-4,1],[-1,0],[-1,1],[-1,0],[-2,-1],[-4,-3],[-5,-5],[-3,-2],[-1,0],[-2,-1],[-1,-3],[-3,-3],[-2,-9],[-1,-4],[1,-5],[-1,-4],[-1,-2],[-1,-2],[-2,-4],[-29,19],[-39,28],[-9,-3],[-3,-1],[-24,-7],[-6,-1],[-4,1],[-3,3],[-1,9],[2,3],[4,4],[5,10],[1,4],[0,3],[-2,3],[-3,3],[-2,4],[0,5],[3,7],[0,5],[-13,3],[-7,2],[-2,-1],[-10,-4],[-8,-1],[-7,4],[-6,3],[-15,7],[-4,12],[-2,6],[-5,4],[-38,55],[-7,2],[-1,0],[-4,5],[-15,13],[20,19],[20,20],[-2,17],[-3,18],[-4,31],[-1,3],[-2,10],[-2,11],[-5,2],[-3,-1],[-3,2],[-2,0],[-2,2],[-2,2],[-1,1],[-1,3],[-2,3],[-2,0],[-1,1],[0,3],[-1,1],[-3,1],[0,2],[-1,3],[-2,7],[-3,3],[-5,4],[-1,1],[-2,7],[-4,5],[0,2],[-7,12],[-4,3],[-1,2],[-2,3],[-3,6],[-1,2],[-4,0],[-11,8],[-13,17],[-8,10],[-7,9],[-7,4],[-7,3],[-22,8],[1,1],[-16,18],[-18,21],[-6,-3],[-6,-4],[-5,-41],[-5,1],[-12,7],[-10,11],[-2,2],[-2,2],[-1,1],[0,8],[-3,2],[-3,1],[-2,-1],[-5,-2],[6,-29],[-7,-6],[-3,-1],[-4,2],[-3,0],[-1,2],[-3,3],[-9,5],[-7,3],[-14,6],[-8,4],[-5,1],[-6,-2],[-11,4],[-1,1],[-7,4],[-9,0],[-4,2],[-1,6],[-2,1],[-6,-2],[-2,-2],[-2,-1],[0,-5],[4,-7],[1,-6],[-4,-2],[-1,-7],[-2,-4],[-7,-1],[-4,-7],[-6,-3],[-8,-4],[-1,2],[-3,3],[-2,2],[-3,1],[-1,0],[-4,-2],[-4,-5],[-1,-4],[-1,-8],[0,-5],[-1,-4],[-5,-3],[-7,0],[-10,6],[0,1],[-1,5],[-1,4],[1,4],[1,6],[-5,5],[-8,4],[-5,7],[-6,0],[-4,-8],[-8,-3],[-2,3],[-2,-1],[-3,-2],[-1,-3],[-7,1],[-7,-1],[-1,-3],[1,-7],[-4,-3],[-1,0],[-4,-1],[1,-5],[6,-4],[-3,-10],[0,-13],[-6,-4],[-5,-6],[1,-8],[4,-8],[-2,-7],[-5,-1],[-10,6],[-1,1],[-8,2],[-7,-1],[-2,12],[-3,5],[-10,-6],[-10,-6],[-10,-5],[-1,0],[-2,11],[-2,10],[-8,-2],[-11,-2],[-1,0],[1,-13],[3,-11],[-1,-9],[-11,10],[-8,3],[-9,2],[-6,4],[-7,5],[-2,1],[-3,3],[-4,3],[-5,1],[2,15],[-5,10],[-3,10],[-4,13],[0,11],[-1,7],[-2,5],[11,2],[1,9],[3,8],[-2,9],[-5,6],[0,6],[6,2],[1,4],[-2,7],[-1,6],[-3,19],[-3,1],[-8,-4],[-8,2],[-6,-1],[-6,-5],[-1,-8],[0,-1],[-8,-8],[-7,-4],[-1,0],[-3,1],[-5,-5],[-8,-5],[-2,-1],[-1,0],[-2,-5],[0,-8],[-2,-6],[-5,-1],[-3,2],[-3,3],[-3,2],[-5,1],[-1,-2],[-2,-4],[0,-1],[-5,-7],[-3,-1],[-2,2],[-2,6],[-1,3],[-5,4],[-3,-6],[-2,-4],[0,-1],[-1,-6],[-4,-7],[-9,-4],[-4,2],[-3,0],[-1,-13],[0,-1],[-2,-7],[4,-8],[-1,-9],[-3,-7],[-1,0],[-10,-9],[-1,0],[-10,-6],[-6,-3],[-4,3],[-3,6],[-6,6],[-11,10],[-15,16],[-3,0],[-1,-7],[-4,-10],[2,-8],[-1,-16],[-4,-6],[-4,-5],[-6,-10],[-1,-10],[-2,-7],[5,-10],[0,-7],[-1,-7],[-1,-4],[0,-7],[1,-6],[-2,-3],[-4,5],[-2,-1],[-1,-7],[-2,-8],[-2,-6],[-4,-7],[-1,-7],[-2,-5],[-1,-5],[-3,-4],[-2,-3],[-2,-4],[-4,1],[-12,6],[-11,6],[-6,2],[-7,5],[-6,5],[-10,4],[-12,5],[-10,3],[-7,-3],[-14,-9],[-6,-2],[-5,-7],[-7,-4],[-1,-1],[-5,-7],[-5,-12],[-4,-7],[-7,0],[-2,-3],[-2,-5],[-3,-2],[-12,-1],[-5,4],[-9,-13],[-5,-4],[-2,10],[-3,8],[-1,17],[2,9],[2,16],[0,6],[-1,3],[-2,12],[-5,8],[-1,25],[-3,12],[-3,6],[-2,5],[-1,6],[1,5],[1,8],[-5,4],[-10,7],[-6,1],[-8,-3],[-6,0],[-4,15],[-1,12],[1,10],[-9,8],[-5,7],[0,2],[-3,11],[-5,10],[0,16],[3,17],[2,14],[0,11],[6,8],[6,6],[-3,13],[-3,16],[2,8],[1,5],[-7,24],[0,9],[-3,5],[-4,0],[-10,-1],[-19,-1],[-4,-1],[-11,10],[0,8],[-6,6],[-1,4],[3,4],[1,12],[0,2],[-2,12],[0,6],[-9,9],[-11,8],[-4,6],[2,5],[5,9],[2,7],[-5,3],[-8,3],[-11,6],[-4,5],[0,5],[5,5],[1,4],[3,13],[6,7],[1,6],[-2,3],[-3,0],[-1,3],[-2,2],[-3,1],[-3,-1],[-1,-2],[-1,-2],[-2,-2],[-2,2],[-1,2],[-2,-1],[-2,-2],[-3,-1],[-1,4],[-2,-1],[-3,-1],[-4,-3],[-10,5],[-6,7],[-4,4],[-2,-3],[-5,-6],[-4,-6],[-6,-9],[-7,-11],[2,-3],[-3,-8],[-1,-5],[0,-5],[-3,-1],[-17,0],[-4,-5],[-6,-3],[-1,-5],[-1,-4],[-5,-6],[-6,-10],[-2,-6],[-7,-11],[-5,-6],[-6,-14],[-2,-7],[-8,-8],[-4,-6],[-5,-6],[-4,-4],[-10,-10],[-4,-5],[-20,0],[-4,5],[-4,6],[-1,9],[-1,11],[-3,6],[-7,-1],[-11,-3],[-11,-5],[-1,0],[-10,-1],[-4,0],[-7,4],[-7,1],[-9,0],[-14,-4],[-6,-4],[-2,-4],[2,-2],[0,-5],[-3,-3],[-4,-5],[-6,-3],[0,-4],[-3,-5],[-4,-1],[-2,0],[-8,-7],[-6,-3],[-8,-6],[-5,-3],[-5,1],[-8,-1],[-3,-2],[-4,-8],[-3,-7],[-4,-7],[0,-2],[-1,-8],[-3,-6],[-5,-5],[-8,-12],[-4,-15],[-4,-12],[-3,-10],[-1,-9],[-4,-8],[-3,-9],[-3,-6],[-5,-7],[-5,-8],[0,-4],[-1,-9],[6,-7],[4,-6],[3,-7],[1,-13],[1,-9],[2,-10],[3,-11],[-1,-2],[0,-2],[-7,-1],[-2,-4],[-1,-21],[-2,-6],[0,-13],[-5,-11],[-5,-5],[-2,-6],[-4,-5],[-3,3],[0,17],[-7,2],[-1,3],[-1,5],[-8,11],[2,17],[-2,14],[0,2],[2,12],[1,9],[1,5],[-2,4],[-4,-4],[-5,-5],[-6,-3],[0,-11],[-2,-6],[-1,-1],[-3,-3],[-4,-4],[-9,-9],[-4,-4],[-5,0],[-11,5],[-4,24],[-5,21],[-5,26],[-4,21],[-6,22],[-4,19],[-1,12],[-1,1],[-1,9],[0,10],[2,5],[-4,21],[-4,18],[-7,13],[-1,2],[1,1],[6,5],[6,3],[1,3],[-3,3],[-5,-1],[-5,-3],[-2,-1],[-4,-5],[-3,3],[-2,7],[9,7],[2,0],[5,2],[11,0],[2,3],[-5,4],[-3,2],[-4,-4],[-9,0],[-6,1],[-2,9],[-30,0],[-23,-1],[-13,-1],[-14,0],[1,20],[-30,0],[-4,3],[-1,6],[-3,2],[-2,5],[-3,2],[-15,-1],[-6,1],[-7,1],[-13,3],[-8,-1],[-3,-3],[-10,-9],[-7,-8],[-11,-13],[-9,-12],[-8,-9],[-1,-2],[-10,-10],[-18,-20],[-14,-8],[-9,-1],[-5,-6],[-4,-5],[-8,-4],[-4,4],[-3,7],[7,14],[3,13],[-6,13],[-3,11],[-3,6],[-5,11],[-8,8],[-6,5],[-2,7],[-3,5],[-5,9],[-4,7],[-10,15],[-9,14],[-7,9],[-6,11],[-2,2],[-10,0],[-7,-3],[-8,-5],[0,1],[-2,6],[-3,11],[6,23],[2,22],[3,19],[1,10],[2,9],[4,6],[-2,10],[-5,6],[-4,3],[-8,-5],[-12,-8],[-6,-7],[-13,-11],[-13,-10],[-12,-11],[-3,-3],[-12,-6],[-11,-11],[-5,-4],[1,-23],[0,-8],[-4,-11],[-8,-14],[-5,-8],[-2,-7],[-4,-6],[-6,1],[-7,3],[-4,2],[-4,-8],[-3,-3],[-4,-7],[-4,-10],[-1,-11],[-1,-7],[-2,-7],[-9,-4],[-7,-5],[-9,-4],[-10,-3],[-7,10],[-8,-11],[-12,-10],[-1,-1],[-2,-2],[-5,-4],[-8,0],[-5,2],[-11,-3],[-12,-4],[-10,-2],[-17,0],[-4,-1],[-5,-1],[-11,-2],[-14,-3],[-12,-2],[-2,2],[0,6],[17,20],[2,10],[6,6],[7,10],[2,7],[3,8],[1,7],[-7,1],[-7,0],[-1,-4],[-7,-2],[-1,-4],[-3,-6],[-4,-9],[-1,-6],[-12,-4],[-9,-3],[-5,2],[-1,6],[2,14],[1,5],[2,10],[-2,7],[-1,17],[-5,9],[-1,7],[-3,4],[-5,2],[-6,0],[-10,1],[-4,4],[-2,5],[-4,3],[-7,1],[-7,2],[-5,-3],[-5,-1],[-6,-4],[-8,-4],[-5,-5],[1,-5],[-1,-5],[-1,-2],[1,-2],[0,-5],[-2,-4],[-2,-3],[-4,-7],[-5,-7],[-1,-1],[1,-15],[0,-5],[-1,-5],[-2,-9],[-2,-5],[1,-4],[3,-3],[-2,-4],[1,-3],[2,-1],[3,-4],[1,-8],[5,-5],[1,-6],[-1,-7],[2,-5],[-1,-4],[5,-3],[4,-6],[1,-4],[-3,-8],[-13,-12],[-4,-1],[-10,-3],[-14,-4],[-7,-2],[-10,-17],[-5,-16],[-4,-11],[-4,-9],[0,-1],[-3,-7],[-5,-6],[-4,-6],[-2,-5],[0,-19],[-1,-11],[-5,-7],[-3,0],[-2,-1],[-10,4],[-8,3],[-12,19],[-8,12],[-13,11],[-7,2],[-6,-2],[-5,5],[-6,13],[-3,5],[-7,8],[-6,3],[-3,6],[16,6],[0,14],[-3,5],[2,23],[4,3],[7,8],[12,17],[14,9],[5,6],[3,9],[1,7],[2,13],[1,3],[1,8],[2,16],[1,8],[-3,2],[-4,20],[-23,5],[-6,-2],[-6,1],[-4,6],[-2,7],[-1,0],[-12,-1],[-6,0],[-10,5],[-8,5],[-2,-2],[-6,-9],[-7,-3],[-3,-4],[-7,-4],[-8,1],[-3,4],[-5,6],[-5,5],[-9,9],[-13,12],[-13,8],[-7,3],[-7,5],[-6,7],[-4,-7],[-2,-8],[-7,-13],[-2,4],[-2,2],[-6,9],[-2,2],[-6,9],[-2,2],[-4,-1]],[[8767,2480],[0,3],[-3,7],[-5,5],[-4,1],[-36,3],[-3,0],[5,-23],[1,-4],[4,-1],[3,0],[4,4],[13,4],[3,-14],[2,-6],[9,-7],[2,2],[4,21],[1,5]],[[4530,769],[-4,-4],[-2,-6],[-1,-6],[1,-8],[0,-10],[1,-5],[1,-6],[0,-9],[2,-4],[6,2],[7,0],[-1,-8],[-3,-7],[-7,-14],[-4,-6],[-6,-6],[-5,0],[-7,5],[-8,4],[-5,3],[-5,11],[4,9],[6,11],[3,3],[-1,3],[0,2],[-5,6],[-3,-2],[-2,-5],[-1,-1],[-2,-2],[-6,-4],[-7,0],[-3,3],[-3,2],[-3,15],[-2,3],[-6,-2],[-10,-5],[-4,-4],[-7,-5],[0,-11],[-4,-4],[-12,2],[-14,2],[-20,8],[-10,6],[-9,6],[-5,0],[-4,-6],[-7,-12],[-3,-4],[-6,-1],[-35,0],[-3,-4],[-5,-6],[-4,2],[-1,10],[-3,3],[-14,0],[-7,-2],[-1,-4],[-5,-4],[-8,0],[-6,1],[-5,-1],[2,9],[3,9],[-2,11],[-3,5],[1,8],[6,11],[7,11],[7,11],[3,8],[5,9],[1,8],[-1,10],[-19,17],[-6,5],[-8,-1],[-1,0],[-10,-2],[-10,-1],[-8,-1],[-5,2],[0,19],[-1,5],[-1,22],[0,26],[-1,0],[0,27],[-1,15],[-1,31],[0,22],[-1,9],[-1,20],[0,9],[1,6],[0,7],[-16,1],[-6,-2],[-4,2],[-12,-1],[-18,0],[-25,-3],[-4,2],[-5,-2],[-10,-2],[-5,3],[-9,-2],[-8,0],[-24,-2],[-13,0],[-20,-2],[-13,1],[-1,0],[-7,-2],[-16,0],[-7,-1],[-4,-9],[-11,-15],[-4,-7],[-8,-12],[-6,-8],[-5,-11],[-7,-4],[-1,1],[-4,4],[-13,10],[-12,7],[-7,4],[-6,0],[-7,-1],[-6,4],[-9,1],[-4,-3],[-6,4],[-3,3],[-5,4],[-11,16],[-10,8],[-9,2],[-10,-3],[-9,-6],[-6,-6],[-4,-4],[-4,-3],[-1,-1],[-8,2],[-5,2],[-1,1],[-1,4],[0,13],[-3,2],[-5,-3],[-5,2],[-6,9],[-7,5],[-5,4],[-4,0],[-2,2],[1,13],[1,2],[-2,9],[-2,0],[0,7],[-2,2],[-3,2],[-2,2],[0,3],[1,2],[4,5],[0,5],[-21,19],[-7,6],[-15,-8],[-6,0],[-4,2],[-1,1],[-4,8],[-8,12],[-1,1],[-15,0],[-1,1],[-12,0],[-3,2],[-12,0],[-4,-2],[-15,1],[-12,0],[-6,1],[-6,7],[-6,2],[-5,0],[-2,-1],[-1,-8],[-2,-8],[-6,-4],[-8,-2],[-13,-4],[-8,-5],[-1,-3],[0,-11],[-5,-9],[-1,-2],[-3,-5],[-6,-2],[-12,2],[-18,1],[-10,1],[-9,-2],[-9,1],[-14,0],[0,21],[-3,7],[-7,3],[-11,1],[-7,5],[-5,7],[-5,15],[-6,9],[-1,1],[-5,6],[-4,3],[-6,-3],[-6,-2],[-11,0],[-1,19],[-2,11],[1,39],[0,12],[-1,2],[-5,-5],[-8,-10],[-7,-5],[-10,-6],[-6,-1],[-6,2],[-13,3],[-9,-1],[-10,-2],[-9,-3],[-5,-2],[-6,1],[-4,6],[-6,9],[-4,1],[-4,-2],[-3,-4],[-4,-1],[0,-1],[-2,5],[-1,4],[-4,1],[-10,0],[-2,-7],[-3,-7],[-4,-4],[-4,4],[-4,3],[-3,6],[-1,9],[-5,0],[-6,-1],[-7,0],[-3,3],[-3,-1],[-1,-5],[-2,-3],[-12,-6],[-9,-5],[-8,-2],[-6,5],[-5,7],[-3,1],[-4,-3],[-1,-2],[-2,4],[-3,-3],[-3,3],[-3,-4],[-3,-2],[-1,5],[1,10],[-1,7],[-1,5],[-3,1],[-6,-3],[-5,-3],[-4,1],[-7,12],[-2,3],[-4,13],[-2,6],[-4,2],[-8,1],[-6,5],[-5,4],[-3,6],[-1,6],[-2,7],[-2,5],[-4,1],[-9,2],[-9,0],[-19,1],[-13,1],[-1,5],[-7,18],[-2,1],[-16,8],[-11,4],[-13,0],[-3,1],[-5,-3],[-3,-2],[-3,-3],[-3,1],[-3,-2],[-2,-2],[-2,2],[-3,1],[-1,-1],[0,-3],[-1,-3],[-3,1],[-2,1],[-1,2],[-3,-3],[1,-5],[0,-2],[-2,0],[-1,3],[-4,0],[-1,-2],[-4,0],[0,-6],[-6,0],[1,4],[-1,1],[-3,-1],[-3,-2],[-1,-5],[-7,-6],[-5,-1],[-14,1],[-5,2],[-10,9],[-4,0],[-3,-3],[-18,4],[-3,1],[-4,-1],[-4,3],[-3,5],[-9,1],[-3,0],[-12,-1],[-4,0],[-8,1],[-4,5],[-1,9],[-4,11],[5,3],[1,5],[-6,7],[-7,0],[-5,4],[-19,0],[-2,3],[-1,3],[-5,5],[-5,-3],[-5,0],[-2,-4],[0,-17],[4,-17],[6,-2],[2,-7],[1,-7],[-2,-4],[-5,3],[-10,3],[-5,0],[-9,-4],[-8,-1],[-12,-4],[-9,-2],[-9,-3],[-7,-1],[-5,0],[-27,1],[-89,11],[-3,1],[-1,3],[-19,7],[-21,10],[-27,13],[-2,-4],[-6,-19],[-2,-6],[-10,-8],[-2,4],[-3,4],[-4,4],[-4,-1],[-4,4],[-5,1],[-1,-1],[-2,-3],[0,-11],[-10,-4],[-5,-1],[-2,0],[1,-1],[-3,1],[-1,-2],[-1,0],[-2,1],[-3,0],[0,-1],[-1,0],[0,4],[-11,1],[-15,1],[-25,-1],[-4,7],[-10,3],[-9,1],[-3,0],[-5,-1],[-1,2],[-10,1],[-1,5],[-3,7],[-2,1],[-5,0],[-3,-1],[-6,-4],[-3,0],[-2,1],[-2,1],[-3,4],[-4,9],[-17,3],[-1,7],[0,1],[-11,9],[-2,3],[-5,7],[-12,3],[-2,8],[-6,3],[-9,3],[-4,2],[-3,4],[-5,6],[-5,1],[-14,-4],[-4,-5],[-7,-7],[-8,0],[-6,3],[-8,9],[-17,4],[-6,1],[-8,-6],[-3,-2],[-16,-5],[-10,-13],[-14,-7],[-27,-4],[-17,4],[-8,-4],[-5,-3],[-8,-5],[-13,-13],[-10,-4],[-3,-3],[-4,-3],[-32,-35],[-25,-6],[-2,-1],[-1,-2],[0,-3],[-14,-17],[-2,-2],[-17,-12],[-12,-5],[-17,-8],[0,1],[-4,11],[-1,3],[-7,17],[-9,20],[-3,-3],[-7,-8],[-5,-2],[-4,-1],[-11,-4],[-5,-2],[-5,-3],[-11,-6],[-12,-7],[-11,-6],[-7,26],[-2,9],[-16,-2],[-10,-1],[-6,-5],[-1,-6],[-1,-2],[-2,-3],[-2,-2],[-2,-3],[-2,-7],[-2,-3],[-3,0],[-3,-3],[-3,-3],[-3,-3],[-2,-3],[-13,-13],[-9,-3],[-9,-4],[-9,6],[-1,0],[-5,2],[-1,2],[0,2],[-2,0],[-15,16],[-4,4],[-2,0],[0,-2],[-5,0],[-7,-1],[-10,-1],[-8,-2],[-12,-2],[-5,8],[-4,6],[-4,0],[-8,2],[-11,1],[-7,1],[-10,3],[-18,-3],[-3,-1],[-3,-1],[-23,-9],[-6,-3],[-6,-9],[-15,-3],[-17,-3],[-20,3],[-11,-3],[-12,-3],[-5,-2],[-14,-5],[-15,1],[-28,-1],[-15,0],[-16,-1],[-21,0],[-4,-3],[-2,-1],[-2,-2],[-3,-1],[-4,0],[-9,-10],[-7,-8],[-10,-12],[-4,1],[-4,0],[-6,-16],[6,-14],[-3,-7],[-3,-2],[-6,-13],[-4,-8],[-5,-7],[-8,-9],[-2,-5],[-11,-20],[-1,-7],[-3,-8],[-1,-9],[-1,-2],[0,-4],[6,-20],[5,-15],[1,-5],[2,-22],[3,-9],[3,-10],[7,-18],[-28,-37],[-16,-22],[-4,-4],[-6,-8],[-68,-45],[-32,-20],[-26,-18],[-12,-7],[-12,-8],[-2,-1],[-1,-2],[-1,0],[0,1],[-1,-3],[-1,-2],[-1,-2],[-2,-6],[-2,-5],[-6,-15],[-2,-7],[-3,-8],[-3,-7],[-9,-15],[-14,-22],[-2,-5],[-1,-1],[-23,-16],[-22,-14],[-18,-16],[0,-10],[-16,-18],[-3,-3],[-2,-1],[-10,4],[-12,9],[-18,3],[-14,15],[-1,0],[-15,4],[-16,0],[-4,1],[-5,-1],[-15,-7],[-7,-4],[-3,5],[-2,4],[-1,3],[2,10],[1,11],[7,7],[3,3],[9,13],[10,15],[5,9],[-2,1],[-36,17],[-2,1],[-4,3],[-1,0],[-2,1],[-6,0],[-5,-1],[-7,-3],[-4,-1],[-10,6],[-2,1],[-8,3],[-2,-1],[-4,-2],[-12,-4],[-5,-3],[-2,0],[-7,-1],[-4,0],[-5,1],[0,5],[1,2],[0,1],[-1,6],[0,5],[1,1],[-1,2],[0,2],[1,3],[0,2],[1,2],[1,1],[-1,7],[0,4],[-1,3],[-1,3],[-1,3],[-3,2],[-1,1],[-3,-1],[-5,-2],[-5,-3],[-10,-7],[-6,-4],[-7,2],[-7,-3],[-2,0],[-4,-2],[-4,-3],[-2,-2],[-9,-5],[-6,-4],[-10,-4],[-4,-1],[-3,0],[-2,1],[-20,9],[-2,-4],[-1,-5],[-5,-6],[-5,-9],[-6,-5],[-5,0],[-5,1],[-6,0],[-4,-5],[-6,-6],[-4,-8],[-1,-3],[-2,0],[-5,-2],[-5,-5],[-3,-1],[-7,-3],[1,-1],[-5,-4],[0,-8],[9,-7],[1,-4],[6,-7],[4,0],[1,-6],[1,-2],[-1,-3],[0,-7],[5,-11],[0,-3],[3,-1],[4,4],[8,-5],[6,-6],[5,-2],[2,0],[2,-4],[2,-3],[2,-7],[1,-7],[-3,-12],[-1,-1],[-1,0],[1,-2],[0,-2],[-2,-2],[-2,-1],[-1,2],[-3,1],[-1,-2],[-2,-3],[-2,0],[-1,-3],[0,-6],[-4,-7],[1,-1],[-5,-2],[0,-1],[-3,-7],[0,-8],[11,-15],[3,-5],[5,-7],[1,-2],[1,-5],[2,-3],[3,-6],[2,-3],[3,-4],[6,-11],[0,-5],[2,-12],[3,-8],[-1,-2],[-2,-6],[-2,-5],[-1,-2],[-2,-1],[-9,4],[-2,0],[-1,1],[-1,2],[-1,1],[-1,1],[-1,2],[-1,1],[-2,1],[-3,2],[-8,-2],[-2,1],[-5,-3],[-2,-1],[-2,1],[-1,0],[-1,-1],[-1,-1],[-1,0],[-3,1],[-1,3],[-1,1],[-3,3],[0,1],[-1,1],[0,5],[1,2],[1,1],[3,0],[1,1],[1,0],[1,1],[0,2],[-1,2],[-1,1],[-1,2],[-2,5],[-1,1],[0,1],[-3,3],[-1,1],[-1,1],[-1,3],[0,9],[-1,1],[-5,0],[-2,-1],[-2,0],[-2,1],[0,1],[-1,0],[-1,2],[-2,2],[-1,1],[0,2],[-1,2],[0,1],[-1,1],[-1,1],[-3,0],[-1,-2],[-1,-1],[-1,-3],[0,-3],[-1,-1],[0,-2],[-1,-1],[-1,0],[-2,1],[-2,0],[-1,2],[-1,1],[-2,2],[-1,1],[-2,0],[-1,-1],[-2,1],[-1,0],[-4,2],[-1,1],[-1,1],[-1,2],[0,11],[-1,2],[-1,2],[0,5],[1,2],[1,1],[0,4],[1,1],[0,4],[1,0],[0,1],[1,1],[1,2],[1,0],[1,2],[2,2],[1,1],[3,1],[1,0],[0,1],[1,1],[0,2],[-1,1],[-1,1],[-1,2],[-2,1],[-3,0],[-1,1],[-1,2],[-1,1],[0,3],[1,2],[0,2],[1,2],[-1,2],[0,1],[-1,1],[-2,-1],[0,1],[-1,1],[0,1],[-1,1],[0,1],[1,3],[1,2],[2,3],[0,2],[1,2],[0,1],[-1,2],[0,2],[-1,2],[-1,1],[-2,1],[-1,1],[-5,0],[-2,1],[-2,2],[-1,1],[0,5],[1,2],[0,3],[-1,2],[-1,2],[-1,1],[-1,2],[0,3],[-1,3],[0,6],[-1,2],[-1,1],[-1,1],[-3,1],[-1,0],[-1,1],[-1,1],[0,4],[2,1],[1,1],[0,5],[-1,0],[0,6],[1,2],[0,2],[-3,0],[0,3],[1,1],[1,2],[1,1],[1,2],[0,4],[1,1],[0,2],[1,2],[0,4],[-1,2],[-1,2],[-1,1],[-1,2],[0,4],[1,2],[0,6],[-1,1],[-1,0],[-1,1],[-1,1],[0,3],[2,2],[2,0],[4,2],[0,1],[1,2],[0,7],[-1,1],[0,1],[-2,0],[-1,1],[0,1],[-1,2],[-1,1],[0,1],[-1,0],[-1,-1],[-2,-2],[-1,0],[0,4],[1,1],[0,1],[1,1],[0,4],[2,2],[1,0],[1,2],[0,3],[-2,2],[-1,1],[-1,1],[0,2],[-1,1],[1,1],[0,1],[1,1],[1,0],[1,1],[1,1],[0,2],[1,2],[0,3],[1,1],[1,1],[1,1],[2,0],[2,-1],[5,0],[1,2],[1,1],[0,4],[-1,1],[-1,0],[0,1],[-1,2],[0,3],[-1,3],[-1,3],[-1,2],[0,5],[2,4],[0,2],[1,2],[1,1],[0,1],[-1,1],[-2,0],[-1,1],[-1,1],[-1,1],[-1,1],[0,8],[1,1],[1,1],[1,2],[2,2],[1,2],[0,8],[1,1],[0,2],[1,1],[1,0],[2,1],[1,1],[0,1],[-1,2],[0,2],[-1,1],[-2,1],[-2,1],[-2,0],[-3,1],[-1,1],[-1,0],[0,3],[1,1],[1,1],[4,0],[1,1],[0,1],[1,1],[-1,2],[0,2],[-1,1],[-3,0],[-1,-1],[-2,0],[-1,1],[0,3],[1,1],[1,1],[1,1],[0,1],[1,1],[1,3],[1,0],[0,2],[-1,1],[-1,1],[-1,1],[-1,1],[-1,1],[0,6],[-1,5],[0,6],[-1,1],[-2,0],[-2,-2],[0,-2],[1,-1],[0,-2],[-1,-1],[-3,0],[-1,-1],[-1,-1],[-2,0],[-1,1],[-1,1],[0,5],[1,1],[0,3],[-1,1],[-2,1],[-2,0],[-2,-1],[0,1],[-1,0],[0,3],[1,1],[1,2],[0,1],[1,2],[1,1],[1,2],[0,8],[-1,2],[0,2],[-1,3],[0,1],[1,1],[0,1],[1,1],[2,1],[4,0],[1,1],[1,0],[1,1],[1,0],[2,2],[0,1],[1,1],[2,2],[0,1],[1,1],[1,2],[1,2],[0,5],[1,1],[1,1],[1,2],[2,1],[1,1],[2,1],[1,2],[0,6],[1,0],[1,1],[1,-1],[1,0],[0,-1],[1,-1],[0,-2],[1,-1],[0,-1],[1,-1],[0,-1],[1,0],[1,1],[2,0],[2,-1],[2,0],[2,-1],[1,0],[1,1],[0,1],[1,1],[1,1],[1,0],[1,1],[1,1],[1,1],[1,0],[0,-1],[2,0],[1,-1],[2,0],[1,1],[0,8],[1,1],[1,1],[1,0],[1,1],[0,1],[1,0],[1,2],[1,1],[0,7],[1,2],[1,1],[1,1],[1,0],[3,1],[5,0],[1,-1],[2,-1],[4,0],[2,1],[0,1],[1,1],[0,3],[-1,2],[0,2],[1,1],[1,0],[1,1],[1,0],[2,-1],[1,0],[1,1],[1,0],[0,3],[1,0],[2,1],[0,1],[-1,1],[0,1],[-1,1],[1,0],[1,1],[0,1],[1,-1],[1,0],[0,-6],[2,0],[0,2],[1,2],[-1,1],[0,10],[-1,2],[0,1],[-1,1],[0,1],[-1,1],[0,1],[1,1],[0,2],[1,0],[1,1],[1,0],[1,-1],[1,-1],[1,-1],[1,1],[1,1],[1,3],[0,1],[-1,0],[-1,1],[-1,1],[0,1],[1,1],[1,1],[1,2],[1,1],[1,1],[1,1],[0,2],[1,0],[0,4],[-1,1],[0,6],[-1,2],[-1,1],[0,2],[-1,1],[-1,1],[-1,0],[0,1],[-1,2],[-1,2],[-1,1],[0,1],[-1,2],[0,1],[-1,2],[-1,1],[0,2],[-1,2],[0,4],[-1,1],[-1,1],[-4,0],[-1,1],[-1,1],[0,2],[1,1],[0,2],[1,2],[0,1],[1,1],[0,3],[-1,1],[0,3],[-1,1],[0,2],[-1,1],[-1,2],[-4,0],[-1,-1],[-1,0],[-1,-1],[-2,0],[-1,-1],[-2,0],[-1,-1],[-4,0],[-1,1],[-1,1],[0,3],[-1,1],[0,1],[1,1],[0,1],[1,1],[1,1],[1,1],[2,0],[1,1],[1,0],[0,1],[1,0],[0,5],[-1,1],[-1,1],[-1,1],[-1,-1],[-1,-1],[-1,-1],[-1,0],[-1,1],[-1,0],[-1,1],[0,3],[1,1],[1,1],[1,-1],[1,0],[1,1],[1,0],[1,1],[2,0],[0,1],[1,1],[2,2],[0,1],[1,1],[0,9],[-1,2],[1,1],[0,2],[1,1],[1,1],[0,1],[2,2],[1,1],[0,3],[-1,1],[0,1],[-1,0],[-1,1],[-2,1],[-1,1],[0,1],[-1,0],[0,1],[-1,1],[0,4],[-1,2],[0,9],[-1,1],[0,9],[-1,1],[0,5],[2,1],[1,1],[2,1],[1,1],[6,0],[1,-1],[1,-1],[2,-3],[1,-1],[1,-2],[1,-1],[3,-2],[2,0],[1,1],[0,1],[1,1],[0,4],[-1,2],[0,1],[-1,1],[0,2],[-1,1],[-1,1],[-1,1],[-1,1],[-1,1],[-1,0],[0,1],[-1,1],[0,1],[-1,1],[0,3],[1,1],[0,2],[1,1],[1,1],[1,0],[0,1],[1,0],[1,1],[1,1],[3,2],[1,1],[2,0],[1,1],[1,1],[1,1],[0,1],[1,1],[0,3],[-1,0],[0,1],[-1,1],[-1,1],[-1,2],[-1,2],[-1,1],[0,1],[-1,1],[-1,1],[-1,1],[-1,0],[-1,1],[-2,0],[0,1],[-3,0],[-1,1],[-2,1],[-1,1],[-1,1],[-1,1],[0,3],[1,1],[0,1],[1,1],[1,1],[0,7],[-1,1],[0,2],[-2,1],[0,1],[-1,1],[0,2],[-1,1],[-1,1],[-1,1],[-1,0],[0,1],[-1,1],[1,1],[-1,2],[1,1],[0,2],[1,1],[1,0],[0,2],[1,0],[0,1],[1,3],[1,1],[0,1],[2,1],[2,0],[0,-1],[2,-1],[2,-2],[1,-1],[2,-1],[1,0],[1,-1],[0,1],[1,0],[0,16],[1,2],[1,1],[2,1],[10,0],[1,1],[0,2],[1,1],[0,9],[-1,1],[0,1],[-1,1],[0,1],[-2,2],[-2,3],[0,7],[1,2],[0,4],[-1,1],[-1,1],[-2,0],[-1,-1],[-1,-1],[-4,-2],[-1,0],[-1,-1],[-3,0],[0,6],[1,1],[0,1],[1,1],[1,1],[1,1],[2,0],[1,1],[7,0],[1,1],[3,3],[0,1],[1,1],[0,1],[1,1],[1,2],[0,1],[1,2],[1,2],[1,2],[1,2],[0,1],[2,1],[1,0],[1,1],[3,0],[3,-1],[6,0],[2,1],[1,1],[1,2],[0,3],[-1,2],[-1,2],[0,2],[-1,2],[-1,1],[0,2],[-1,2],[0,11],[1,1],[2,2],[1,1],[2,0],[1,1],[3,0],[0,1],[1,1],[1,2],[1,1],[1,1],[1,0],[2,1],[3,1],[1,1],[1,1],[0,1],[1,2],[1,2],[0,5],[1,1],[0,3],[-1,2],[-1,1],[-2,3],[-1,1],[0,1],[-1,2],[0,1],[1,2],[0,1],[-1,1],[0,1],[-2,0],[-2,1],[-1,1],[-1,0],[-1,1],[0,1],[-1,1],[-1,2],[-1,1],[0,1],[-1,2],[-1,3],[-1,3],[-1,2],[0,1],[-1,2],[-1,1],[0,1],[-1,2],[0,1],[-1,1],[-1,0],[0,1],[-2,1],[-1,1],[-1,0],[-1,1],[-1,0],[-1,1],[0,1],[-1,0],[0,5],[1,1],[1,0],[0,1],[1,1],[1,0],[1,2],[1,3],[0,4],[-1,1],[0,2],[-1,1],[0,6],[-1,1],[0,1],[1,3],[0,5],[1,2],[0,6],[-2,2],[-1,2],[0,1],[-2,1],[0,4],[-1,2],[0,3],[-1,1],[1,3],[-1,3],[0,4],[-1,2],[0,1],[-1,1],[-1,1],[-1,1],[-1,1],[-1,0],[-1,1],[-1,1],[-2,0],[-2,1],[-1,0],[0,1],[-1,1],[0,3],[1,1],[2,0],[1,-1],[1,1],[1,-1],[1,0],[1,-1],[1,0],[1,-2],[1,-1],[1,0],[1,1],[0,1],[1,1],[0,4],[-1,1],[-1,1],[-7,0],[-1,1],[-1,1],[0,1],[-1,1],[0,3],[1,1],[1,1],[2,0],[1,1],[2,3],[1,1],[1,1],[0,1],[1,1],[0,3],[-1,3],[-1,1],[0,1],[-1,1],[-2,-1],[-1,0],[-1,1],[-1,2],[-1,1],[-2,0],[0,1],[-1,0],[0,4],[-1,1],[-1,1],[0,3],[1,0],[0,2],[-1,1],[-1,1],[0,2],[1,2],[-1,0],[-4,2],[-1,1],[-1,0],[-2,1],[-1,0],[-3,1],[-1,0],[-1,1],[-1,0],[-3,3],[-2,2],[-1,2],[0,2],[-1,1],[-1,2],[-1,1],[-1,1],[-1,1],[-1,2],[-1,1],[-1,1],[-1,2],[0,3],[-1,1],[1,2],[0,1],[1,1],[1,1],[0,1],[1,1],[4,0],[2,1],[1,2],[0,3],[-2,2],[-1,1],[-3,0],[-2,-1],[-2,0],[-1,1],[-1,1],[-1,1],[-1,2],[-1,2],[-1,2],[-1,2],[0,2],[-1,0],[-2,3],[-3,2],[-1,1],[-4,0],[-1,-1],[-6,0],[-1,1],[-1,1],[-1,1],[-1,1],[-1,1],[-2,0],[-1,-1],[-2,-1],[-2,-2],[-1,-1],[-1,-1],[-1,-1],[-1,0],[-1,-1],[-4,0],[-1,1],[-2,1],[0,1],[-1,2],[-1,1],[0,1],[-3,0],[-2,-1],[-1,-1],[0,-10],[1,-2],[0,-3],[-1,-1],[0,-1],[-1,0],[-2,-1],[-3,0],[-1,1],[-1,1],[0,1],[-1,1],[0,2],[1,1],[0,5],[-1,2],[-2,2],[-1,1],[0,1],[-1,1],[0,3],[-1,3],[0,2],[1,2],[0,3],[-1,2],[0,4],[-1,1],[-1,1],[-3,0],[-1,1],[-2,4],[0,1],[-1,1],[-1,0],[-1,1],[-1,0],[-1,-1],[-1,-1],[-1,-1],[-1,0],[-1,1],[-2,1],[-1,0],[-2,1],[-1,2],[0,5],[-1,2],[0,1],[-1,1],[-1,1],[0,-1],[-1,0],[0,-2],[-1,0],[-1,-1],[-1,1],[0,1],[1,2],[0,2],[1,3],[0,3],[-1,2],[0,5],[-1,2],[-1,2],[-1,1],[-1,2],[-1,1],[-2,1],[-2,-1],[-1,-1],[-2,-2],[-2,-3],[-1,-1],[-4,2],[-1,1],[-2,1],[-1,1],[-1,1],[-3,3],[-1,1],[0,1],[-1,2],[0,6],[2,3],[0,3],[1,2],[-1,2],[-1,2],[0,1],[-1,1],[-1,2],[0,3],[2,2],[1,2],[1,2],[1,1],[2,0],[2,1],[1,1],[0,1],[-1,2],[-1,1],[0,2],[-1,2],[0,3],[1,-1],[3,0],[0,-1],[1,-1],[0,-4],[6,0],[1,1],[1,0],[2,2],[0,4],[-1,2],[-2,3],[-2,1],[-1,2],[-2,0],[-2,1],[-1,1],[-1,0],[-1,1],[-2,0],[-2,1],[-6,0],[-3,-1],[-1,-1],[-1,-1],[-1,-1],[-1,-2],[-1,-1],[-1,-1],[0,-1],[-2,-1],[-1,-1],[-2,-2],[-1,-1],[-4,0],[-1,1],[-1,1],[-2,2],[-1,1],[0,2],[-1,1],[0,2],[1,2],[0,3],[1,2],[-1,2],[-1,1],[-1,1],[-4,0],[-1,-1],[-4,-3],[-1,-1],[-2,0],[-1,1],[-1,1],[-1,0],[-1,-1],[-2,-4],[-2,-2],[0,-1],[-1,-2],[-1,-2],[-2,-1],[-1,-1],[-2,-1],[-1,-2],[-1,-2],[0,-1],[-2,-1],[-1,-1],[-5,0],[-1,1],[-1,1],[-1,2],[0,1],[-1,3],[-1,2],[0,1],[-1,4],[-1,1],[0,2],[-1,2],[-1,0],[-1,1],[-3,0],[-1,-1],[-1,-1],[-1,-1],[-2,-4],[0,-1],[-1,-1],[-1,0],[-1,-1],[-2,-1],[-1,0],[-1,1],[-1,1],[-1,1],[-1,3],[0,10],[-1,2],[0,3],[1,1],[1,2],[0,1],[1,2],[1,1],[1,1],[0,4],[-1,1],[-1,1],[-1,1],[-1,0],[-2,1],[-2,0],[0,1],[-1,1],[0,1],[1,0],[1,1],[0,1],[1,1],[0,1],[1,1],[0,2],[-1,1],[-2,0],[0,-1],[-1,0],[-1,1],[-1,0],[-1,-1],[-1,0],[0,-4],[-1,-1],[-1,-1],[-1,-1],[-1,-1],[-2,-1],[0,-1],[-1,0],[-2,-1],[-4,0],[-2,1],[-2,1],[-1,0],[-1,1],[0,1],[-1,2],[1,4],[0,4],[-1,2],[0,6],[-1,2],[-1,1],[-2,2],[-2,0],[-4,-2],[-2,-2],[-2,-2],[-1,-1],[-2,-1],[-1,0],[0,1],[-1,1],[0,3],[1,1],[1,1],[1,1],[0,3],[-1,1],[-1,1],[-5,0],[-2,-1],[-1,0],[-2,-2],[-1,-1],[-2,-3],[0,-1],[-1,0],[-2,-1],[-1,0],[-2,1],[-2,1],[-1,1],[-1,1],[0,2],[-1,1],[-2,1],[-1,1],[-2,0],[-1,-1],[-2,-1],[-1,0],[-1,-1],[-1,0],[0,-1],[-2,-1],[-4,0],[-2,1],[-2,0],[-2,1],[-1,1],[-1,2],[-1,0],[-2,1],[-2,0],[-1,1],[-1,0],[-1,1],[0,2],[1,1],[1,1],[2,0],[1,1],[1,0],[1,1],[1,1],[0,2],[1,1],[1,1],[0,6],[-1,1],[-1,0],[0,1],[-9,0],[-1,-1],[-3,0],[-1,-1],[-1,-1],[-8,-4],[-4,-2],[-5,-3],[-1,-1],[-10,0],[-2,1],[-2,0],[-1,1],[-1,0],[-2,2],[-1,1],[-1,1],[-2,1],[-1,0],[-1,1],[-1,0],[-1,1],[-11,0],[-1,1],[-2,0],[-1,1],[0,1],[-3,1],[-1,0],[-1,1],[-2,1],[-1,1],[-1,1],[-1,0],[-1,1],[-1,1],[-1,0],[-1,1],[-3,1],[-8,0],[-1,1],[-4,0],[-1,1],[-2,0],[0,1],[-1,1],[-1,2],[-1,1],[0,2],[-1,1],[0,4],[-1,1],[0,2],[-1,2],[0,2],[-1,1],[-1,2],[-1,2],[0,2],[-1,1],[1,1],[0,3],[1,1],[0,3],[1,2],[1,3],[0,2],[1,2],[1,1],[1,1],[1,2],[1,2],[1,2],[1,4],[0,3],[1,2],[0,4],[-1,2],[0,2],[-1,1],[-1,2],[0,2],[-1,2],[-1,1],[0,4],[-1,3],[0,4],[1,2],[0,1],[1,1],[1,1],[1,2],[1,1],[0,6],[-1,1],[-1,1],[-1,1],[-1,1],[-2,1],[-1,0],[-1,1],[-1,0],[-2,1],[-1,1],[-1,0],[-1,1],[-1,0],[-2,1],[0,1],[-4,2],[-1,0],[-2,1],[-3,0],[1,2],[14,34],[6,16],[2,3],[2,5],[1,4],[2,5],[2,4],[2,6],[3,6],[3,8],[3,5],[2,5],[3,6],[4,9],[6,12],[6,14],[4,6],[9,18],[7,13],[7,13],[9,17],[6,11],[0,1],[8,7],[10,10],[5,5],[3,7],[5,7],[3,6],[0,1],[1,9],[0,7],[1,6],[0,1],[2,3],[5,10],[5,10],[3,5],[4,9],[3,5],[5,10],[3,6],[4,7],[5,10],[1,2],[2,2],[3,7],[1,3],[1,2],[1,0],[11,19],[8,12],[8,14],[20,31],[4,7],[1,2],[17,22],[6,8],[4,5],[2,2],[13,12],[10,9],[1,4],[2,3],[2,3],[4,8],[4,4],[8,7],[18,16],[5,4],[16,13],[10,7],[7,5],[9,7],[11,7],[15,9],[25,13],[18,8],[16,8],[20,10],[10,2],[8,2],[3,0],[2,1],[4,0],[19,4],[18,4],[8,0],[9,2],[1,0],[0,-1],[1,0],[0,-1],[1,0],[0,-1],[1,-1],[1,0],[1,-1],[1,0],[1,-1],[0,-1],[1,-1],[0,1],[1,-1],[0,-1],[-1,0],[1,-1],[1,-1],[1,0],[0,-1],[2,0],[0,1],[1,0],[0,-3],[1,0],[0,-2],[1,2],[0,2],[1,0],[0,1],[1,0],[1,1],[-1,1],[0,1],[1,0],[0,1],[1,1],[1,0],[0,1],[3,0],[0,-1],[1,0],[0,1],[1,0],[0,-1],[1,1],[0,1],[2,0],[0,1],[1,-1],[0,1],[1,0],[0,2],[3,0],[0,-1],[2,0],[0,1],[1,0],[0,1],[1,-1],[0,2],[1,0],[-1,1],[2,0],[0,1],[1,-1],[0,1],[2,0],[0,1],[1,0],[0,2],[1,-1],[1,1],[2,0],[0,1],[1,0],[0,2],[1,0],[0,1],[1,1],[0,-1],[1,1],[0,1],[1,0],[0,2],[1,0],[0,2],[1,0],[0,1],[2,0],[0,-1],[1,0],[3,5],[3,4],[15,17],[22,22],[20,20],[9,10],[14,15],[1,1],[21,22],[14,0],[0,1],[1,1],[1,4],[6,17],[0,1],[23,26],[1,0],[16,17],[0,84],[1,15],[0,34]],[[8373,6536],[0,5],[-1,6],[-1,6],[0,3],[-8,0],[-5,-2],[-10,-7],[-7,-4],[-7,1],[-5,3],[-7,8],[-3,5],[-2,2],[-6,7],[-7,5],[-8,2],[-12,3],[-11,1],[-5,8],[-4,4],[-2,5],[-5,3],[-1,6],[-2,1],[-3,5],[-3,5],[1,3],[5,1],[3,-1],[3,4],[1,5],[0,12],[1,5],[1,16],[5,3],[7,8],[6,8],[8,5],[6,3],[4,6],[1,4],[0,7],[2,7],[-3,6],[-2,5],[3,7],[5,4],[3,5],[1,12],[2,10],[5,5],[3,1],[6,3],[8,5],[4,4],[2,7],[2,8],[3,6],[7,5],[3,4],[1,4],[0,5],[2,3],[4,3],[1,4],[0,5],[3,1],[3,3],[1,5],[-2,4],[0,4],[3,3],[5,0],[0,6],[2,3],[1,4],[-1,7],[-2,6],[-2,4],[-4,3],[-2,3],[0,3],[1,4],[1,5],[-1,3],[-3,10],[-1,5],[-7,10],[-4,5],[-8,7],[-8,0],[-3,-4],[-5,-4],[-4,0],[-5,2],[-2,1],[-1,0],[-3,1],[-4,0],[-5,-3],[-2,-2],[-1,-1],[-3,0],[-3,2],[-6,3],[-12,4],[-3,0],[-3,-1],[-3,-2],[-2,-3],[-5,-7],[-2,-3],[-1,-1],[-1,0],[-2,2],[-4,4],[-1,2],[-2,2],[-9,0],[-3,3],[0,9],[-2,2],[-2,2],[-3,0],[-1,-1],[-1,0],[0,-3],[1,-1],[3,-4],[2,-3],[0,-4],[-2,-2],[-5,0],[-3,2],[-6,4],[-3,1],[-14,0],[-1,1],[-3,2],[-1,1],[-1,2],[-1,2],[-1,1],[-10,0],[-1,1],[-5,2],[-9,0],[-3,-2],[-4,-2],[-7,0],[-3,1],[-2,6],[-2,14],[-1,12],[9,7],[7,9],[1,11],[2,0],[2,1],[8,2],[4,2],[1,5],[-1,7],[-4,5],[-1,4],[-1,5],[-4,4],[-1,1],[-3,2],[-2,-1],[-6,4],[-8,-1],[-3,-5],[-4,-5],[1,-2],[-6,-5],[-2,2],[-1,1],[-5,8],[-1,14],[-13,12],[3,6],[-2,5],[-7,7],[2,7],[-14,4],[-5,10],[-3,-1],[-1,3],[-9,-8],[-3,3],[-5,14],[-19,-3],[-23,20],[-8,7],[-10,11],[-2,1],[-1,2],[-8,11],[-4,8],[-11,10],[-8,4],[-11,4],[-21,9],[-11,5],[-12,5],[-12,3],[-6,3],[-2,5],[-1,5],[2,6],[1,6],[3,6],[1,9],[5,10],[2,6],[4,9],[1,11],[3,11],[7,10],[3,10],[-1,9],[2,4],[3,7],[6,18],[5,6],[7,3],[12,-1],[7,3],[1,3],[-3,5],[-5,7],[-1,9],[0,4],[6,5],[6,8],[5,6],[3,6],[2,3],[-1,4],[-1,6],[-2,4],[0,7],[-3,16],[-8,2],[-3,3],[2,5],[-2,5],[-1,8],[2,6],[7,5],[7,8],[1,2],[1,2],[1,0],[2,1],[2,0],[4,-2],[21,6],[23,-5],[24,1],[-6,20],[13,6],[30,-6],[-7,17],[-1,18],[1,1],[0,2],[2,1],[3,3],[1,-2],[14,1],[8,1],[-2,3],[1,9],[-10,6],[0,2],[-1,10],[1,7],[-5,8],[-1,-1],[-16,19],[-11,3],[-12,14],[11,6],[1,14],[6,10],[19,9],[13,-10],[12,7],[13,-11],[4,3],[3,-14],[29,8],[-6,21],[1,2],[5,0],[0,12],[12,32],[-16,1],[-6,2],[-2,10],[-4,0],[-3,3],[1,5],[-4,5],[-5,3],[0,22],[-6,14],[1,23],[13,14],[4,7],[-13,8],[4,19],[4,14],[4,6],[3,4],[-8,7],[-24,0],[-1,2],[6,7],[5,6],[0,4],[-1,6],[1,3],[2,3],[6,0],[2,7],[-4,5],[-2,0],[1,5],[-2,8],[-1,0],[-1,-1],[-2,2],[-7,-1],[-7,-4],[-4,2],[1,4],[4,9],[-1,3],[0,4],[-1,0],[-3,16],[-4,10],[-2,1],[-9,-3],[-3,0],[0,4],[-5,14],[-13,0],[-7,-2],[-3,10],[-3,16],[4,9],[-3,22],[-4,6],[-5,11],[-2,0],[-3,7],[0,10],[1,8],[3,5],[-7,8],[-22,20],[0,8],[1,12],[-2,4],[-5,7],[-6,0],[-11,-1],[-2,0],[-10,-1],[-4,2],[-4,0],[-8,-3],[-10,0],[-2,1],[-1,5],[0,7],[1,24],[3,23],[-2,4],[0,2],[-2,2],[-1,7],[2,9],[7,6],[0,7],[1,9],[2,6],[6,3],[7,6],[5,5],[5,3],[2,2],[3,1],[4,1],[3,0],[3,8],[8,5],[2,16],[6,4],[6,5],[7,8],[0,2],[3,2],[0,5],[3,7],[18,0],[5,3],[2,6],[1,9],[1,7],[5,10],[3,7],[1,9],[-3,4],[-1,4],[-5,11],[-3,7],[-2,12],[-1,10],[-3,4],[-5,6],[-5,16],[-3,8],[-1,9],[6,17],[0,1],[1,2],[1,1],[0,1],[1,1],[0,5],[-1,2],[-5,1],[-5,4],[-3,4],[2,15],[0,4],[-5,1],[-4,6],[27,0],[2,1],[4,7],[2,5],[1,2],[1,1],[3,2],[13,12],[9,6],[5,0],[2,5],[0,8],[-2,6],[-5,2],[-3,4],[-6,-3],[-3,3],[3,4],[3,4],[0,5],[-4,0],[-4,-2],[-2,-4],[-6,2],[-1,0],[-2,4],[1,7],[2,2],[1,2],[-1,2],[-3,3],[-4,2],[-3,0],[-2,-3],[-4,-1],[-2,4],[-1,11],[1,9],[8,0],[5,-2],[2,2],[0,6],[1,3],[2,1],[6,5],[4,4],[4,2],[5,-1],[4,-1],[2,3],[-2,4],[-1,7],[-3,9],[1,9],[-1,16],[-1,7],[-5,10],[-5,13],[0,1],[-4,14],[1,10],[2,9],[-2,12],[-1,10],[-1,12],[2,3],[-1,4],[-3,2],[-5,-1],[-2,12],[-4,-2],[-6,-4],[-9,5],[-23,10],[-12,7],[-19,0],[-9,-1],[-9,-2],[2,-4],[1,-2],[3,-4],[2,2],[6,-2],[5,-6],[-7,-6],[-4,-2],[-5,-1],[-4,-2],[-3,-3],[-2,-5],[0,-5],[-1,-1],[-1,-7],[-2,-2],[3,-6],[1,-5],[-1,-1],[-4,4],[-2,5],[-4,-1],[-3,1],[-2,0],[-5,-5],[-2,0],[-1,-1],[0,-11],[2,-1],[0,-4],[-2,-3],[-4,0],[-9,-1],[-4,-2],[-11,-2],[-2,0],[-1,2],[-5,5],[-2,1],[-3,-2],[-5,-2],[-1,4],[-2,3],[-3,-1],[-2,3],[0,7],[-1,1],[-4,-3],[-2,0],[0,6],[5,4],[3,4],[1,3],[-1,2],[-3,0],[0,1],[1,1],[-1,2],[3,1],[-7,23],[-2,8],[0,3],[-8,26],[-6,22],[-3,11],[-1,15],[-1,1],[-2,0],[0,-1],[-1,-1],[0,1],[1,2],[0,1],[-1,0],[-1,-1],[0,1],[-1,0],[0,-1],[-2,0],[0,-1],[-1,0],[0,-1],[-1,-1],[0,-1],[-1,0],[-1,3],[-1,-2],[2,-1],[-2,-2],[0,-1],[2,1],[0,-2],[-2,0],[-2,-2],[-1,1],[0,2],[-1,1],[-1,-1],[-2,0],[0,-2],[-4,-1],[-1,1],[0,1],[-1,0],[-1,1],[0,-1],[-2,0],[-2,-2],[-3,0],[1,-3],[-2,1],[0,1],[-1,0],[-1,-3],[-1,-1],[-3,0],[2,-1],[-1,-2],[1,-2],[0,-1],[2,-4],[0,-1],[-2,0],[0,-2],[3,-1],[2,-3],[-2,-4],[-1,-2],[-4,-4],[0,-2],[-2,-2],[-2,-3],[-2,-9],[-16,3],[-2,7],[-2,9],[0,8],[6,18],[2,5],[-15,0],[0,-3],[-5,3],[4,7],[3,5],[3,6],[4,9],[2,3],[-7,0],[0,9],[-19,-10],[-6,5],[0,2],[-3,13],[1,8],[0,6],[10,6],[2,11],[-1,7],[-2,17],[-3,3],[-4,2],[1,7],[-9,10],[0,5],[-4,11],[-1,3],[-8,4],[-1,3],[-14,13],[-13,14],[-5,0],[-1,3],[-7,5],[-10,2],[-5,-1],[-2,1],[-5,2],[-15,-2],[-14,-3],[-7,4],[-2,6],[-1,5],[-2,5],[-5,7],[-5,8],[-6,10],[-9,13],[-2,3],[-3,5],[5,2],[4,2],[17,8],[-1,5],[2,7],[-5,2],[-2,7],[-2,2],[-12,3],[-7,5],[-5,3],[0,5],[-6,10],[-9,0],[-13,-2],[-7,-1],[-10,-2],[-10,-1],[-6,-1],[-12,0],[-10,2],[-3,4],[0,9],[-5,0],[-8,-3],[-4,-6],[-3,-1],[-4,-3],[-7,-3],[-4,-1],[-5,1],[-4,4],[-1,3],[-4,0],[0,12],[1,2],[0,4],[-2,1],[-2,-1],[-10,10],[0,1],[-2,7],[-4,6],[0,4],[-6,2],[-3,-1],[-5,0],[-6,-2],[-13,-2],[-11,-2],[-11,-2],[-1,5],[-4,13],[4,20],[0,2],[-3,6],[-4,10],[4,2],[1,8],[1,1],[-1,3],[-7,8],[-2,-1],[2,-10],[-4,-1],[-6,3],[-8,3],[-22,10],[-7,-2],[0,-3],[-5,-1],[0,-9],[-3,0],[-4,11],[-6,0],[-6,-2],[-5,-3],[-10,-4],[-3,-2],[-8,-3],[-4,-1],[-2,3],[-4,6],[-3,3],[-1,7],[2,1],[-1,4],[0,3],[-3,6],[-10,0],[0,-4],[-3,-4],[3,-3],[6,-6],[5,-14],[-7,-4],[2,-6],[1,-3],[1,-7],[-2,-4],[0,-4],[-4,-1],[-7,-2],[-6,3],[-4,3],[-2,-1],[-3,-3],[0,-4],[1,-8],[-1,-2],[-5,-3],[-1,-4],[0,-2],[2,-4],[-4,-7],[-2,-1],[-8,0],[-7,3],[-2,1],[-3,1],[-5,-7],[-4,3],[-10,7],[-3,1],[-7,6],[1,2],[-1,1],[-4,1],[1,1],[2,0],[0,4],[-1,-1],[-2,1],[-2,0],[-3,2],[4,2],[-2,1],[-1,-1],[-1,3],[-2,-1],[-1,-3],[-1,-1],[0,-4],[2,-3],[0,-4],[-3,-1],[-3,6],[-3,-4],[-4,0],[2,5],[-2,11],[-4,2],[-4,-1],[0,2],[3,1],[-2,1],[-1,2],[0,3],[-2,3],[-1,-1],[-1,0],[-1,5],[0,-2],[-1,-2],[-5,2],[0,3],[1,0],[0,2],[-2,-2],[-2,1],[-2,-2],[-3,1],[-9,8],[-4,2],[-3,-2],[-3,2],[-3,4],[-2,4],[-4,1],[-3,0],[-2,3],[-3,3],[-3,2],[-12,0],[-9,4],[-3,-2],[-2,-4],[-1,-4],[-6,-3],[-2,-5],[2,-4],[4,-6],[-1,0],[3,-2],[0,-1],[-9,2],[-4,-3],[-5,-2],[-6,-3],[-8,-4],[-4,3],[-3,1],[-5,0],[-2,2],[-5,3],[-7,2],[0,1],[-3,0],[-5,6],[-2,-1],[-3,2],[-9,3],[-1,-1],[-1,-3],[0,-1],[-2,-4],[-3,-2],[-4,-2],[-2,-2],[-2,-4],[-2,-2],[-2,0],[-2,-1],[-2,0],[-5,-2],[-4,-3],[3,-3],[3,-4],[3,-3],[2,-2],[3,-4],[-4,-4],[-2,-9],[-3,-8],[-4,-2],[-2,-2],[1,-4],[-1,-1],[-6,0],[-1,-3],[2,-2],[-3,-3],[-5,-7],[-3,-6],[-2,-1],[-1,2],[-6,2],[-3,-4],[0,-5],[4,-6],[0,-6],[-2,-7],[-4,-6],[-7,-5],[-4,-3],[-8,-6],[-10,-22],[-10,-6],[-4,3],[-8,-1],[-3,-4],[-5,-4],[-4,0],[-3,2],[-2,1],[-7,4],[0,7],[1,0],[3,6],[-1,8],[-4,2],[-1,4],[3,1],[-4,4],[-2,4],[-5,4],[-3,1],[-5,3],[-5,-3],[-8,1],[-2,-4],[-5,0],[-6,-11],[-4,-5],[-3,1],[-4,1],[-5,-2],[-5,1],[-6,-4],[-6,0],[-2,4],[-9,-3],[-2,0],[-9,-5],[-4,0],[-7,-6],[-1,-6],[-1,-2],[-5,0],[-9,-2],[-3,-6],[-2,-8],[-2,-2],[-4,4],[-2,9],[-6,0],[-3,-2],[-2,-4],[-6,-3],[-11,-15],[1,-1],[-3,-2],[-3,0],[-6,-7],[-7,-7],[1,-7],[3,-3],[0,-4],[-2,-3],[-5,-7],[1,-6],[-3,-6],[-2,-2],[1,-3],[-2,-5],[0,-5],[-5,-2],[-5,-7],[-5,-1],[-10,-11],[-3,-6],[-8,-4],[2,-5],[-5,-2],[-8,-5],[-5,-5],[-7,-11],[-5,-5],[-3,-2],[-11,8],[-11,4],[-14,2],[-14,17],[-8,5],[-3,12],[-1,4],[-1,11],[-16,4],[-13,11],[-12,12],[-4,7],[-10,10],[-23,0],[-10,5],[-8,5],[-3,12],[1,7],[7,4],[4,20],[-1,4],[0,2],[-2,8],[-3,7],[-2,10],[-2,4],[4,4],[0,6],[9,4],[3,6],[2,6],[12,21],[1,5],[1,6],[-3,4],[-1,5],[-1,3],[-2,4],[5,10],[0,3],[4,6],[5,12],[-1,12],[-1,13],[5,12],[4,11],[7,4],[15,-4],[-9,27],[-11,7],[-7,15],[-3,1],[-1,13],[18,-3],[18,5],[-3,1],[-1,7],[7,1],[2,0],[11,-3],[3,7],[3,5],[10,-1],[7,5],[7,2],[4,3],[1,3],[-6,20],[-10,11],[-22,15],[-6,1],[-2,-1],[-12,6],[-1,1],[2,4],[2,1],[0,5],[4,2],[0,2],[4,0],[9,3],[1,-1],[4,3],[0,2],[2,3],[1,3],[-2,1],[-9,5],[-10,5],[-8,10],[-27,10],[-12,1],[-12,-1],[-9,-3],[-8,-1],[-17,10],[-5,11],[-14,7],[-18,12],[-2,1],[-3,-1],[-3,-3],[-7,0],[-5,-4],[-9,8],[-3,3],[-4,1],[-2,3],[-3,-1],[-6,0],[-5,5],[-3,-3],[-4,-3],[-6,3],[-3,0],[-3,-4],[-2,-7],[-2,1],[-1,-2],[-3,1],[-4,0],[-4,-4],[-2,-1],[-5,0],[-3,3],[-2,8],[-6,16],[-13,15],[-6,5],[-4,5],[-6,6],[-1,2],[-4,2],[-8,8],[-6,5],[-3,4],[-10,-3],[-3,4],[-6,0],[-1,1],[-4,-1],[-2,-2],[-2,-4],[-1,-4],[0,-2],[-2,-3],[-2,-1],[-1,-2],[-3,-2],[-2,-2],[-1,0],[-4,-1],[-2,1],[-12,5],[-1,1],[-1,7],[-4,3],[-1,4],[0,5],[-1,3],[-5,8],[-4,-1],[-19,-9],[-7,3],[-5,-3],[-8,-1],[-4,-1],[-9,0],[-4,-1],[-19,-4],[0,-6],[-11,-6],[5,-12],[-3,-3],[-53,1],[-1,-5],[-10,0],[-2,1],[-1,-6],[-5,-11],[4,-6],[2,3],[5,-9],[-5,-4],[-15,12],[-9,-19],[-8,4],[-10,-2],[-36,-7],[-8,-1],[-1,-24],[-1,-1],[-1,-1],[-1,-5],[-4,-3],[-2,-6],[3,-21],[-2,-3],[0,-4],[-1,-1],[1,-1],[-2,0],[0,1],[-1,1],[-1,-2],[-3,3],[-3,2],[-2,5],[-1,2],[-5,1],[-2,2],[-1,5],[-3,1],[-10,3],[-1,1],[1,4],[-2,2],[-5,5],[-4,-2],[-4,1],[-4,-1],[-3,2],[-3,-3],[-4,3],[-8,-2],[-1,3],[-2,1],[-4,-2],[-6,-4],[-5,0],[-1,-2],[1,-3],[-3,1],[-1,1],[-6,6],[-5,1],[-3,2],[-4,0],[-3,-4],[1,-5],[3,-3],[2,0],[-3,-1],[-2,1],[-4,1],[-3,-1],[3,3],[-1,1],[-1,0],[-1,2],[-1,3],[-2,3],[-3,2],[-1,3],[-1,3],[-2,1],[-2,4],[-1,1],[1,2],[0,2],[-2,1],[-1,2],[-2,2],[1,1],[-2,3],[-1,7],[-2,2],[-1,3],[1,3],[-4,3],[-2,4],[-4,6],[0,1],[-1,1],[-1,4],[2,2],[1,2],[-1,2],[-1,2],[-1,4],[1,3],[0,1],[-1,1],[1,2],[3,2],[0,2],[-2,4],[-1,-1],[-1,0],[-1,2],[1,1],[-1,2],[2,0],[-1,2],[1,0],[-1,2],[1,0],[-1,1],[1,2],[-2,1],[0,2],[-2,1],[2,2],[-1,2],[-1,2],[-2,1],[0,2],[-4,0],[0,1],[1,1],[-1,1],[-1,0],[0,-1],[-1,0],[0,2],[-1,1],[-1,1],[0,2],[2,3],[-1,1],[1,1],[-3,4],[-1,-1],[0,-1],[-3,-1],[-2,0],[-1,1],[-1,-2],[-1,2],[-3,2],[-1,2],[0,1],[-1,2],[-1,1],[-1,2],[1,1],[-2,0],[0,-1],[-3,1],[0,2],[-2,3],[-3,1],[-3,-1],[-1,1],[0,1],[-3,4],[-2,2],[0,3],[-1,1],[1,2],[1,4],[-2,3],[-1,1],[1,2],[-2,1],[0,2],[3,1],[2,2],[-1,3],[-3,1],[1,4],[-1,2],[-1,-1],[-1,2],[-2,0],[-2,2],[-2,0],[1,2],[-2,2],[0,-2],[-2,1],[-1,2],[1,3],[-2,0],[1,2],[-1,1],[2,1],[-1,1],[1,1],[-1,2],[-1,-1],[-3,1],[-1,3],[-2,2],[2,1],[-1,2],[0,2],[3,1],[1,1],[1,3],[2,2],[0,2],[2,2],[0,2],[-1,1],[0,4],[1,0],[1,-1],[2,0],[-1,-1],[1,0],[4,3],[1,0],[1,-1],[-2,-4],[1,-1],[2,0],[1,1],[2,-1],[0,-2],[1,1],[3,0],[1,4],[0,2],[2,1],[1,4],[-2,2],[2,1],[4,0],[2,4],[3,3],[2,2],[3,0],[1,2],[0,4],[1,3],[0,1],[2,-1],[2,1],[1,3],[1,2],[-1,2],[-2,3],[-3,1],[-3,-1],[0,-1],[-7,-4],[-6,-2],[-4,0],[-11,6],[-2,-1],[-10,6],[-5,2],[-1,-2],[1,-2],[-4,-7],[-8,-3],[-4,-1],[-8,2],[-5,4],[-16,5],[-3,5],[-14,4],[-6,2],[-1,1],[-12,5],[-9,5],[-2,-2],[-4,-3],[-1,1],[-1,-1],[-2,0],[-2,1],[-2,-2],[-3,0],[-3,1],[-2,-6],[2,-4],[-2,-1],[-1,0],[-2,1],[-2,-1],[-5,2],[-3,0],[-3,-2],[-3,0],[0,-6],[-1,-1],[-2,3],[-2,0],[-1,-3],[-2,-1],[-3,1],[0,2],[-1,4],[-4,1],[-7,-2],[-7,-4],[-10,1],[-5,0],[-9,-8],[-5,-4],[-3,-7],[-4,-2],[0,-3],[-2,2],[-3,-1],[-3,0],[-2,-2],[1,-3],[-1,0],[-2,-1],[-3,-1],[-1,-1],[-4,0],[-2,-3],[-3,-1],[-3,0],[-2,4],[8,6],[0,2],[-1,1],[0,2],[-2,6],[-3,3],[-7,0],[-4,1],[-5,0],[-3,7],[-5,15],[-4,0],[-12,1],[-3,0],[-3,-3],[-1,-3],[-1,-2],[3,-3],[-1,-3],[2,-2],[1,-2],[-1,-4],[-3,-2],[-4,-2],[1,-6],[1,0],[2,-3],[4,-4],[2,-1],[0,-2],[2,-2],[2,-4],[-1,-2],[0,-3],[4,-3],[-1,-2],[2,-3],[2,-4],[5,-2],[-1,-1],[-2,-4],[0,-1],[-3,2],[-2,1],[-5,-7],[-1,-7],[1,-2],[-6,-19],[-6,-2],[-12,2],[-4,-4],[-7,9],[-1,1],[-9,2],[-10,-3],[-9,-9],[-1,3],[-16,6],[-10,9],[-4,4],[-8,17],[-4,8],[1,3],[-2,14],[-1,9],[0,2],[-2,1],[-14,-25],[-2,-1],[-3,8],[-7,-3],[-3,3],[-5,-2],[-1,4],[-2,8],[0,7],[2,17],[0,10],[1,7],[2,1],[3,2],[-1,2],[-8,9],[-4,0],[-17,12],[0,4],[-6,-1],[-5,6],[-7,8],[-7,12],[-32,8],[-8,1],[0,18],[-1,6],[0,14],[-3,4],[-7,-1],[4,14],[0,1],[-3,0],[0,-1],[-1,0],[-1,1],[0,1],[-1,0],[0,-2],[-1,0],[0,1],[-1,0],[0,-1],[-1,0],[0,1],[-1,0],[-1,1],[1,1],[-1,0],[0,1],[-1,-1],[0,1],[-1,0],[0,-1],[-2,0],[0,-1],[1,-1],[-1,-1],[0,-1],[-1,-1],[-1,0],[1,-1],[0,-1],[-1,0],[0,-2],[-2,0],[0,-1],[-1,0],[0,-1],[-1,0],[0,1],[-1,-1],[0,-1],[-1,0],[-1,-1],[-1,0],[-1,1],[-1,0],[-1,1],[0,-1],[-1,0],[-1,1],[0,-1],[-1,-1],[-1,0],[0,-1],[-1,0],[-1,-1],[0,-1],[-2,0],[-1,-1],[-1,-1],[0,-4],[-2,0],[0,-2],[-1,1],[-1,-1],[0,-1],[1,0],[0,-1],[-1,0],[0,-2],[-1,0],[0,-2],[-1,1],[0,-1],[-1,0],[0,-2],[-1,0],[0,-3],[-1,1],[0,-2],[-1,0],[0,-2],[-1,-1],[-1,0],[0,-1],[-2,-1],[-3,-1],[-2,-1],[0,-1],[-1,0],[0,-1],[-1,-5],[0,-1],[-1,-1],[0,-1],[1,0],[0,-1],[-1,-1],[0,-1],[1,0],[0,-1],[-1,0],[0,-1],[1,-1],[0,-2],[-1,0],[0,-3],[1,-1],[-1,-1],[0,-5],[-2,1],[-5,0],[-1,1],[-1,2],[-1,1],[-4,0],[-2,-1],[0,1],[-3,0],[-2,1],[-3,0],[-1,1],[-1,0],[0,-1],[-1,-3],[-3,-3],[0,-1],[-4,-4],[-4,0],[-11,-11],[-1,0],[0,-21],[-5,1],[-15,0],[-2,6],[-1,4],[-8,0],[-3,1],[-2,2],[0,1],[-1,0],[0,1],[-1,0],[-7,-1],[-6,0],[-2,-1],[-3,0],[-2,-2],[0,-1],[-1,0],[-1,-1],[0,-1],[-1,-1],[0,-1],[-1,0],[-1,-1],[-5,0],[-1,1],[-1,-1],[-1,0],[-2,-2],[-3,-1],[0,-1],[-1,-2],[-1,-3],[-1,0],[0,-3],[1,-3],[0,-3],[-1,-2],[0,-4],[-1,0],[0,-1],[-1,-2],[-1,-1],[0,-1],[-1,-1],[-2,-2],[-1,-1],[-1,0],[-1,-1],[-2,-1],[-2,0],[-4,-2],[-2,0],[0,1],[-1,0],[0,-2],[1,0],[-1,-1],[1,0],[0,-5],[-1,0],[0,-1],[1,1],[0,-1],[-1,0],[0,-3],[-1,-1],[0,-1],[-1,-1],[0,-1],[-2,0],[0,-1],[-1,-1],[-1,-1],[-2,0],[0,-1],[-1,-1],[0,-2],[-1,0],[-1,-1],[0,-1],[-1,-1],[0,-3],[-1,-1],[0,-2],[-1,0],[0,-1],[1,-1],[-1,-2],[0,-1],[-1,-1],[1,-1],[0,-1],[-1,-1],[0,-3],[-1,0],[1,-1],[0,-2],[-1,0],[0,-5],[1,0],[0,-1],[1,0],[0,-2],[-2,0],[0,-1],[1,-1],[1,-1],[0,-1],[-1,-2],[0,-1],[-1,0],[0,-1],[-1,0],[0,-3],[-1,0],[0,-1],[-1,-1],[0,-2],[-1,0],[0,-2],[-1,-1],[-1,-1],[-1,-1],[-1,-1],[0,-1],[1,0],[-1,-1],[-1,-1],[-1,0],[-1,-1],[-1,0],[-1,-1],[-1,0],[0,-2],[1,-1],[0,-2],[1,0],[0,-1],[-1,-1],[-1,0],[0,-1],[-1,0],[0,-1],[-1,0],[0,-2],[-2,0],[0,-1],[-1,0],[0,1],[-1,0],[0,-1],[-1,1],[-1,0],[-1,1],[1,1],[-1,0],[0,-1],[-2,0],[0,-3],[-1,0],[0,-3],[-1,-1],[-2,0],[0,-2],[1,0],[0,-1],[-1,-2],[1,0],[0,-1],[-1,0],[0,-1],[-1,0],[0,-1],[-1,0],[-2,-2],[0,-1],[1,0],[0,-1],[1,0],[0,-2],[-1,0],[0,-2],[-1,1],[0,-1],[-2,0],[0,2],[-1,0],[0,3],[-1,0],[0,1],[-2,0],[-1,1],[-2,0],[-1,1],[0,1],[-1,0],[-1,1],[-1,0],[0,1],[-1,-1],[-1,0],[0,-1],[-1,0],[-1,1],[0,-1],[-1,0],[0,1],[-2,0],[0,1],[-2,0],[0,-1],[-1,0],[0,-1],[-1,-1],[-1,0],[0,2],[-2,0],[0,-2],[-1,0],[0,3],[-2,0],[0,-1],[-1,0],[0,-1],[-2,-1],[0,-2],[-3,1],[0,-2],[-2,0],[-2,-1],[0,-3],[2,-1],[0,-1],[-2,-2],[-2,0],[-1,-1],[-1,-3],[0,-1],[-1,1],[-3,-2],[-1,0],[-1,-1],[-1,0],[-6,-2],[-4,-3],[-1,-1],[-1,-1],[-2,-1],[-1,-1],[-1,-1],[-2,0],[0,-1],[-1,1],[0,1],[-1,0],[0,1],[-3,0],[-1,1],[-1,1],[-3,0],[-1,-1],[-1,0],[-1,1],[-4,0],[-1,-1],[-2,-1],[-1,-1],[-2,-1],[-7,-4],[-2,-1],[5,-9],[0,-3],[1,0],[0,-1],[2,0],[1,1],[1,0],[2,1],[1,0],[1,-1],[2,-2],[1,0],[0,-1],[2,0],[1,-1],[1,-1],[1,0],[0,-1],[1,0],[1,-1],[0,-1],[1,0],[0,-1],[1,0],[0,-1],[1,0],[1,-1],[0,-6],[-1,0],[0,-2],[-1,0],[0,-1],[-1,0],[-1,-1],[-1,0],[0,-2],[-2,0],[0,-2],[-1,0],[0,-2],[-1,0],[0,-1],[-1,0],[0,-2],[-2,0],[0,-1],[-2,0],[0,-3],[-1,0],[0,-1],[-1,0],[0,-1],[-1,0],[0,-1],[-1,0],[0,-1],[-1,0],[0,-2],[1,0],[0,-5],[-1,0],[0,1],[-2,0],[0,1],[-1,0],[0,1],[-1,-1],[-1,0],[-1,1],[-1,0],[0,-1],[-1,0],[0,1],[-1,0],[0,-1],[-1,-1],[1,0],[0,-2],[1,0],[0,-3],[1,0],[0,-2],[1,0],[0,-1],[2,0],[0,-1],[-1,0],[0,-6],[-1,-1],[1,-1],[1,0],[0,-1],[-1,0],[0,-1],[2,0],[0,-2],[-1,0],[0,1],[-2,0],[0,-2],[2,0],[0,-1],[-2,0],[0,-1],[-1,0],[0,-1],[1,0],[0,-1],[1,0],[0,-1],[1,0],[-1,-1],[0,-1],[1,0],[0,-1],[1,0],[-1,-1],[0,-3],[-2,0],[0,-1],[1,-1],[0,1],[1,-1],[0,-1],[-1,-1],[-1,-1],[-1,0],[0,-1],[-1,0],[0,1],[-2,0],[0,2],[-1,0],[0,1],[-2,0],[0,-3],[-1,-1],[0,-1],[1,0],[0,-1],[1,-1],[0,-1],[-3,0],[0,1],[-1,0],[0,-2],[1,0],[0,-4],[-1,0],[0,-3],[2,0],[0,-3],[-1,1],[-1,1],[-3,0],[-1,1],[0,1],[-1,0],[0,1],[-1,-1],[0,-1],[1,-1],[0,-3],[-2,0],[0,-1],[-1,0],[0,-1],[-1,0],[-1,1],[-1,0],[-1,1],[-1,0],[0,-4],[2,-2],[1,0],[0,-1],[-1,0],[0,1],[-1,0],[0,-1],[1,0],[0,-1],[-2,0],[-1,1],[-1,-1],[0,-1],[-1,0],[0,-2],[-1,0],[-1,1],[1,1],[0,1],[-3,0],[0,-1],[-1,1],[-1,-1],[-3,0],[0,1],[-1,0],[-1,-1],[-1,-1],[-2,0],[0,-1],[-2,0],[0,1],[-1,0],[0,1],[-1,0],[-1,1],[0,3],[1,-1],[2,0],[0,1],[-1,0],[0,1],[-2,0],[-1,1],[-1,1],[-1,1],[-1,0],[0,-2],[-1,0],[0,1],[-5,0],[0,-1],[1,-1],[-1,0],[-1,1],[-1,1],[-3,0],[0,-1],[-3,0],[0,-4],[1,0],[0,-1],[1,0],[0,-2],[-1,1],[-1,0],[0,-1],[-1,0],[0,-1],[-4,-6],[-2,-2],[-6,-5],[0,-1],[-2,-2],[-6,-5],[-2,-1],[-1,-1],[-7,-7],[-1,-1],[-16,-14],[-1,-2],[-1,0],[-10,-9],[-3,-3],[-5,-5],[-8,-7],[-5,-4],[-6,-6],[-1,-1],[-1,-1],[-1,-1],[-1,-1],[-3,-3],[-1,0],[0,-1],[-3,-2],[-1,0],[-1,-2],[0,-33],[-2,-4],[-7,-10],[-3,-4],[-8,-12],[-9,-11],[0,-1],[1,-7],[0,-3],[1,-2],[0,-3],[5,-24],[1,-6],[2,-16],[2,-9],[3,-17],[0,-3],[-1,-7],[0,-1],[-6,-30],[-1,-2],[0,-3],[-3,-14],[-7,-35],[-2,-12],[-1,-7],[-1,-1],[0,-3],[1,0],[-1,-1],[0,-1],[-1,-1],[-1,0],[0,1],[-1,0],[0,-1],[1,0],[0,-2],[-1,1],[-1,1],[0,-1],[1,0],[0,-6],[-3,-1],[-4,-1],[-2,0],[-8,-1],[-5,-1],[-2,0],[-5,-1],[-34,0],[-2,1],[-8,0],[-2,1],[-6,1],[-5,0],[-2,1],[-2,0],[-3,1],[-13,0],[-2,1],[-2,0],[-4,1],[-10,2],[-8,2],[-6,1],[-7,2],[-3,2],[-2,2],[-2,1],[-1,1],[-5,0],[-2,-1],[-3,-1],[-6,0],[-6,2],[-4,0],[-3,1],[-3,-1],[-7,0],[-2,1],[-3,2],[-1,2],[-6,3],[-3,2],[-4,2],[-3,3],[-5,2],[-5,1],[-2,0],[-2,1],[-3,1],[-4,2],[-3,1],[-4,2],[-5,2],[-4,1],[-2,2],[-1,0],[-2,3],[-1,1],[0,1],[-1,2],[0,1],[-1,2],[0,2],[-2,-1],[0,-1],[-1,0],[0,-2],[-1,-1],[-2,2],[-3,-2],[-1,0],[-2,-1],[0,-1],[-1,0],[0,-2],[-1,-1],[0,-6],[-2,0],[0,-1],[-2,0],[0,-1],[-1,0],[0,-2],[1,0],[0,-1],[1,-1],[0,-3],[-1,-1],[-1,0],[-1,-1],[-1,0],[0,-1],[-1,0],[-1,-1],[-2,0],[-2,-1],[-1,0],[-1,-1],[-1,0],[-1,-1],[-4,0],[-1,-1],[-1,0],[-1,-1],[-1,0],[-2,-1],[-1,0],[-6,-2],[-1,-1],[-1,-1],[-3,-1],[-5,-2],[-1,-1],[-2,-1],[-3,-1],[-6,-3],[-2,-2],[-3,-1],[-6,-8],[-2,-1],[-3,1],[-13,7],[-1,0],[-1,1],[-1,1],[-1,0],[-1,1],[-1,-1],[-2,0],[-1,-1],[-1,1],[-1,3],[0,2],[-2,0],[-1,2],[-8,0],[0,1],[-2,0],[-1,2],[-3,15],[-2,4],[-1,2],[0,1],[-1,1],[-3,4],[-1,0],[-1,2],[-5,3],[-4,4],[-5,8],[-1,2],[-2,2],[-3,3],[-4,2],[-1,3],[-4,5],[-1,1],[-1,2],[-1,2],[0,2],[-1,3],[-1,1],[-2,2],[-1,3],[-1,0],[0,2],[-3,0],[-4,2],[-3,0],[-2,1],[-4,0],[-1,1],[0,1],[-2,0],[-1,1],[-5,0],[0,1],[-1,0],[-1,1],[-1,-1],[-2,0],[-1,1],[0,2],[-1,0],[0,1],[1,0],[0,7],[-1,1],[-1,2],[0,1],[-1,0],[0,2],[-1,0],[-1,1],[0,1],[-1,0],[-1,1],[-1,1],[-1,1],[0,2],[-1,2],[-1,0],[0,-1],[-2,0],[0,-1],[-2,0],[0,4],[-1,0],[0,1],[-1,0],[0,1],[-3,0],[0,-1],[-3,0],[-1,-1],[-1,0],[0,-3],[-1,-1],[0,-1],[-6,0],[-1,1],[0,2],[-2,0],[-1,1],[-1,0],[0,1],[-1,0],[-1,1],[-1,0],[-1,-1],[-1,0],[0,-1],[-1,0],[0,-1],[-3,0],[0,1],[-3,0],[0,-1],[-3,0],[-1,-1],[-1,0],[-2,-1],[-4,-3],[-5,-1],[-4,-6],[-3,-1],[0,-18],[-1,-2],[-1,-3],[0,-2],[-1,-2],[0,-4],[-1,0],[-3,-2],[-2,-1],[-6,-1],[-4,-1],[-3,0],[-1,1],[-1,1],[-2,1],[-1,1],[-1,0],[-5,3],[-2,0],[-2,-1],[-3,1],[-2,1],[-3,1],[-10,0],[-2,-1],[-5,0],[-1,-1],[-1,0],[-1,-4],[-4,0],[0,-1],[-1,0],[1,-1],[0,-3],[-2,-2],[0,-1],[2,0],[-1,-1],[-1,0],[-1,-1],[-1,0],[0,2],[-2,0],[-1,1],[-1,1],[0,2],[-1,0],[0,1],[-1,1],[-2,0],[0,1],[-3,0],[-1,-1],[-1,1],[0,1],[-1,0],[0,1],[-2,0],[0,1],[-2,0],[-1,-1],[-2,-1],[0,-1],[-1,0],[0,-3],[-1,-1],[-2,-3],[-2,-2],[-1,0],[-7,-6],[-1,-3],[-1,0],[-6,-2],[-3,-2],[-2,0],[-3,-3],[-9,0],[-1,-4],[-6,-10],[0,-5],[-1,0],[-1,-1],[-1,-1],[-1,-2],[-1,-1],[-1,-1],[-2,-2],[-2,-1],[0,-1],[-1,-1],[-4,-4],[-1,-1],[0,-4],[-1,-1],[0,-1],[-1,-2],[-1,-1],[0,-7],[-1,-1],[-1,-2],[0,-2],[-1,0],[-2,1],[-1,0],[-2,1],[-1,0],[-1,1],[-2,1],[-3,0],[-1,1],[-5,0],[-3,-1],[-1,1],[-1,-2],[-1,-2],[-1,0],[-2,1],[0,-1],[-10,-30],[-2,-6],[-8,-19],[-3,-8],[2,-1],[0,-3],[-1,-1],[-2,0],[0,-2],[1,-2],[3,-2],[-27,-35],[3,-13],[-1,-3],[-4,-17],[-1,-7],[-2,-4],[-23,-7],[-3,-5],[-12,-2],[-6,-1],[-9,-8],[-3,-4],[-3,0],[-3,-1],[-2,0],[-10,-2],[-5,-12],[-7,-15],[-2,-6],[-3,-7],[-40,8],[-2,0],[-1,1],[0,1],[-25,41],[-37,4],[-25,2],[-6,3],[-9,-7],[7,-9],[-4,-3],[-5,-4],[-3,-8],[0,-2],[-1,-2],[-1,-2],[1,0],[-2,-7],[-1,-2],[1,-6],[-5,-3],[-2,0],[1,-8],[1,-7],[-1,-8],[0,-21],[7,-10],[-6,-94],[4,-21],[-8,-52],[-3,-1],[-4,-3],[-1,-2],[0,-2],[1,0],[0,-1],[1,0],[0,-1],[1,0],[0,-4],[-1,0],[0,-2],[-1,-1],[0,-1],[-3,0],[0,1],[-1,0],[0,1],[-1,0],[0,1],[-1,0],[0,2],[-3,0],[0,-3],[-1,-1],[-1,-1],[0,-1],[-2,0],[-1,-1],[0,-5],[-1,0],[-2,-1],[0,-4],[-1,-1],[0,-1],[-1,-1],[0,1],[-1,0],[0,-1],[-1,0],[0,-1],[-3,0],[0,-2],[1,0],[0,-5],[-1,0],[0,-1],[-1,0],[0,-1],[-1,-1],[-1,-1],[-1,0],[0,-1],[-1,0],[0,-1],[-1,0],[0,-1],[-1,0],[-1,-1],[0,-1],[-1,0],[-1,-1],[-1,0],[0,-1],[-1,0],[-1,-1],[0,-2],[1,0],[0,-3],[-1,0],[0,-2],[2,0],[0,-4],[-1,0],[0,-4],[-1,0],[0,-2],[-1,0],[0,-1],[-1,0],[0,1],[-1,0],[0,-3],[-1,0],[0,-1],[-2,0],[0,-1],[-1,0],[0,-1],[-1,1],[0,1],[-2,0],[0,-1],[-1,0],[-1,1],[0,-2],[-1,0],[0,-1],[-2,0],[0,1],[-1,0],[0,-2],[-6,0],[0,-1],[1,0],[0,-4],[-3,0],[0,1],[-1,0],[0,-2],[-1,0],[0,-1],[-1,0],[0,-1],[-1,0],[0,-1],[1,0],[0,-2],[-2,0],[0,-2],[-5,0],[0,-2],[-1,-1],[-2,0],[0,-1],[-2,0],[0,3],[-4,0],[0,-1],[-11,-3],[-10,-30],[3,-9],[0,-1],[1,-1],[0,-1],[1,-1],[2,-5],[0,-1],[1,0],[0,-1],[1,0],[0,-1],[1,-1],[1,-1],[1,-2],[4,-8],[-1,-19],[12,-15],[7,-28],[0,-2],[-3,0],[0,-1],[-4,-2],[-1,-1],[-1,-4],[-3,-7],[-3,-7],[-1,-2],[7,-8],[3,-4],[2,-3],[4,-6],[3,-5],[-6,4],[-3,2],[-4,2],[0,1],[-3,0],[-5,-2],[-1,-2],[0,-2],[3,-5],[3,-10],[1,-3],[0,-1],[1,-2],[3,-10],[3,-7],[1,-4],[2,-3],[4,-13],[-5,-3],[-7,-3],[1,-4],[0,-4],[1,-13],[1,-3],[2,1],[0,-6],[2,-10],[-3,0],[-3,-1],[-5,-2],[-3,-1],[-4,-2],[-7,-2],[-1,-1],[-5,-3],[-4,-3],[-10,-4],[-2,-4],[-1,-2],[0,-1],[-1,-2],[0,-1],[-1,-1],[0,-2],[-2,-3],[-1,-4],[-9,-1],[-7,8],[-8,-7],[-6,1],[-1,-6],[-1,-7],[0,-7],[-1,-7],[-9,-5],[-4,-4],[-3,-1],[-1,-2],[-6,0],[-2,-1],[-1,-1],[-1,0],[0,-2],[-4,0],[-1,1],[-1,0],[0,-3],[1,0],[0,-1],[1,0],[0,-2],[1,0],[0,-1],[1,-1],[0,-1],[1,0],[0,-3],[1,-1],[1,0],[0,-2],[2,0],[0,-1],[1,-1],[0,1],[1,0],[1,1],[0,-4],[1,0],[0,-1],[1,0],[0,1],[1,0],[0,1],[-1,0],[0,1],[3,0],[0,-1],[1,0],[0,1],[1,0],[0,1],[1,0],[1,-1],[1,0],[0,-2],[1,0],[0,-1],[6,0],[1,1],[1,0],[0,1],[1,0],[1,1],[1,0],[0,-2],[1,0],[0,3],[2,0],[0,-2],[1,0],[0,1],[1,-1],[0,-1],[1,0],[0,-1],[1,0],[0,-2],[3,0],[0,1],[2,0],[0,-1],[1,0],[0,-1],[2,0],[0,-1],[-1,0],[0,-1],[2,0],[0,2],[3,0],[0,-1],[1,0],[0,-4],[1,0],[0,-1],[1,0],[0,-2],[2,0],[0,1],[3,0],[1,-1],[1,0],[1,-1],[1,-1],[2,0],[0,1],[1,0],[0,-1],[2,0],[0,-1],[4,0],[0,-1],[1,0],[0,1],[1,0],[0,1],[2,0],[0,-3],[-1,0],[0,-3],[1,0],[0,-1],[1,0],[0,1],[1,-1],[0,1],[4,0],[0,1],[2,0],[0,1],[1,0],[0,1],[2,0],[0,1],[1,0],[0,1],[1,0],[0,-1],[-1,0],[0,-1],[1,-1],[2,0],[0,-1],[-1,0],[0,-1],[1,0],[0,1],[2,0],[0,-2],[1,0],[1,1],[0,1],[1,0],[0,-1],[1,0],[0,-1],[-1,0],[0,-1],[1,0],[0,-1],[1,0],[0,1],[2,0],[0,1],[1,0],[0,-2],[3,0],[-1,1],[2,0],[0,-1],[1,0],[0,2],[1,0],[0,-1],[1,-1],[1,0],[0,-1],[1,0],[0,1],[1,0],[0,-3],[1,-1],[-1,0],[0,-1],[1,0],[0,-1],[2,0],[0,-3],[1,0],[0,1],[1,0],[0,-1],[1,-1],[0,-2],[-1,0],[1,-1],[0,-1],[4,0],[0,-1],[2,0],[0,1],[3,0],[0,-5],[2,0],[0,2],[1,1],[0,1],[3,0],[0,1],[1,0],[0,-1],[2,0],[0,1],[1,0],[0,3],[1,0],[0,1],[1,0],[0,1],[2,0],[0,1],[2,0],[0,1],[1,0],[0,-1],[1,0],[0,2],[2,0],[0,1],[3,0],[0,-3],[-1,0],[0,-1],[-1,0],[0,-1],[1,0],[0,-1],[1,0],[0,-1],[1,-1],[-1,0],[0,-1],[2,0],[0,-1],[-1,0],[0,-1],[-1,0],[0,-1],[3,0],[0,-1],[1,0],[0,-1],[-1,0],[0,-1],[1,0],[4,2],[0,2],[2,0],[0,1],[-1,0],[0,2],[1,0],[0,-1],[1,0],[1,-1],[2,0],[0,-1],[6,0],[0,-1],[1,0],[0,-2],[3,0],[0,2],[-1,1],[0,3],[1,1],[0,1],[1,0],[0,1],[3,0],[0,2],[1,0],[0,4],[1,0],[0,1],[1,0],[0,-1],[2,0],[0,-1],[1,0],[0,1],[1,1],[0,1],[-2,0],[0,1],[-1,0],[0,5],[1,0],[0,1],[-1,0],[-1,1],[0,1],[2,0],[0,-1],[1,0],[0,-1],[2,0],[0,1],[3,0],[1,1],[0,2],[1,0],[0,1],[1,1],[1,1],[2,0],[0,-1],[2,0],[0,-1],[1,0],[0,-2],[-2,0],[-1,-1],[-1,-1],[0,-1],[-1,0],[0,-3],[-1,-1],[0,-3],[-1,-1],[0,-1],[1,-1],[0,-1],[2,-2],[0,-2],[3,0],[0,-2],[1,0],[0,-1],[1,-1],[1,0],[0,1],[1,1],[0,1],[1,0],[0,1],[1,0],[1,1],[1,0],[0,2],[1,0],[0,-1],[1,-1],[1,0],[0,5],[-1,1],[0,2],[1,1],[0,3],[1,1],[0,4],[1,1],[0,1],[1,0],[0,1],[1,1],[9,0],[2,1],[6,0],[0,1],[1,0],[0,2],[1,3],[0,1],[1,0],[0,1],[1,0],[1,-1],[3,0],[0,-1],[1,0],[1,-2],[1,0],[2,-2],[1,-1],[1,0],[0,-1],[1,0],[0,-1],[1,-1],[1,0],[0,-1],[1,0],[0,-1],[1,0],[1,-2],[1,0],[0,-1],[1,0],[0,-1],[2,0],[0,1],[1,0],[1,1],[1,0],[0,-1],[2,0],[0,-1],[1,0],[2,-1],[0,-1],[7,0],[0,-1],[1,-1],[1,0],[0,-1],[1,0],[1,1],[6,0],[0,-1],[1,-1],[0,-1],[1,-1],[0,-1],[1,0],[0,-1],[1,0],[3,-3],[1,0],[0,-1],[1,0],[0,-1],[1,-1],[1,-1],[0,-1],[1,0],[0,-1],[1,0],[1,-1],[7,0],[1,1],[1,0],[0,2],[4,0],[0,1],[2,0],[1,1],[2,0],[0,1],[1,0],[0,-1],[6,0],[2,-1],[2,0],[2,-1],[1,0],[0,1],[1,0],[0,1],[2,0],[0,-1],[9,0],[0,-1],[2,0],[1,-1],[0,-1],[4,-2],[1,0],[2,-1],[2,0],[0,-1],[1,0],[0,-3],[2,0],[0,1],[5,0],[0,2],[1,1],[2,0],[0,1],[4,0],[1,1],[1,0],[0,-1],[1,0],[0,-6],[2,0],[0,-1],[2,0],[1,1],[1,1],[3,0],[1,-1],[1,0],[0,-1],[4,0],[0,-1],[1,0],[1,-1],[1,0],[0,-1],[3,0],[0,-1],[1,0],[0,-3],[-1,0],[0,-8],[1,0],[0,-2],[1,0],[1,-1],[1,0],[0,-1],[3,0],[0,1],[2,0],[0,-1],[5,0],[0,-1],[4,0],[0,-2],[2,0],[-1,-2],[0,-2],[-1,-4],[4,-11],[1,-12],[0,-12],[-1,-4],[-2,-5],[-1,-4],[-2,-5],[0,-1],[-1,0],[0,-1],[-1,0],[0,1],[-1,0],[0,2],[-1,0],[-19,-5],[-2,0],[-3,-1],[-1,0],[-1,-1],[-3,0],[0,-14],[1,-2],[-4,-1],[-3,5],[-4,0],[-2,-1],[-2,-8],[-2,-1],[-2,-3],[0,-3],[-1,0],[-5,-2],[-6,1],[-8,-3],[-2,-4],[-3,-3],[-3,-3],[-5,-1],[0,-2],[-1,0],[-1,6],[-2,0],[-2,-1],[0,-5],[-1,0],[0,-1],[-1,0],[0,-2],[-1,0],[0,-1],[-1,0],[0,-2],[-1,0],[0,-1],[-1,1],[-1,0],[0,-1],[-1,-1],[0,-1],[-1,0],[0,-3],[-1,0],[0,-1],[-2,0],[0,-5],[-2,0],[0,-1],[-1,0],[0,-3],[-1,0],[0,-2],[-1,0],[0,-3],[-1,0],[0,-1],[1,-12],[1,-15],[2,-18],[-6,-5],[-3,-2],[-2,-1],[-8,-8],[-2,-1],[-1,-2],[-3,-7],[-5,-5],[-1,1],[-3,4],[-1,1],[-2,4],[-1,0],[-5,-4],[-3,-3],[-1,-1],[-1,0],[-1,-1],[-2,-1],[-1,-1],[0,-1],[-1,-1],[-4,-3],[0,-1],[2,-2],[0,-15],[1,-1],[2,-1],[0,-1],[1,-1],[0,-2],[1,-1],[1,-4],[2,-3],[3,-8],[0,-1],[4,5],[1,-1],[1,-2],[3,-4],[4,4],[4,-3],[1,-4],[1,-2],[0,-4],[-3,-3],[-2,-1],[0,-1],[-1,0],[-1,-1],[-2,-2],[-1,-1],[-2,-1],[-1,0],[-6,3],[-10,4],[0,-7],[1,-1],[0,-1],[-1,-3],[0,-7],[-1,-2],[0,-3],[-1,0],[-3,-2],[-2,-2],[-1,0],[-2,-2],[-5,1],[-5,4],[-5,6],[-2,-1],[-1,-1],[-2,-1],[-1,-1],[-3,-1],[-2,-2],[0,-1],[-2,-5],[-2,-1],[-7,-5],[-1,2],[-8,-6],[1,-1],[-8,-6],[-4,2],[0,1],[-3,2],[-1,0],[-3,2],[-2,1],[-1,0],[-8,5],[-3,1],[-1,1],[-4,0],[-7,-5],[-4,-3],[-3,-2],[-1,-1],[-1,1],[-1,0],[0,1],[-2,0],[0,-2],[-1,0],[0,1],[-1,0],[0,1],[-1,0],[-1,1],[-1,1],[-1,0],[0,-1],[1,0],[0,-2],[-4,0],[0,-1],[-4,0],[0,-1],[-2,0],[1,-1],[-1,0],[1,-1],[0,-1],[-2,0],[0,-1],[1,0],[0,-1],[-2,0],[0,-2],[-1,0],[0,-1],[-2,0],[0,1],[-1,0],[0,1],[1,1],[-1,0],[0,1],[-1,0],[0,1],[-3,0],[0,-2],[1,0],[0,-1],[-1,-1],[-2,0],[0,-1],[-1,0],[0,2],[-1,0],[0,-2],[-1,0],[0,1],[-1,0],[0,-1],[-1,0],[0,-2],[-1,2],[-3,4],[-6,9],[-2,3],[-7,11],[-5,8],[-2,-2],[-4,-3],[-5,-5],[-3,-2],[-4,-4],[-6,-4],[0,-1],[-5,5],[-2,-2],[-7,-7],[-1,-6],[-1,-11],[-1,-6],[-2,-3],[-5,-5],[-5,-5],[-5,-5],[-4,16],[-7,-7],[-11,3],[-4,4],[-3,2],[-4,3],[-6,3],[0,-1],[-5,-6],[-2,-2],[-3,5],[1,2],[1,1],[0,1],[-3,1],[-2,-1],[1,-2],[-2,-1],[-6,-3],[-2,-4],[-3,0],[-4,-4],[-1,3],[-4,2],[0,3],[1,2],[1,6],[-1,3],[-4,-3],[-3,6],[-2,1],[0,2],[-6,3],[-3,2],[-4,3],[-4,-2],[-2,1],[-8,2],[-3,0],[1,-2],[-2,-3],[-2,-2],[-2,-1],[-6,-2],[-4,-1],[-1,4],[-4,-3],[-4,-2],[-2,3],[-1,1],[-6,-3],[2,-4],[0,-10],[4,-3],[-3,-2],[-5,0],[-4,-1],[-4,0],[-9,-1],[0,-2],[-3,0],[1,-3],[8,-2],[1,-4],[-4,-1],[-1,-4],[-5,-3],[-4,-1],[-9,-2],[-9,-2],[-10,-1],[-9,-2],[-2,0],[-2,-2],[-1,-1],[-10,-9],[-5,-4],[-4,-3],[-6,-6],[-5,-4],[0,-3],[3,-6],[1,-2],[4,-5],[7,-5],[-1,-1],[3,-3],[2,-5],[2,-3],[3,2],[9,-14],[-1,-1],[12,-14],[-2,-2],[-2,-2],[-3,-3],[-4,0],[2,-4],[3,-4],[-3,-8],[-2,1],[-3,3],[-7,3],[-2,0],[-3,1],[-1,-2],[-3,-5],[-3,-5],[-3,0],[-2,-8],[1,-3],[1,-2],[9,-3],[-1,-9],[-5,-1],[-2,-1],[0,-5],[-1,-4],[4,0],[0,-2],[1,-8],[-2,-1],[2,-2],[-9,-12],[-3,-8],[0,-3],[-5,-5],[-1,-4],[-1,-7],[-7,-11],[0,-3],[-8,-4],[0,-23],[-1,-7]]],"type":"Topology"}
