{"type":"Topology","arcs":[[[3006,836],[-14,218],[-43,-6],[-92,120],[-37,10],[-91,64],[-82,-56],[-140,-44],[-47,70],[10,45],[-27,21],[-26,74],[-33,31],[-106,-7],[-63,99],[-9,107],[-70,55],[-61,167],[-14,94]],[[2061,1898],[96,14],[24,31],[102,-7],[32,7],[57,-17],[26,89],[28,36],[17,78],[105,-2],[183,-27],[234,151],[92,-2]],[[3057,2249],[7,-49],[88,-11],[1,-36]],[[3153,2153],[5,-47],[-18,-45],[10,-71],[27,-25],[68,18]],[[3245,1983],[-34,-162],[48,-47],[186,-40],[16,-38],[-43,-51],[17,-54],[3,-71],[71,-96],[-61,-135],[1,-54],[-25,-54],[18,-60],[-55,-141],[-7,-162],[-39,-23],[-68,41],[-63,-14],[-86,-51],[-118,65]],[[3057,2249],[-1,52],[-32,78],[-41,27],[-44,99],[24,18],[5,57],[28,55]],[[2996,2635],[46,1],[118,49],[112,-18],[-9,-24],[55,-31],[36,-41],[33,-6],[25,-67],[32,-15],[-13,-57],[-70,-36],[-45,-56],[-69,17],[-18,-52],[10,-45],[-44,-9],[-42,-92]],[[2061,1898],[-69,-31],[-79,57],[-88,-72],[-130,1],[-157,170],[25,65],[-39,69]],[[1524,2157],[-27,29],[32,30],[-4,53],[19,34],[-44,129],[-44,12],[19,76],[-20,12],[-3,64],[19,81],[-28,140],[13,102],[-23,36],[78,81],[-37,74],[56,49],[-78,56],[-10,51]],[[1442,3266],[27,5],[35,104],[158,-2],[133,-26],[28,25],[124,-11],[28,-36],[57,-12],[62,45],[41,-6],[71,14],[73,-62],[-6,-34],[47,-31],[72,-24],[57,120],[54,-14],[97,18],[173,-25],[21,-19]],[[2794,3295],[6,-54],[-25,-75],[4,-48],[-37,-35],[19,-57],[-15,-36],[35,-64],[-24,-18],[66,-47],[0,-25]],[[2823,2836],[-18,-29],[65,-33],[13,-43],[61,16],[40,-19],[-13,-34],[25,-59]],[[4399,3623],[-62,-38],[-103,-11],[-77,-85],[-38,-58],[-51,-2],[-86,-36],[-85,13],[-15,-27],[24,-47],[27,-109],[-33,-38],[-43,16],[-34,-45],[-39,-10],[-35,-46],[-98,46],[-74,-5],[-19,12],[-43,-56],[0,-28],[-69,-9],[-41,-41],[-18,-56],[-41,-22],[-60,-8],[-39,-53],[-38,1],[-47,-61],[-92,10],[-46,63],[-54,-5],[-135,-34],[-12,-18]],[[2794,3295],[11,79],[36,88],[26,31],[29,99],[60,85],[92,6],[9,49],[53,12],[0,85],[-41,40],[-107,73],[-50,6],[-74,53],[39,28],[-20,71]],[[2857,4100],[-33,52],[-53,34],[30,111],[-32,37],[37,63],[68,12],[73,27],[69,-6],[-18,84],[46,24],[-55,102],[31,13],[14,84],[24,18],[21,75],[57,106],[111,19],[23,-53],[67,-24],[58,14],[42,-56],[-5,-57],[29,-53],[44,-39],[53,-23],[-28,-138],[-39,-48],[427,-10],[106,-47],[48,-132],[70,10],[3,-28],[60,-57],[20,24],[63,-31],[20,10],[169,-12]],[[4477,4205],[30,-65],[-72,-38],[2,-28],[46,-15],[-39,-195],[-77,10],[-8,-19],[51,-53],[-26,-41],[52,-25],[44,-60],[-55,3],[-26,-56]],[[1728,4649],[-122,-62],[2,-91],[-128,33],[-28,53],[-42,18],[-54,-57],[-6,-39],[-46,-1],[16,-103],[23,-63],[-27,-141],[-31,-11],[-37,40],[-94,20],[-7,35],[-112,105],[-38,18],[-33,79],[-95,34],[-19,90],[-34,20]],[[816,4626],[-54,33],[-66,71],[-31,-17],[-34,60],[41,74],[-6,41],[31,80],[-64,1],[-57,-23],[-59,-2],[-47,42],[-54,90],[-3,60],[26,56],[-5,88],[29,92],[-28,67],[-38,30],[30,27],[8,89],[86,41],[36,54],[85,24],[50,29],[94,92],[4,50],[29,2],[7,49],[87,64],[73,-48],[35,47],[57,-10],[29,-110],[64,-4],[-4,-59],[35,-34],[54,19],[124,-10],[64,-52],[26,-48],[52,25],[17,43],[-35,26],[66,105],[75,-6],[76,27],[107,-31],[21,22]],[[1849,5892],[23,-49],[1,-52],[45,-34],[-13,-71],[-104,-48],[-38,-3],[-33,34],[-65,-2],[-47,-32],[-62,-129],[92,-10],[89,-59],[17,-34],[-15,-92],[27,-21],[-34,-99],[3,-51],[-23,-30],[44,-40],[-38,-29],[-6,-200],[42,-15],[-14,-152],[-12,-25]],[[1442,3266],[3,162],[-62,22],[-40,-14],[-25,22],[-12,78],[-33,27],[-39,74],[-155,88],[-30,-26],[-30,-70],[13,-13],[-18,-149],[-32,-27],[-69,5],[-21,-28],[-43,5],[-39,35],[-39,8],[-27,48],[-37,19],[-19,41],[-82,21]],[[606,3594],[-50,100],[-2,73],[-62,-40],[-37,24],[-71,3],[-64,49],[22,60],[2,61],[-22,57],[3,48],[46,34],[85,-13],[39,20],[80,-17],[42,19],[34,-65],[56,-15],[51,46],[44,-95],[73,5],[-11,58],[17,56],[-35,57],[23,60],[-59,40],[-28,71],[-104,57],[-40,-14],[-37,14],[-25,41],[36,18],[-2,53],[22,32],[-17,46],[75,49],[16,33],[110,7]],[[1728,4649],[55,13],[24,-23],[67,5],[80,-8],[-32,66],[55,-15],[52,-62],[33,33],[54,21],[58,86],[58,-10],[67,-51],[-76,-67],[26,-85],[27,-13],[61,-74],[53,-90],[30,-11],[63,-109],[38,-41],[50,-7],[188,-103],[98,-4]],[[4878,2936],[-74,-74],[9,-75],[-54,4],[-1,-71],[57,-53],[-55,-31],[-38,2],[-75,-46],[22,-88],[-43,-54],[26,-25],[-6,-53],[-37,-12],[31,-60],[-31,-26],[26,-55]],[[4635,2219],[-25,-32],[-134,-48],[-40,22],[-79,-7],[-46,-50],[-9,-53],[-47,-64],[18,-113],[-14,-74],[-177,8],[-88,42],[-68,-3],[-174,40],[-43,-32],[-98,-16],[-90,24],[-5,44],[-117,-1],[-43,-14],[-101,92],[-10,-1]],[[4399,3623],[32,-19],[-32,-41],[5,-33],[78,21],[4,-22],[-58,-55],[92,-16],[12,-49],[43,-88],[100,-22],[-3,-55],[48,-25],[28,-62],[54,15],[21,-37],[-26,-34],[60,-27],[36,-65],[-15,-73]],[[4552,849],[45,62],[75,-16]],[[4672,895],[14,-46],[95,68],[32,45],[8,191],[32,31],[46,-2],[103,63],[1,121],[-42,12],[57,53],[53,73],[-56,-5],[-71,20],[19,61],[38,37],[-20,60],[15,74],[-30,51],[-51,15],[14,42],[-29,89],[-35,38],[-64,2],[-48,75],[11,27],[-45,153],[-84,-24]],[[4878,2936],[64,1],[30,-56],[114,-16],[3,49],[52,-11],[5,-71],[22,-56],[76,-47],[62,-80]],[[5306,2649],[-13,-7],[-138,-225],[14,-96],[-41,-107],[25,-15],[-3,-59],[64,-253],[65,-128],[27,-165],[52,-126],[-6,-145],[70,7],[-12,-74],[29,-19],[70,30],[99,-51],[-6,-44],[18,-116],[24,-48],[0,-45],[-40,-25],[-9,-55],[46,-126],[-78,-26],[-136,20],[-20,-23],[-95,31],[-34,-44],[-334,65],[-130,14],[-204,34],[-58,21]],[[4672,895],[-52,88],[-41,11],[8,54],[-23,76],[-20,1],[-70,87],[-47,9],[-95,-8],[-161,11],[-9,-124],[-33,-172],[49,-24],[26,-61]],[[4204,843],[-405,-45],[-124,-21],[-416,-29],[-250,-27]],[[3009,721],[-3,115]],[[3009,721],[-306,-45],[-97,-21],[-99,-34],[-266,-128],[-179,-52],[-12,-17],[-132,-28],[-53,-43],[-65,-27],[-183,-25],[-21,-26],[-132,-101],[-126,-18],[-112,-67],[-18,-22],[-128,-63],[-74,-4],[-35,28],[23,48],[-30,139],[24,30],[-14,37],[1,131],[-21,50],[-8,73],[40,16],[14,34],[-21,115],[71,50],[13,37],[-12,47],[14,68],[97,48],[-54,54],[4,96],[34,38],[4,73],[-15,42]],[[1135,1254],[301,27],[-3,37],[0,348],[-38,207],[3,187],[126,97]],[[4552,849],[-135,27],[-213,-33]],[[1135,1254],[-34,56],[0,141],[-43,-27],[-107,86],[-98,-1],[-93,79],[-18,112],[-47,9],[15,100],[-65,73],[-99,43],[-84,-15],[-71,-27],[-161,92],[-50,13],[-20,60],[-49,24],[-25,-36],[-86,87],[2,32],[38,19],[23,43],[85,55],[104,176],[-22,36],[7,79],[32,53],[-11,72],[21,51],[-5,36],[-42,15],[-33,37],[5,36],[-34,50],[-2,67],[-25,129],[-44,29],[60,65],[50,-36],[46,25],[86,-73],[46,45],[-14,24],[41,52],[46,133],[-28,37],[-10,48],[64,116],[6,34],[65,10],[49,-24]],[[1849,5892],[27,62],[-40,44],[9,63],[-13,65],[31,71],[25,-1],[25,-48],[82,-43],[80,-5],[23,24],[-16,97],[19,11],[76,-22],[64,52],[22,-34],[4,-87],[15,-38],[-34,-31],[64,-44],[-11,-108],[19,-23],[-39,-48],[-9,-51],[39,-39],[67,-21],[119,-7],[34,74],[46,-10],[27,50],[0,41],[64,62],[40,19],[60,-7],[52,36],[28,-16],[57,12],[50,-33],[44,-77],[58,-55],[35,-11],[142,29],[63,-27],[28,22],[18,-67],[45,-59],[-12,-67],[53,-11],[44,-52],[-13,-59],[22,-41],[-6,-47],[140,-32],[38,-30],[-5,-77],[44,-4],[56,-74],[35,31],[66,-14],[77,31],[-17,-50],[15,-29],[73,18],[28,-60],[58,21],[26,-28]],[[4110,5140],[62,-64],[8,-55],[40,-26],[15,-50],[-29,-53],[39,-62],[89,-22],[35,-35],[82,-14],[48,-57],[5,-35],[48,13],[0,-92],[53,-30],[-68,-49],[28,-67],[35,-30],[27,-81],[-39,-13],[-57,-60],[-49,-18],[-5,-35]],[[4110,5140],[64,165],[56,9],[60,72],[73,-43],[54,27],[27,44],[53,7],[16,23],[83,-4],[33,24],[104,2],[29,27],[39,-19],[184,-6],[60,-29],[70,-53],[37,49],[39,-12],[98,-73],[2,-45],[32,-38],[49,17],[77,-171],[99,-116],[63,-39],[69,79],[6,-126],[-39,-29],[55,-92],[-52,-38],[-8,-31],[-45,-26],[11,-104],[94,-18],[12,-73],[32,-22],[-5,-43],[38,-90],[86,-476],[2,-94],[-56,-60],[-55,6],[-18,-49],[21,-70],[-72,-10],[-56,-71],[-42,4],[-10,-87],[-38,-42],[-88,-204],[-9,-116],[-37,-160],[-5,-60],[21,-32],[-68,-94],[-8,-69],[-41,-12]]],"transform":{"scale":[0.0010360794443497526,0.001018379319706164],"translate":[-8.5717091,4.3619237]},"objects":{"admin_level_4":{"type":"GeometryCollection","geometries":[{"arcs":[[0,1,2,3,4]],"type":"Polygon","properties":{"name":"Gôh-Djiboua","note":"un district en Côte d’Ivoire","boundary":"administrative","wikidata":"Q21003640","ISO3166-2":"CI-GD","wikipedia":"fr:Gôh-Djiboua","admin_level":"4","border_type":"district","official_name":"District du Gôh-Djiboua"},"id":3596727},{"arcs":[[-3,5,6]],"type":"Polygon","properties":{"name":"Yamoussoukro","note":"un dictrict en Côte d’Ivoire","name:ru":"Ямусукро","boundary":"administrative","wikidata":"Q8048095","ISO3166-2":"CI-YM","wikipedia":"fr:Yamoussoukro","admin_level":"4","border_type":"district","official_name":"District Autonome de Yamoussoukro"},"id":3601243},{"arcs":[[-2,7,8,9,10,11,-6]],"type":"Polygon","properties":{"name":"Sassandra-Marahoué","note":"un dictrict en Côte d’Ivoire","name:ru":"О-Сассандра","boundary":"administrative","wikidata":"Q20365127","ISO3166-2":"CI-SM","wikipedia":"fr:Sassandra-Marahoué","admin_level":"4","border_type":"district","official_name":"District du Sassandra-Marahoué"},"id":3601234},{"arcs":[[12,-11,13,14,15]],"type":"Polygon","properties":{"name":"Vallée du Bandama","note":"un dictrict en Côte d’Ivoire","name:ru":"Валле-дю-Бандама","boundary":"administrative","wikidata":"Q21002356","ISO3166-2":"CI-VB","wikipedia":"fr:Vallée du Bandama","admin_level":"4","border_type":"district","official_name":"District de la Vallée du Bandama"},"id":1609817},{"arcs":[[16,17,18]],"type":"Polygon","properties":{"name":"Denguélé","note":"un dictrict en Côte d’Ivoire","name:ru":"Денгеле","boundary":"administrative","wikidata":"Q20980374","ISO3166-2":"CI-DN","wikipedia":"fr:Denguélé","admin_level":"4","border_type":"district","official_name":"District du Denguélé"},"id":1609819},{"arcs":[[-10,19,20,-17,21,-14]],"type":"Polygon","properties":{"name":"Woroba","note":"un dictrict en Côte d’Ivoire","boundary":"administrative","wikidata":"Q20980371","ISO3166-2":"CI-WR","wikipedia":"fr:Woroba","admin_level":"4","border_type":"district","official_name":"District du Woroba"},"id":3603714},{"arcs":[[22,23,-4,-7,-12,-13,24]],"type":"Polygon","properties":{"name":"Lacs","note":"un dictrict en Côte d’Ivoire","name:ru":"Лак","boundary":"administrative","wikidata":"Q20980363","ISO3166-2":"CI-LC","wikipedia":"fr:District des Lacs","admin_level":"4","border_type":"district","official_name":"District des Lacs"},"id":3601645},{"arcs":[[25,26,-23,27,28]],"type":"Polygon","properties":{"name":"Comoé","note":"un district en Côte d’Ivoire","boundary":"administrative","wikidata":"Q16629374","ISO3166-2":"CI-CM","wikipedia":"fr:Comoé","admin_level":"4","border_type":"district","official_name":"District de la Comoé"},"id":3578769},{"arcs":[[29,30,31,-5,-24,-27]],"type":"Polygon","properties":{"name":"Lagunes","note":"un district en Côte d’Ivoire","boundary":"administrative","wikidata":"Q20980365","ISO3166-2":"CI-LG","wikipedia":"fr:Lagunes_District","admin_level":"4","border_type":"district","official_name":"District des Lagunes"},"id":3581398},{"arcs":[[32,33,-8,-1,-32]],"type":"Polygon","properties":{"name":"Bas-Sassandra","note":"un dictrict en Côte d’Ivoire","boundary":"administrative","wikidata":"Q20980352","ISO3166-2":"CI-BS","wikipedia":"fr:Bas-Sassandra","admin_level":"4","border_type":"district","official_name":"District du Bas-Sassandra"},"id":3597522},{"arcs":[[-26,34,-30]],"type":"Polygon","properties":{"name":"Abidjan","note":"un district en Côte d’Ivoire","comment":"please keep tagging in synch with the admin_centre node 1046100133 and the label node 2811123364","name:af":"Abidjan","name:ar":"أبيدجان","name:be":"Абіджан","name:bg":"Абиджан","name:bn":"আবিজান","name:br":"Abidjan","name:bs":"Abidjan","name:ca":"Abidjan","name:cs":"Abidžan","name:cy":"Abidjan","name:da":"Abidjan","name:de":"Abidjan","name:el":"Αμπιτζάν","name:en":"Abidjan","name:eo":"Abiĝano","name:es":"Abiyán","name:et":"Abidjan","name:eu":"Abidjan","name:fa":"آبیجان","name:fi":"Abidjan","name:fr":"Abidjan","name:gd":"Abidjan","name:gl":"Abidjan","name:gv":"Abidjan","name:he":"אבידג'אן","name:hr":"Abidjan","name:hu":"Abidjan","name:id":"Abidjan","name:io":"Abidjan","name:is":"Abidjan","name:it":"Abidjan","name:ja":"アビジャン","name:jv":"Abidjan","name:ko":"아비장","name:la":"Abidjan","name:ln":"Abidjan","name:lt":"Abidžanas","name:lv":"Abidžāna","name:mg":"Abidjan","name:mk":"Абиџан","name:ml":"അബിജാൻ","name:mr":"आबिजान","name:ms":"Abidjan","name:nl":"Abidjan","name:nn":"Abidjan","name:no":"Abidjan","name:oc":"Abidjan","name:pl":"Abidżan","name:pt":"Abidjan","name:ro":"Abidjan","name:ru":"Абиджан","name:sc":"Abidjan","name:sk":"Abidjan","name:sl":"Abidžan","name:sq":"Abidjan","name:sr":"Абиџан","name:sv":"Abidjan","name:sw":"Abidjan","name:th":"อาบีจาน","name:tk":"Abijan","name:tr":"Abican","name:uk":"Абіджан","name:vi":"Abidjan","name:vo":"Abidjan","name:yo":"Abidjan","name:zh":"阿比让","boundary":"administrative","name:als":"Abidjan","name:kab":"Abidjan","name:lmo":"Abidjan","name:nov":"Abidjan","name:pms":"Abidjan","name:war":"Abidjan","wikidata":"Q4667612","ISO3166-2":"CI-AB","wikipedia":"fr:Abidjan","population":"5000000","admin_level":"4","border_type":"district","name:bat-smg":"Abidžans","name:roa-rup":"Abidjan","official_name":"District Autonome d’Abidjan","name:be-tarask":"Абіджан","name:zh-min-nan":"Abidjan"},"id":3377982},{"arcs":[[-34,35,-20,-9]],"type":"Polygon","properties":{"name":"Montagnes","note":"un dictrict en Côte d’Ivoire","boundary":"administrative","old_name":"Dix-Huit Montagnes","reg_name":"18 Montagnes","wikidata":"Q20980366","ISO3166-2":"CI-MG","wikipedia":"fr:Montagnes_District","admin_level":"4","border_type":"district","official_name":"District des Montagnes"},"id":3600378},{"arcs":[[-15,-22,-19,36,37]],"type":"Polygon","properties":{"name":"Savanes","note":"un dictrict en Côte d’Ivoire","name:ru":"Саван","boundary":"administrative","wikidata":"Q21002161","ISO3166-2":"CI-SV","wikipedia":"fr:Savanes (district de Côte-d'Ivoire)","admin_level":"4","border_type":"district","official_name":"District des Savanes"},"id":1609809},{"arcs":[[-28,-25,-16,-38,38]],"type":"Polygon","properties":{"name":"Zanzan","note":"un dictrict en Côte d’Ivoire","name:ru":"Занзан","boundary":"administrative","wikidata":"Q21003689","ISO3166-2":"CI-ZZ","wikipedia":"fr:Zanzan","admin_level":"4","border_type":"district","official_name":"District du Zanzan"},"id":1609813}]}}}