{"type":"Topology","arcs":[[[190641,91720],[8,-45],[-26,-68],[-5,-88],[-12,-33],[-52,-86],[-2,-38],[-13,-31],[-80,-117],[-28,-23],[3,-14],[-33,-14],[-16,-30],[-33,-13],[-20,-25],[-17,-6],[-49,-53],[-41,-24],[-42,-40],[-19,-7],[-68,-61],[-57,-39],[-58,-44],[-20,0],[-52,-37],[-96,-83],[-34,-40],[-60,-45],[-36,-32],[-56,-34],[-76,-20],[-14,-18],[-62,-24],[-36,6],[-27,-17],[-49,-1],[-14,11],[-31,2],[-32,13],[-78,54],[-38,7],[-1,15],[-44,23],[-48,20],[-38,35],[-114,54],[-83,50],[-119,85],[-56,49],[-84,63],[-55,59],[-127,114],[-47,28],[-4,35],[-29,4],[-16,34],[-38,62],[-17,17],[-39,60],[-18,11],[-6,21],[-33,62],[-12,41],[-23,52],[-44,85],[-59,96],[-12,11],[-14,56],[-42,73],[0,30],[-10,21],[5,26],[-13,6],[-8,46],[-21,70],[-18,8],[2,49],[-9,26],[7,56],[-12,87],[-16,50],[4,32],[-9,31],[0,32],[-15,49],[17,34],[-11,30],[-1,59],[-20,55],[8,35],[-9,17],[-10,57],[9,28],[-25,43],[12,92],[0,41],[-9,32],[8,22],[-8,16],[5,82],[-14,81],[8,55],[-12,24],[-1,51],[5,13],[2,92],[16,40],[-1,25],[12,25],[-10,20],[4,51],[-10,37],[42,34],[7,31],[0,62],[14,37],[14,8],[24,46],[-5,14],[25,55],[21,87],[31,39],[-8,23],[18,11],[20,69],[22,33],[2,33],[17,39],[15,21],[7,78],[24,69],[6,35],[-4,39],[13,47],[-1,14],[18,70],[7,106],[-8,58],[10,27],[-1,49],[13,88],[25,28],[29,74],[25,21],[23,31],[44,34],[73,7],[9,7],[46,-3],[104,-34],[63,-36],[35,-2],[80,-39],[22,4],[19,-12],[76,-23],[22,-22],[38,-12],[23,-18],[11,-23],[26,0],[24,-18],[17,0],[119,-37],[32,-20],[38,-16],[14,-22],[26,6],[33,-8],[31,-19],[12,-22],[22,0],[56,-22],[33,-27],[29,2],[53,-43],[66,-40],[13,0],[36,-28],[30,-3],[23,-20],[28,-4],[14,-16],[64,-31],[34,-30],[35,-4],[66,-28],[53,-11],[24,-17],[14,-20],[65,-15],[28,-25],[27,-8],[63,-38],[62,-12],[22,5],[33,-25],[33,-8],[66,-40],[40,-43],[59,-74],[12,-36],[28,-45],[21,-67],[21,-17],[18,-89],[21,-12],[17,-69],[12,-27],[8,-49],[10,-20],[-8,-29],[9,-36],[25,-30],[-2,-26],[16,-51],[15,-27],[-12,-23],[9,-53],[25,-62],[1,-20],[17,-36],[-1,-37],[21,-9],[-7,-30],[5,-46],[-6,-86],[-4,-27],[27,-49],[-10,-17],[14,-115],[9,-50],[-12,-57],[8,-15],[-11,-51],[4,-23],[-18,-251],[-10,-48],[5,-22],[-5,-29],[-2,-68],[-12,-97],[-1,-46],[11,-50],[-17,-15],[-11,-24],[-14,-81],[9,-37],[-16,-25],[4,-42],[-28,-39],[7,-37],[18,-22],[-10,-20],[-33,-30],[-9,-38]],[[7528,1011],[-27,-117],[-195,-209],[-7,-31],[7,-100],[-47,-45],[-28,-46],[9,-17],[-165,-108],[-229,-117],[-266,-112],[-460,-97],[-267,1],[-104,-13],[-54,7],[-97,33],[-246,26],[-118,51],[-166,128],[-121,82],[-47,27],[-81,60],[-79,42],[-90,24],[-132,7],[-156,53],[-111,15],[-44,-6],[-112,43],[-31,-32],[-93,-14],[-118,17],[-68,36],[-389,29],[-18,-15],[-23,28],[-321,49],[-230,47],[-59,42],[-199,105],[-51,47],[-60,47],[-169,81],[-89,16],[-142,85],[-162,28],[-43,2],[-65,42],[-120,22],[-123,29],[-59,-2],[-67,-12],[-70,2],[-37,9],[-59,-2],[-14,10],[-49,-2],[-109,70],[-87,27],[-107,145],[-168,300],[-72,147],[-69,127],[-93,199],[3,28],[21,37],[-44,17],[-41,32],[-59,73],[-60,210],[-39,230],[-32,465],[-157,701],[-14,34],[-21,84],[-9,64],[-10,156],[8,70],[48,173],[105,186],[197,311],[135,156],[105,112],[76,68],[114,120],[126,123],[86,51],[0,16],[62,28],[7,89],[39,40],[188,46],[53,2],[215,90],[44,-26],[308,-1],[110,-32],[68,0],[64,8],[79,20],[22,26],[9,29],[51,59],[108,7],[107,-3],[59,-5],[19,3],[90,-4],[34,-9],[48,3],[454,-182],[128,-88],[39,14],[59,-3],[43,-14],[23,-24],[3,-72],[-121,91],[-26,-4],[7,-21],[69,-87],[-8,-15],[39,-71],[-3,-14],[68,-45],[51,197],[-6,25],[93,-48],[49,-54],[9,-25],[49,-16],[109,-7],[68,-24],[154,-61],[121,-65],[29,1],[26,32],[21,8],[38,40],[102,5],[102,13],[178,56],[175,45],[92,14],[89,16],[71,34],[201,1],[230,19],[262,-43],[154,-58],[132,-90],[64,-39],[24,-8],[105,-101],[88,-72],[48,-53],[78,-96],[97,-51],[33,-44],[33,-13],[28,-24],[183,-133],[40,-39],[61,-29],[346,-236],[63,-87],[36,-90],[47,-327],[-1,-42],[20,-77],[2,-38],[-8,-18],[16,-108],[35,-155],[30,-82],[17,-68],[19,-51],[6,-72],[34,-81],[15,-97],[105,-276],[42,-76],[34,-149],[135,-212],[85,-52],[21,-134],[-78,14],[-51,-2],[-30,-19],[-21,-30],[-71,-13],[-20,-119],[-6,-67],[-26,-27],[-86,9],[32,-27],[20,-37],[-16,-19],[-11,20],[-4,30],[-16,8],[-20,-17],[-1,-103],[-9,-47],[20,-112],[-1,-68],[17,-57],[58,-96],[12,-46],[1,-116],[-28,-53],[-83,-54],[-46,-43],[-67,-82],[-31,-59],[-29,-100],[-19,-95]]],"transform":{"scale":[0.000013155413451861774,0.00001198162915799869],"translate":[-159.831353,-21.2729817]},"objects":{"ck_slim":{"type":"GeometryCollection","geometries":[{"arcs":[[0]],"type":"Polygon","properties":{"srid":"4326","id":"7887109","name":"Mauke","localname":"Mauke","official_name":"","boundary":"adminstrative","admin_level":"4","note":"","wikidata":"Q511978","wikipedia":"en:Mauke","timestamp":"2018-11-09 04:11:10","rpath":"7887109,2184233,0","alltags":{"name":"Mauke","name:ca":"Mauke","name:de":"Mauke","name:en":"Mauke","name:es":"Mauke","name:fa":"مائوکه","name:fi":"Mauke","name:fr":"Mauke","name:gl":"Mauke","name:it":"Mauke","name:ja":"マウケ島","name:lt":"Maukė","name:nl":"Mauke","name:no":"Mauke","name:pl":"Mauke","name:ru":"Мауке","name:sv":"Mauke","alt_name":"Ma'uke","boundary":"administrative","maritime":"yes","name:ceb":"Mauke","old_name":"Akatokamanava","wikidata":"Q511978","wikipedia":"en:Mauke","admin_level":"4"}}},{"arcs":[[1]],"type":"Polygon","properties":{"srid":"4326","id":"7887110","name":"Rarotonga","localname":"Rarotonga","official_name":"","boundary":"adminstrative","admin_level":"4","note":"","wikidata":"Q471793","wikipedia":"en:Rarotonga","timestamp":"2018-11-09 04:11:10","rpath":"7887110,2184233,0","alltags":{"name":"Rarotonga","name:be":"Раратонга","name:bg":"Раротонга","name:ca":"Rarotonga","name:cs":"Rarotonga","name:de":"Rarotonga","name:el":"Ραροτόνγκα","name:en":"Rarotonga","name:eo":"Rarotonga","name:es":"Rarotonga","name:fa":"راروتونگا","name:fi":"Rarotonga","name:fr":"Rarotonga","name:gl":"Rarotonga","name:he":"ררוטונגה","name:hr":"Rarotonga","name:hu":"Rarotonga","name:hy":"Ռարոտոնգա","name:id":"Rarotonga","name:it":"Rarotonga","name:ja":"ラロトンガ島","name:ko":"라로통가 섬","name:la":"Rarotonga","name:lt":"Rarotonga","name:nl":"Rarotonga","name:no":"Rarotonga","name:pl":"Rarotonga","name:pt":"Rarotonga","name:ru":"Раротонга","name:sk":"Rarotonga","name:sl":"Rarotonga","name:sr":"Раротонга","name:sv":"Rarotonga","name:uk":"Раротонга","name:zh":"拉羅湯加","boundary":"administrative","maritime":"yes","name:ceb":"Rarotonga","name:hif":"Rarotonga","wikidata":"Q471793","wikipedia":"en:Rarotonga","admin_level":"4","alt_name:zh":"拉罗汤加岛"}}}]}}}