{"type":"Topology","arcs":[[[10161,7681],[-71,148],[29,24],[75,6],[83,51],[201,150],[164,54],[43,84],[54,20],[41,-29],[142,39],[52,25],[10,70],[71,28],[34,42],[-1,43],[-82,-1],[-63,82],[17,43],[-49,105]],[[10911,8665],[44,20],[33,56],[35,-19],[89,31],[132,117],[70,41],[106,131],[37,-1],[4,4],[4,3],[51,71],[20,-20],[74,93],[29,-4],[81,58],[10,28],[87,6],[58,56],[129,-27],[89,10],[30,23],[118,-38],[94,-2],[52,20],[110,-2],[108,37],[3,1],[15,25],[75,12],[109,94],[106,17],[77,0],[50,31],[13,50],[79,-15],[53,13],[27,43],[55,5],[35,65],[50,9],[44,-31],[43,35],[67,2],[85,109],[87,28],[74,10],[1,6],[150,137],[50,-18],[112,66],[50,73],[53,17],[102,85],[10,48],[170,29],[75,55],[119,32],[60,62],[78,148],[19,72],[56,25],[38,97],[3,3],[8,35],[98,44],[32,51],[18,85],[-6,49],[68,42],[76,-66],[69,-10],[87,23],[31,-31],[117,15],[82,37],[78,130],[75,-17],[35,13],[78,67],[140,1],[60,60],[3,1],[74,84],[35,-12],[80,81],[13,77],[58,-8],[42,23],[70,107],[15,125],[130,64],[22,-21],[82,105],[52,22],[62,0],[74,-21],[57,12],[36,65],[103,68],[18,46],[93,64],[94,-4],[45,-34],[39,1],[38,35],[110,51],[67,-14],[76,65],[41,55],[3,86],[49,14],[24,-80],[83,19],[100,64],[44,65],[19,60],[114,51],[140,8],[32,26],[42,-24],[-78,-130],[8,-108],[-37,-29],[-2,-97],[21,-56],[-44,-102],[-99,-83],[-160,-27],[-68,-52],[-122,-24],[-118,-112],[-94,-43],[-17,12],[-82,-34],[-120,-75],[-67,-63],[-53,-20],[-2,-1],[-145,-146],[-17,-69],[-45,-57],[-24,-118],[0,-10],[-29,-80],[-10,-94],[-52,-24],[-115,-75],[-35,-74],[-38,-28],[-100,-23],[-5,-3],[-82,-56],[-1,-39],[-52,-16],[-1,-1],[-18,-21],[-3,-6],[-43,-35],[-36,-60],[-57,-39],[-83,-125],[-41,-33],[-2,-37],[-109,-116],[-5,-3],[-65,-37],[-45,-65],[-50,-5],[-250,-118],[-111,-68],[-96,-88],[-290,-146],[-94,-72],[-127,-130],[-89,-56],[-79,-77],[-65,-96],[-7,-6],[-1,-10],[-6,-9],[-19,-27],[-11,-9],[-22,-45],[-6,-8],[-16,-26],[-7,-7],[-38,-35],[-7,-7],[-95,-112],[-6,-8],[0,-6],[-15,-27],[-3,-9],[-5,-6],[-5,-12],[-5,-7],[-11,-6],[-2,-9],[-57,-63],[-7,-6],[-6,-12],[-8,-25],[-2,-15],[-3,-24],[-3,-37],[1,-27],[5,-7],[8,3],[1,-3],[-1,-10],[-1,2],[-2,4],[-10,0],[-9,-14],[-2,-6],[-8,-27],[-6,-12],[-7,-40],[-5,-36],[5,-65],[-8,-12],[-3,-6],[-2,-9],[-3,-3],[-2,-15],[-18,-43],[-4,-7],[-24,-26],[-11,-11],[-6,-7],[-9,-8],[-42,4],[-72,-39],[-40,16],[-119,-29],[-161,-26],[-1,0],[0,4],[1,2],[0,0],[-84,69],[-47,-9],[-65,-37],[-66,18],[-74,-45],[-75,-61],[-106,-128],[-75,-158],[-20,-73],[-3,-13],[-17,-61],[-70,-68],[-36,-118],[-67,-75],[-26,-116],[-4,-204],[3,-9],[2,-28],[2,-61],[0,-24],[-2,-12],[-1,-6],[-6,-8],[-17,-32],[-1,-220],[43,-172],[31,-86],[-3,-75],[41,-104],[51,-33],[73,-163],[7,-44],[50,-93],[20,7],[72,-114],[69,-21],[3,-94],[66,-158],[134,-230],[81,-111],[32,6],[72,-113],[2,-9],[3,-8],[9,1],[1,-2],[47,-69],[47,-10],[79,-93],[26,-75],[68,-88],[20,-50],[51,-57],[-4,-36],[83,-145],[-1,-3],[20,-74],[37,-28],[-2,-2],[0,1],[1,1],[-15,-3],[12,-31],[24,-12],[59,-112],[0,-6],[-14,0],[-59,-33],[29,-85],[29,-8],[-5,-82],[90,-99],[-18,-51],[-41,14],[4,62],[-38,23],[-79,-63],[-5,14],[-5,4],[-6,3],[-6,4],[-36,57],[-77,53],[-6,4],[-5,0],[-50,25],[-58,-4],[-125,95],[-1,19],[-7,6],[-2,1],[-2,-1],[-3,2],[-6,6],[-19,9],[-30,0],[-9,1],[-58,-33],[-90,45],[-69,-12],[-69,44],[-70,-33],[-47,9],[-13,-43],[-50,-1],[-62,-42],[-57,3],[-65,-26],[-146,-36],[-46,-41],[-1,-2],[1,-1],[2,-5],[-4,-45],[-277,116],[-147,-59],[-113,132],[106,29],[90,70],[9,140],[-56,51],[-98,1],[-80,131],[0,131],[-104,152],[-122,81],[41,90],[112,123],[88,-66],[82,-37],[90,10],[99,71],[20,52],[56,62],[71,56],[83,-110],[58,76],[69,62],[45,73],[-47,66],[-85,71],[-2,69],[-46,124],[-60,19],[-17,92],[-93,1],[-35,-228],[-2,-54],[26,-147],[-58,-63],[-91,-142],[-63,-23],[-55,17],[-59,57],[-61,18],[-52,-23],[-146,-152],[-57,-90],[-49,-41],[-90,-38],[-62,-98],[-216,196],[-192,-203],[-56,23],[62,327],[22,54],[-60,48],[-138,-169],[-50,45]],[[11192,5198],[-282,280],[-189,213],[-242,2]],[[10479,5693],[-44,149],[-47,36],[-108,-41],[-19,33],[-84,8],[-84,85],[4,47],[-39,94],[40,48],[45,10],[38,92],[95,84],[26,203],[-33,69],[-46,34],[0,169],[-36,121],[21,75],[96,40],[-25,159],[-79,35],[3,128],[-46,174],[4,136]],[[10161,7681],[-63,-38],[-109,64],[-71,-27],[-151,59],[-14,-52],[-79,2],[-30,-19],[-98,13],[-92,-12],[-68,18],[-62,-67],[-35,-60],[-15,-96],[22,-71],[-14,-60],[-44,8],[-101,-71],[-82,-23],[-41,-38],[-122,3],[-131,-46],[-19,20],[-102,8],[-98,-6],[-232,11],[-15,22],[-236,39],[-67,19],[-36,55],[-51,20],[-31,-50],[-51,38],[-75,-27],[16,-48],[-27,-29],[-56,23],[-25,-55],[-57,-59],[-55,15],[-38,-13],[-26,80],[-2,57],[-48,14],[-53,55],[-56,-17],[-102,-5],[-12,55],[-43,37],[-59,13],[-12,-41],[32,-53],[-79,6],[-23,63],[-35,-34],[17,-51],[-29,-27],[-75,72],[-37,-70],[-83,58],[-31,-17],[-98,31],[-82,-47],[-58,30],[-101,-14],[-50,-54],[-46,14],[-122,117],[-66,19],[20,75],[-161,-66],[-43,9],[-61,-23],[-38,15],[-137,2],[-18,-55],[-119,20],[-52,45],[-143,77],[-111,36]],[[5264,7577],[11,55],[27,307],[-14,83],[11,46],[-18,59],[-13,118],[-6,259],[-11,49],[-59,33],[-27,97],[8,136],[-25,203],[19,39],[-25,87],[50,24],[98,-50],[92,-66],[142,-40],[3,-23],[89,-93],[40,-24],[60,-80],[94,-4],[33,-17],[139,-15],[35,28],[105,-67],[39,-51],[121,-35],[188,-27],[76,11],[80,68],[45,106],[33,-47],[55,-18],[68,14],[44,-41],[8,-4],[171,-79],[6,-2],[13,-9],[-10,9],[15,-11],[125,-29],[87,41],[23,41],[-9,-5],[-2,2],[15,6],[79,4],[170,-74],[85,-68],[96,-10],[54,23],[34,41],[116,-66],[74,33],[2,-4],[2,5],[22,9],[118,-76],[137,11],[38,-31],[55,27],[28,-50],[107,-41],[65,4],[2,-1],[61,7],[45,-23],[66,55],[38,-46],[29,23],[78,-44],[86,7],[24,27],[42,-44],[116,1],[55,51],[53,-27],[47,31],[26,-25],[47,31],[93,-55],[75,-4],[122,60],[82,3],[69,19],[12,26],[137,61],[47,-28],[50,28],[62,-10],[226,56],[42,34],[49,-1],[52,43],[50,7],[90,-27],[34,29],[110,21],[34,-33],[65,15]],[[6852,3028],[86,131],[83,70],[101,-5],[-19,102],[49,61],[38,-64],[46,-24],[34,41],[87,-4],[2,-77],[26,-28],[56,-2],[37,23],[38,-14],[121,88],[49,-7],[-22,-60],[111,-17],[-3,-60],[23,-68],[60,-18],[68,96],[45,6],[37,43],[128,80],[90,154],[-11,67],[96,79],[53,88],[52,-24],[79,-90],[10,-68],[65,13],[62,65],[186,11],[37,-34],[92,-24],[98,83],[45,154],[-46,147],[-1,138],[121,-35],[94,-106],[47,30],[32,-62],[81,75],[66,79],[54,14],[56,-57],[56,-1],[24,-48],[70,-28],[7,33],[-40,49],[26,34],[-10,58],[50,66],[44,16],[-2,60],[25,90],[-2,80],[50,-24],[-4,72],[-67,44],[-10,66],[-34,113],[-23,28],[-7,131],[-25,100],[-102,-15],[7,96],[-56,-6],[29,67],[43,5],[79,97],[9,64],[61,45],[32,56],[-31,29],[21,56],[-43,33],[40,95],[69,9],[56,81],[30,-31],[79,-11],[30,-88],[60,-22],[76,3],[42,-64],[127,-10],[41,163],[61,84]],[[11192,5198],[-57,-78],[-6,-249],[179,-89],[-18,-166],[146,-174],[-78,-125],[-1,-150],[-13,-4],[-87,-24],[-103,-52],[-5,-3],[-99,-71],[-107,-133],[-21,-37],[-1,-2],[-4,-12],[2,-6],[-9,-12],[-23,-54],[-21,-66],[-26,-153],[2,-101],[-21,-96],[10,-200],[-32,-193],[26,-60],[9,-70],[-113,-170],[-13,-44],[-71,-63],[-50,-97],[-34,-136],[8,-44],[-23,-46],[-161,62],[-220,-10],[-88,-52],[-49,-66],[-22,-57],[-60,-47],[-18,-38],[-110,-93],[-52,-18],[-41,-50],[-22,-87],[-84,3],[-113,-18],[-84,-32],[-12,0],[-15,-6],[-9,-6],[-31,-11],[-7,-3],[-12,-11],[-12,-5],[-5,-3],[-5,-11],[-25,-11],[-1,-1],[-16,-8],[-12,-1],[-33,-14],[-54,-21],[-32,-29],[-4,-4],[-11,-14],[-43,-76],[-36,-36],[-144,-36],[-62,-47],[-69,-74],[-48,-31],[-10,-40],[-66,7],[-35,2],[-86,-13],[-42,-21],[-93,-81],[-10,-25],[-72,-24],[-233,76],[-59,-27],[-45,-44]],[[7965,1066],[-35,39],[-10,49],[28,62],[-42,98],[41,154],[6,149],[11,34],[2,126],[-88,147],[1,39],[-55,101],[-92,81],[-63,18],[-1,51],[-38,105],[-45,18],[-23,94],[-37,48],[-92,75],[-72,39],[-91,-17],[-36,43],[-28,-11],[-122,75],[-24,-28],[-67,-4],[-74,30],[0,47],[-51,-7],[-73,33],[13,95],[23,33],[21,146]],[[11761,4403],[26,20],[104,-39],[16,-26],[78,3],[44,-70],[-96,-23],[-8,24],[-81,24],[-8,41],[-75,46]],[[11584,4555],[31,118],[91,6],[-4,-110],[-63,-34],[-55,20]],[[3992,3282],[-9,67],[9,109],[58,200],[-31,76],[29,67],[133,2],[14,94],[21,32],[66,4],[47,-43],[39,-3],[38,-49],[78,-21],[55,-33],[44,-49],[78,4],[66,-43],[-3,-46],[185,-19],[53,37],[78,-5],[104,-53],[31,1],[115,126],[70,40],[18,35],[84,55],[118,-56],[74,20],[30,-21],[50,15],[75,-76],[23,-70],[67,-124],[84,-14],[78,-42],[30,-58],[67,-11],[26,-138],[45,-59],[4,-38],[48,-27],[59,-85],[59,12],[23,69],[38,27],[121,-5],[69,-26],[48,-97],[77,4],[77,-39]],[[7965,1066],[-45,-87],[7,-30],[-78,-37],[-226,5],[-1,0],[-317,9],[-239,67],[-42,-1],[-5,1],[-63,3],[-75,-39],[-7,-1],[-141,-36],[-137,-65],[-56,-42],[-3,-3],[-66,-50],[-45,-11],[-144,-73],[-93,-83],[-66,-95],[-3,-38],[1,3],[2,1],[-1,-4],[-1,-4],[-55,3],[1,2],[0,3],[-27,1],[-7,-7],[-77,-103],[15,-94],[0,-1],[-26,57],[-35,-9],[-6,-83],[-72,3],[0,-41],[-213,-36],[-84,-33],[-17,-54],[-66,-64],[-35,99],[10,70],[-19,77],[-28,26],[-10,89],[45,60],[131,-35],[50,-91],[103,17],[-2,70],[-23,76],[3,77],[30,79],[-160,17],[-47,23],[-75,4],[-64,-58],[-28,-100],[-55,-12],[-10,-63],[-58,33],[23,39],[-78,36],[-66,-20],[-38,-106],[-62,21],[-171,143],[-132,126],[-1,126],[-13,91],[-262,4],[-49,-111],[-103,-37],[-60,-80],[-48,-99],[-176,8],[-42,38],[-48,7],[2,-86],[-39,-295],[-42,-8],[-44,-47],[-156,40],[-52,-20],[-7,-11],[-1,-4],[-2,-5],[-5,-53],[-1,-5],[-3,1],[-3,0],[-46,0],[-34,-4],[-22,-8],[-6,6],[-6,5],[-7,7],[-1,2],[-11,8],[-1,1],[-39,18],[-23,9],[-8,5],[-13,12],[-72,58],[-177,32],[-68,39]],[[2997,341],[-2,143],[-27,164],[30,74],[-37,74],[-22,97],[41,30],[61,2],[10,48],[59,35],[-26,43],[21,78],[27,30],[60,-18],[31,33],[48,4],[64,107],[45,2],[25,86],[66,12],[21,41],[64,-4],[-7,54],[37,87],[8,111],[44,32],[-88,100],[-81,12],[-5,94],[-30,42],[86,96],[38,-28],[27,33],[-2,98],[64,109],[71,55],[55,-9],[41,41],[-12,110],[25,93],[66,108],[82,77],[73,27],[55,138],[52,7],[20,57],[-47,115],[-96,7],[-27,25],[-13,169]],[[2361,6428],[114,37],[51,64],[126,-4],[53,31],[26,82],[93,63],[19,-43],[42,-4],[108,80],[113,-38],[67,12],[1,-39],[48,-31],[125,-38],[90,3],[1,0],[1,0],[1,0],[80,-16],[40,-32],[74,-21],[66,21],[34,-65],[134,-64],[7,-16],[121,-59],[87,-28],[61,-101],[57,-38],[117,-30],[15,-33],[83,-35],[82,23],[74,59],[29,1],[146,146],[31,-7],[63,31],[128,151],[62,134],[84,249],[46,161],[53,238],[47,262],[3,43]],[[3992,3282],[-79,1],[-7,46],[-139,90],[-76,-72],[-4,-94],[-42,-45],[-49,-151],[-32,34],[-148,74],[44,20],[53,58],[-8,37],[-52,-8],[-39,40],[-61,-22],[18,-76],[-31,-126],[-109,208],[-59,38],[6,66],[-38,103],[-1,118],[28,36],[52,-16],[19,29],[-15,109],[59,158],[-23,84],[12,37],[-19,84],[-59,13],[68,100],[-2,79],[-68,157],[-53,13],[-22,79],[10,75],[-66,89],[-116,13],[-63,33],[-69,215],[-37,69],[-59,20],[68,100],[0,65],[114,5],[22,61],[3,174],[-12,102],[16,125],[-28,27],[-81,1],[-85,74],[17,70],[4,101],[-68,57],[-96,57],[-89,160],[-86,46],[-41,44],[-13,62]],[[328,3220],[5,1],[6,-9],[-5,-1],[-6,9]],[[2997,341],[-98,70],[-53,21],[-132,31],[-154,166],[-103,63],[-59,10],[-21,32],[-117,86],[-56,-10],[-43,36],[-88,-30],[-118,117],[-84,5],[-91,-59],[-52,84],[-79,24],[-37,88],[-32,8],[-44,73],[-73,49],[-2,4],[-39,44],[-64,21],[-27,-13],[-1,-1],[-4,-1],[-83,97],[-58,122],[-28,29],[-57,-3],[1,-1],[-5,-3],[-57,-8],[18,78],[29,56],[-35,111],[4,73],[-40,101],[-34,4],[-5,105],[8,178],[-37,196],[12,51],[-2,13],[-19,63],[-50,74],[-4,4],[-70,17],[-17,55],[-105,64],[-52,-35],[-39,44],[-9,71],[-50,134],[-35,27],[-8,27],[-1,8],[3,8],[-2,3],[2,13],[-7,6],[-5,-1],[-4,5],[-14,15],[-3,13],[-4,2],[-2,10],[-14,11],[-1,2],[0,6],[-14,18],[2,8],[-3,0],[-6,15],[0,11],[-2,4],[-6,5],[-23,11],[3,1],[0,5],[-1,3],[-1,2],[-22,39],[4,11],[32,71],[33,28],[10,100],[-10,96],[-37,39],[-24,125],[-33,32],[-18,77],[-71,14],[-5,71],[50,8],[32,33],[14,54],[-30,62],[31,147],[-24,88],[14,69],[-30,130],[-46,36],[-98,136],[2,4],[-45,102],[-74,89],[15,62],[-40,54],[-7,73],[6,5],[8,23],[-30,116],[-3,67],[35,121],[-3,115],[28,40],[13,65],[49,77],[62,-50],[98,-213],[36,-37],[4,3],[4,4],[44,-39],[5,-2],[-7,-10],[3,-5],[1,-8],[10,-6],[0,4],[0,0],[-1,3],[35,-31],[5,-3],[5,-4],[-3,-5],[-2,-4],[2,-2],[1,-6],[19,-4],[3,2],[1,-3],[17,-7],[8,-4],[5,2],[9,-15],[12,-1],[0,-6],[5,-5],[13,-30],[87,-62],[20,-41],[53,-45],[4,-31],[58,-41],[76,-15],[48,-44],[127,-4],[3,7],[0,-8],[0,0],[43,-18],[103,29],[9,4],[62,33],[44,-4],[128,88],[125,103],[67,81],[27,11],[127,178],[93,184],[152,392],[43,149],[96,58],[49,90],[50,196],[31,23],[44,-55],[76,-14]]],"transform":{"scale":[0.00012648232276373954,0.00008410261932938827],"translate":[32.269213,34.6289613]},"objects":{"cy_slim":{"type":"GeometryCollection","geometries":[{"arcs":[[0,1,2,3]],"type":"Polygon","properties":{"srid":"4326","id":"3264447","name":"Famagusta","localname":"Αμμόχωστος - Mağusa","official_name":"Επαρχία Αμμοχώστου - Mağusa kazası","boundary":"adminstrative","admin_level":"6","note":"","wikidata":"Q59148","wikipedia":"en:Famagusta District","timestamp":"2019-01-23 04:55:49","rpath":"3264447,307787,0","alltags":{"ref":"04","name":"Αμμόχωστος - Mağusa","name:ar":"الماغوصة","name:ca":"Famagusta","name:da":"Famagusta","name:de":"Famagusta","name:el":"Αμμόχωστος","name:en":"Famagusta","name:fr":"Famagouste","name:he":"פמגוסטה","name:it":"Famagosta","name:oc":"Famagosta","name:pl":"Famagusta","name:ru":"Фамагуста","name:tr":"Mağusa","name:uk":"Фамагуста","boundary":"administrative","int_name":"Famagusta","wikidata":"Q59148","ISO3166-2":"CY-04","wikipedia":"en:Famagusta District","admin_level":"6","alt_name:ar":"فاماغوستا;منطقة فاماغوستا","alt_name:tr":"Gazimağusa","description":"This fomal district is partitioned between two governing states","official_name":"Επαρχία Αμμοχώστου - Mağusa kazası","official_name:ar":"منطقة الماغوصة","official_name:el":"Επαρχία Αμμοχώστου","official_name:en":"Famagusta District","official_name:fr":"District de Famagouste","official_name:tr":"Mağusa kazası"}}},{"arcs":[[-1,4,5]],"type":"Polygon","properties":{"srid":"4326","id":"3264494","name":"Kyrenia","localname":"Girne - Κερύνεια","official_name":"Girne kazası - Επαρχία Κερύνειας","boundary":"adminstrative","admin_level":"6","note":"","wikidata":"Q59146","wikipedia":"en:Kyrenia District","timestamp":"2019-01-23 04:55:49","rpath":"3264494,307787,0","alltags":{"ref":"06","name":"Girne - Κερύνεια","name:ar":"غرنة","name:el":"Κερύνεια","name:en":"Kyrenia","name:fr":"Kyrenia","name:ru":"Кирения","name:tr":"Girne","alt_name":"Girne","boundary":"administrative","int_name":"Kyrenia","wikidata":"Q59146","ISO3166-2":"CY-06","wikipedia":"en:Kyrenia District","admin_level":"6","alt_name:tr":"Keryneia","official_name":"Girne kazası - Επαρχία Κερύνειας","official_name:el":"Επαρχία Κερύνειας","official_name:en":"Kyrenia District","official_name:fr":"District de Kyrenia","official_name:tr":"Girne kazası"}}},{"arcs":[[[6,-3,7,8]],[[9]],[[10]]],"type":"MultiPolygon","properties":{"srid":"4326","id":"2087229","name":"Larnaca","localname":"Λάρνακα","official_name":"Επαρχία Λάρνακας - Larnaka kazası","boundary":"adminstrative","admin_level":"6","note":"","wikidata":"Q59153","wikipedia":"en:Larnaca District","timestamp":"2019-01-23 04:55:49","rpath":"2087229,307787,0","alltags":{"ref":"03","name":"Λάρνακα","name:ar":"لارنكا","name:el":"Λάρνακα","name:en":"Larnaca","name:fr":"Larnaca","name:he":"לרנקה","name:lt":"Larnaka","name:pl":"Larnaka","name:ru":"Ларнака","name:sl":"Larnaka","name:tr":"Larnaka","boundary":"administrative","int_name":"Larnaca","wikidata":"Q59153","ISO3166-2":"CY-03","wikipedia":"en:Larnaca District","admin_level":"6","description":"This fomal district is partitioned between two governing states","official_name":"Επαρχία Λάρνακας - Larnaka kazası","official_name:ar":"منطقة لارنكا","official_name:el":"Επαρχία Λάρνακας","official_name:en":"Larnaca District","official_name:fr":"District de Larnaca","official_name:tr":"Larnaka kazası"}}},{"arcs":[[11,-9,12,13]],"type":"Polygon","properties":{"srid":"4326","id":"2087230","name":"Limassol","localname":"Limassol - Λεμεσός","official_name":"Επαρχία Λεμεσού - Limasol kazası","boundary":"adminstrative","admin_level":"6","note":"","wikidata":"Q59150","wikipedia":"en:Limassol District","timestamp":"2019-01-23 04:55:49","rpath":"2087230,307787,0","alltags":{"ref":"02","name":"Limassol - Λεμεσός","name:ar":"ليماسول","name:el":"Λεμεσός","name:en":"Limassol","name:fr":"Limassol","name:hy":"Լիմասոլ","name:ru":"Лимасол","name:tr":"Limasol","alt_name":"Lemesos","boundary":"administrative","int_name":"Limassol","wikidata":"Q59150","ISO3166-2":"CY-02","wikipedia":"en:Limassol District","admin_level":"6","alt_name:ru":"Лемессос","alt_name:tr":"Leymosun","official_name":"Επαρχία Λεμεσού - Limasol kazası","official_name:ar":"منطقة ليماسول","official_name:el":"Επαρχία Λεμεσού","official_name:en":"Limassol District","official_name:fr":"District de Limassol","official_name:tr":"Limasol kazası"}}},{"arcs":[[14,-5,-4,-7,-12,15]],"type":"Polygon","properties":{"srid":"4326","id":"3264382","name":"Nicosia","localname":"Λευκωσία - Lefkoşa","official_name":"Επαρχία Πάφου - Lefkoşa kazası","boundary":"adminstrative","admin_level":"6","note":"","wikidata":"Q59147","wikipedia":"en:Nicosia District","timestamp":"2019-01-23 04:55:49","rpath":"3264382,307787,0","alltags":{"ref":"01","name":"Λευκωσία - Lefkoşa","name:af":"Nicosia","name:am":"ሌፍኮዚያ","name:an":"Nicosia","name:ar":"نيقوسيا","name:az":"Nikosiya","name:be":"Нікасія","name:bg":"Никозия","name:bn":"নিকোসিয়া","name:bo":"ནེ་ཁོ་ཤི་ཡ།","name:br":"Nikozia","name:bs":"Nikozija","name:ca":"Nicòsia","name:cs":"Nikósie","name:cy":"Nicosia","name:da":"Nicosia","name:de":"Nikosia","name:el":"Λευκωσία","name:en":"Nicosia","name:eo":"Nikozio","name:es":"Nicosia","name:fa":"نیکوزیا","name:fr":"Nicosie","name:ga":"An Leafcóis","name:gd":"Nicosia","name:gl":"Nicosia","name:gv":"Lefkosia","name:he":"ניקוסיה","name:hi":"निकोसिया","name:hr":"Nikozija","name:ht":"Nikozi","name:hu":"Nicosia","name:hy":"Նիկոսիա","name:is":"Nikósía","name:it":"Nicosia","name:ja":"ニコシア","name:ka":"ნიქოზია","name:kk":"Никосия","name:kl":"Nicosia","name:ko":"니코시아","name:ky":"Лефкоша","name:la":"Nicosia","name:lt":"Nikosija","name:lv":"Nikosija","name:mi":"Nicosia","name:mk":"Левкозија","name:mr":"निकोसिया","name:ms":"Nicosia","name:nl":"Nicosia","name:oc":"Nicosia","name:os":"Никоси","name:pl":"Nikozja","name:pt":"Nicósia","name:ro":"Nicosia","name:ru":"Никосия","name:rw":"Nikosiya","name:sh":"Nikozija","name:sk":"Nikózia","name:sl":"Nikozija","name:sq":"Nicosia","name:sr":"Никозија","name:sv":"Nicosia","name:ta":"நிக்கோசியா","name:tg":"Никосия","name:th":"นิโคเซีย","name:tl":"Nicosia","name:tr":"Lefkoşa","name:tt":"Никосия","name:ug":"نىكوسىيە","name:uk":"Нікосія","name:ur":"نیکوسیا","name:vi":"Nicosia","name:yi":"ניקאסיע","name:yo":"Nicosia","name:zh":"尼科西亚","boundary":"administrative","int_name":"Nicosia","name:arz":"نيكوسيا","name:ckb":"نیکۆسیا","name:crh":"Lefkoşa","name:gag":"Lefkoşa","name:kaa":"Arqa Nikosiya","name:lad":"Nikosiya","name:lij":"Nicosia","name:lmo":"Nicoséa","name:mdf":"Никосия","name:mzn":"نیکوزیا","name:nah":"Nicosia","name:nan":"Nicosia","name:nap":"Nicosìa","name:pms":"Nicosìa","name:pnb":"نیکوسیا","name:pnt":"Λευκωσίαν","name:sah":"Никосия","name:sco":"Nicosia","name:stq":"Nicosia","name:udm":"Никосия","name:vep":"Nikosii","name:war":"Nicosia","wikidata":"Q59147","ISO3166-2":"CY-01","wikipedia":"en:Nicosia District","admin_level":"6","alt_name:ar":"الأفقوسية;منطقة الأفقوسية","alt_name:ru":"Левкосия","description":"This fomal district is partitioned between two governing states","official_name":"Επαρχία Πάφου - Lefkoşa kazası","official_name:ar":"منطقة نيقوسيا","official_name:el":"Επαρχία Πάφου","official_name:en":"Nicosia District","official_name:fr":"District de Nicosie","official_name:tr":"Lefkoşa kazası"}}},{"arcs":[[[16]],[[-16,-14,17]]],"type":"MultiPolygon","properties":{"srid":"4326","id":"3263729","name":"Paphos","localname":"Πάφος","official_name":"Επαρχία Πάφου - Baf kazası","boundary":"adminstrative","admin_level":"6","note":"","wikidata":"Q59133","wikipedia":"en:Paphos District","timestamp":"2019-01-23 04:55:49","rpath":"3263729,307787,0","alltags":{"ref":"05","name":"Πάφος","name:ar":"بافوس","name:de":"Paphos","name:el":"Πάφος","name:en":"Paphos","name:fr":"Paphos","name:lt":"Pafosas","name:pl":"Pafos","name:ru":"Пафос","name:sl":"Pafos","name:tr":"Baf","alt_name":"Baf","boundary":"administrative","int_name":"Paphos","wikidata":"Q59133","ISO3166-2":"CY-05","wikipedia":"en:Paphos District","admin_level":"6","alt_name:tr":"Gazibaf","official_name":"Επαρχία Πάφου - Baf kazası","official_name:ar":"منطقة بافوس","official_name:de":"Bezirk Paphos","official_name:el":"Επαρχία Πάφου","official_name:en":"Paphos District","official_name:fr":"District de Paphos","official_name:tr":"Baf kazası"}}}]}}}