{"type":"Topology","arcs":[[[1135,2870],[-139,98],[-302,213],[-282,196],[-246,170],[-166,113],[0,300],[0,313],[78,36],[53,54],[133,90],[70,58],[46,20],[27,33],[42,-5],[53,13],[32,35],[41,21],[48,-13],[43,1],[49,-15],[22,19],[73,7],[22,17],[151,1],[102,23],[29,-12],[27,-36],[33,-12],[24,37]],[[1198,4645],[89,-67],[143,2],[101,-49],[46,-133],[69,-225],[123,-212],[7,-131],[103,-118],[51,-39],[221,-20]],[[2151,3653],[-1,-18],[-47,-172],[-29,-19],[-123,5],[-68,-32],[-36,-35],[-129,-209],[-26,-81],[-233,-9],[-111,-125],[-213,-88]],[[7151,1547],[-183,-125],[-266,-180],[-21,-10],[-212,-148],[-167,-120],[-202,-142],[-174,-170],[-213,-210],[-237,-232],[-239,-56],[-319,-74],[-49,-7],[-321,-73],[-73,64],[-15,31],[29,40],[-8,36],[32,35],[-13,120],[11,46],[-43,18],[-64,42],[-58,5],[-59,38],[-39,-8],[-33,27]],[[4215,494],[1,48],[-48,128],[-35,56],[-5,50],[6,54],[-26,100],[-39,87],[-33,46],[-62,60],[-24,124],[-70,8],[-66,-12],[2,378],[2,282],[1,285],[3,16],[0,430],[-4,8],[-1,234],[-140,207],[-46,104],[98,102],[40,69],[46,18],[44,-20],[36,14],[15,165],[42,108],[-31,48],[-1,107],[31,54],[12,110],[2,64],[53,86],[19,60],[4,108],[9,74]],[[4050,4354],[174,65],[188,15]],[[4412,4434],[291,-248],[288,213],[203,149],[249,183]],[[5443,4731],[0,-332],[2,-249],[-34,-143],[52,-304],[-4,-149],[203,-201],[6,-32],[-48,-39],[-19,-52],[17,-27],[64,-50],[87,-265],[83,-137],[18,-61],[70,-129],[31,-21],[72,-6],[84,-141],[-7,-63],[8,-190],[80,-217],[-33,-36],[96,-81],[201,43],[77,12],[215,152],[223,-2],[59,-20],[117,-82],[-12,-362]],[[4929,7673],[-162,-6],[-27,6],[-53,50]],[[4687,7723],[-3,29],[38,17],[19,33],[39,7],[24,53]],[[4804,7862],[67,-3],[88,8],[53,-12]],[[5012,7855],[25,-54],[-36,-73],[-44,-45],[-28,-10]],[[4687,7723],[-85,14],[-17,-20],[-56,-7]],[[4529,7710],[-31,51]],[[4498,7761],[51,50]],[[4549,7811],[53,-6],[72,34],[17,18],[61,16],[52,-11]],[[5067,7656],[-37,-30],[-8,-46],[-80,-15],[-9,27]],[[4933,7592],[7,51],[-11,30]],[[5012,7855],[78,4],[98,-48],[12,-31],[75,-32],[55,7]],[[5330,7755],[17,-26]],[[5347,7729],[-4,-25],[-40,-28],[-34,-48],[-26,-2],[-19,90],[-111,-36],[-46,-24]],[[4529,7710],[-4,-21]],[[4525,7689],[-35,-5],[-73,-63],[-39,26],[-23,-17],[-58,1],[-28,-19]],[[4269,7612],[-54,37]],[[4215,7649],[42,18],[38,45],[49,18],[-2,20]],[[4342,7750],[42,-21],[71,-6],[43,38]],[[4215,7649],[-84,1],[-49,14],[-26,-13],[-104,8],[-26,-32],[-26,41]],[[3900,7668],[20,42]],[[3920,7710],[82,11],[35,-5],[114,31],[48,-19],[46,-1],[94,47]],[[4339,7774],[3,-24]],[[4339,7774],[37,47],[42,6],[38,-33],[30,3],[24,27],[39,-13]],[[5749,7543],[-43,-13],[-5,-47],[-23,-26],[-54,-4],[-15,-36]],[[5609,7417],[-73,4]],[[5536,7421],[22,21],[-19,70],[-23,4],[8,55],[-17,9],[-55,92],[-4,40]],[[5448,7712],[73,-1],[24,28],[94,-16],[5,12],[79,-15]],[[5723,7720],[18,3]],[[5741,7723],[-1,-27],[-60,-13],[-12,-53],[41,-21],[40,-66]],[[4215,494],[-32,23],[-45,66],[-53,-23],[-49,-1],[-45,23],[-32,1],[-49,48],[2,32],[-32,53],[-90,33],[-13,28],[-53,-6],[-5,28],[10,59],[-9,84],[-250,188],[-214,160],[-327,245],[-281,211],[-351,263],[-148,112],[-233,174],[-186,140],[-279,210],[-316,225]],[[2151,3653],[-21,21],[50,185],[98,133],[26,66],[107,88],[110,163],[221,69],[189,12],[96,87],[9,47],[-19,116],[24,91],[171,126],[68,122],[144,166]],[[3424,5145],[270,193],[363,227]],[[4057,5565],[-9,-293],[-4,-198],[-9,-70],[-37,-158],[72,-408],[-20,-84]],[[4269,7612],[-38,-9],[-5,-42],[31,-49],[-49,-18],[-6,-48],[-49,-32]],[[4153,7414],[-90,36],[-48,-5],[-28,-35],[-62,22]],[[3925,7432],[4,27],[-57,73],[9,60],[-25,43],[44,33]],[[2853,6714],[-55,-35],[-81,0],[-63,-46]],[[2654,6633],[-49,131],[15,50],[-29,42],[1,24],[29,37],[-57,27],[-2,16],[-122,90],[23,24],[75,-13],[70,21],[70,52]],[[2678,7134],[31,-38],[38,24],[58,0],[93,-50]],[[2898,7070],[36,-17],[-23,-37],[39,-50],[-8,-51],[37,5],[3,-33],[-23,-75],[-69,-55],[-37,-43]],[[3236,7375],[-1,-2]],[[3235,7373],[-28,-39],[-30,-8],[-46,-37],[-5,-29],[-45,-38]],[[3081,7222],[-8,-31],[-28,-4]],[[3045,7187],[13,28],[-16,42],[-42,-1],[-44,-19],[-64,-3],[21,44],[-36,31]],[[2877,7309],[50,39],[39,14],[55,-20],[28,3],[40,33],[8,33],[50,15],[17,-29],[72,-22]],[[3045,7187],[-46,-8],[-51,-27],[-10,-41],[-40,-41]],[[2678,7134],[47,30],[64,19],[31,76],[57,50]],[[6178,7754],[-42,-20],[-22,23],[-57,0]],[[6057,7757],[20,29],[-10,77],[-32,76]],[[6035,7939],[47,-16],[38,2],[42,-35],[52,-15],[20,-35]],[[6234,7840],[-52,-49],[-4,-37]],[[6367,7673],[-34,-13],[-44,10]],[[6289,7670],[-13,31],[-50,3],[-11,37],[-37,13]],[[6234,7840],[37,-2],[65,19],[54,28],[15,-15],[63,-9],[77,18],[12,-53],[-36,-19],[-34,3],[-14,-69],[-106,-68]],[[5443,4731],[275,143],[47,-17],[377,82],[256,51],[464,92]],[[6862,5082],[32,-144],[-64,-28],[9,-54],[47,-62],[91,-209],[35,-174],[12,-118],[-27,-208],[49,-175],[-7,-67],[-30,-100],[-19,-18],[-12,-91],[31,-138],[23,-35],[-8,-52],[4,-42],[-19,-56],[-133,-59],[-21,-58],[-22,-25],[53,-85],[187,-282],[2,-172],[44,-80],[23,-58],[54,-50],[70,-2],[62,18],[23,-28],[20,25],[49,-15],[48,-54],[23,-8],[108,-84],[68,28],[149,-327],[-267,-176],[-110,-80],[-288,-192]],[[4412,4434],[139,60],[114,218],[32,41],[107,347],[86,279],[56,139],[9,209],[14,81],[118,123],[92,157]],[[5179,6088],[-30,154],[-3,43],[45,86]],[[5191,6371],[73,-63],[9,27]],[[5273,6335],[168,-5],[139,2],[-7,50],[-22,37],[22,11],[-13,100],[33,7],[40,29],[23,-14],[16,-121],[60,-180],[66,-219],[126,-203],[93,-114],[113,10],[363,19],[214,8]],[[6707,5752],[46,-180],[65,-296],[44,-194]],[[5926,7530],[-69,6],[-61,-5],[-47,12]],[[5741,7723],[79,-1],[42,-24],[1,-24],[44,-22]],[[5907,7652],[15,-52],[23,-35],[-19,-35]],[[5448,7712],[-81,-15],[-20,32]],[[5330,7755],[108,73],[43,-6],[58,12],[106,46]],[[5645,7880],[4,-31],[29,-6],[10,-57],[53,-26],[-18,-40]],[[6289,7670],[-35,-24],[-12,-46],[-85,-30],[-63,-13],[-53,10],[4,-37]],[[6045,7530],[-88,-51],[-31,51]],[[5907,7652],[2,26],[48,10],[-4,26],[104,43]],[[5645,7880],[2,36],[28,20],[51,9],[74,-61],[46,3],[54,-33],[108,32],[27,53]],[[1198,4645],[63,91],[4,34],[32,38],[115,91],[124,62],[108,108],[66,25],[99,11],[26,-9],[65,44],[-2,66],[35,40],[8,36],[-52,36],[-3,30],[-29,5],[-2,69],[39,19],[-1,112],[319,70],[-8,39],[-34,67],[22,34],[103,0],[20,15],[102,10],[37,-12],[63,18],[165,-40],[135,-5],[25,13],[-33,42],[16,87],[26,5]],[[2851,5896],[-1,-30],[28,-10],[-6,-51],[30,-27],[100,55],[118,-31],[31,24],[42,-8],[28,41]],[[3221,5859],[1,-26],[-23,-45],[-48,-11],[-23,-63],[16,-86],[-23,-73],[22,-35],[-19,-32],[19,-51],[51,-40],[-7,-56],[237,-196]],[[2851,5896],[49,46],[-102,77],[-42,19],[-61,96],[31,37],[-43,47],[-36,59],[2,41],[29,66],[-22,65],[-35,11],[25,31],[-10,43],[18,99]],[[2853,6714],[20,-28],[37,28],[36,-20],[38,-3],[67,43],[38,-23],[11,-59],[24,-38],[15,-51],[28,12],[32,44],[53,10]],[[3252,6629],[9,-41],[45,0],[-3,-42],[35,-42],[-31,-16],[14,-52],[-37,-137],[-12,-95],[15,-19],[-13,-67],[-27,-15],[-4,-32],[27,-45],[2,-68],[-51,-99]],[[3081,7222],[46,-1],[84,-38],[2,-101]],[[3213,7082],[-25,-13],[3,-42],[-30,-5],[-14,-43],[17,-39],[75,-44],[27,-54],[-77,30],[15,-79],[45,19],[22,-25]],[[3271,6787],[23,-90],[-42,-68]],[[3603,6773],[-49,12],[-56,-40],[-29,-6],[-30,29],[-50,-33],[-39,4],[-40,33],[-39,15]],[[3213,7082],[132,-29],[59,10],[41,-13],[18,22]],[[3463,7072],[58,7],[60,-68],[-56,-41],[3,-44],[51,-83],[53,-20],[-29,-50]],[[4057,5565],[81,88],[-12,147],[45,29],[-32,131],[-13,107]],[[4126,6067],[182,15],[105,26],[149,-37],[-5,50],[-64,39],[136,4],[37,18],[81,-16],[226,-18]],[[4973,6148],[206,-60]],[[3603,6773],[70,-14],[-11,-83],[98,5],[24,-58]],[[3784,6623],[14,-43],[37,-15],[37,-33],[53,16],[33,-27],[4,-61],[47,-48],[-18,-77],[55,-5],[-3,-29],[61,-20],[37,8],[-4,-67],[-65,2],[3,-45],[51,-112]],[[3784,6623],[34,25],[19,32],[38,29],[34,-1],[11,48],[27,27],[88,30],[85,77],[53,6]],[[4173,6896],[10,-108],[23,-58],[66,-84],[61,12],[30,45],[25,14],[46,-17],[38,-112],[-3,-20],[28,-55],[92,-27],[69,-62],[24,-41],[142,-55],[40,-29],[55,-58],[9,-26],[45,-67]],[[4933,7592],[-39,-13],[-45,-44],[-5,-31],[-27,-19]],[[4817,7485],[-21,-55],[-78,-23],[-34,33],[-38,-10]],[[4646,7430],[-24,45],[-36,11],[16,32],[-4,34],[29,98],[-24,18],[-29,-24],[-49,45]],[[4553,7363],[-44,23],[-22,-55],[-50,-12],[-27,75],[-44,-12],[5,-75],[-93,-82],[-57,28],[-78,-21],[-12,40]],[[4131,7272],[12,34],[-49,12],[-5,25],[48,5],[16,66]],[[4646,7430],[-36,-47],[-3,-56],[-43,60],[-11,-24]],[[4173,6896],[-2,41],[26,8],[26,79],[58,21],[-25,22],[33,69],[-22,0],[-34,40],[-44,-36],[-144,99],[20,28]],[[4065,7267],[66,5]],[[4553,7363],[39,-55],[77,-56],[-4,-84],[-78,-61],[41,-75],[-2,-31],[35,-64],[89,-9],[11,-73],[-6,-35],[32,-34],[-6,-36],[75,-62]],[[4856,6688],[10,-32],[35,-28],[44,-10],[-36,-37],[-11,-30],[105,-45],[33,-31],[81,-16],[28,-21],[54,-19],[-8,-48]],[[5536,7421],[-29,-22],[-31,35],[-46,-26],[19,-22],[-35,-30],[-41,17],[-44,-27],[-32,-40]],[[5297,7306],[-62,10],[-53,57]],[[5182,7373],[6,30],[32,0],[-4,60],[24,24],[-9,67],[-33,39],[-31,17],[-67,-13],[-9,45],[-24,14]],[[5297,7306],[-49,-49],[-111,-16],[-17,-95],[-45,-52],[52,-3],[38,-24]],[[5165,7067],[10,-44],[-7,-40],[-38,-19],[-73,-18],[-50,-55],[-23,-9],[-85,-3],[-49,-64],[7,-54],[38,-53],[-39,-20]],[[4817,7485],[112,-23],[49,22],[12,-46],[-25,-9],[-15,-37],[73,-10],[37,25],[46,6],[24,-23],[52,-17]],[[3463,7072],[40,41],[10,40],[23,12],[45,-13],[24,25],[-12,48]],[[3593,7225],[35,41],[33,12],[20,29],[37,-3],[36,26]],[[3754,7330],[24,-28],[26,27],[79,-33],[21,-29],[89,4],[72,-4]],[[3235,7373],[37,-29],[93,-6]],[[3365,7338],[44,-67],[35,10],[25,-27],[124,-29]],[[3925,7432],[-59,46],[-18,-29],[-32,-11],[-11,-35]],[[3805,7403],[-34,40],[-42,1],[-52,33],[-36,-2],[-6,52],[-20,41],[-47,-16],[-27,6]],[[3541,7558],[18,56]],[[3559,7614],[49,17],[24,33],[95,30],[77,10],[72,-2],[44,8]],[[3754,7330],[8,42],[43,31]],[[3365,7338],[31,34],[35,9],[23,31],[-12,27],[76,31],[-11,50],[34,38]],[[3236,7375],[52,31],[39,77],[96,77],[27,5],[74,45],[35,4]],[[5768,6929],[-18,-6],[-42,34],[-1,53],[14,29],[-20,26],[-53,-14],[-45,-29],[-36,38],[-22,-27],[-36,11],[-7,77],[-49,34],[-51,-27],[-23,-30],[12,-29],[-36,-19],[-71,0],[-6,-19],[-113,36]],[[5609,7417],[42,-24],[31,12],[47,-6],[7,-32],[68,0],[36,-43]],[[5840,7324],[7,-43],[-12,-30],[-43,-9],[-28,-22],[3,-40],[-11,-87],[-19,-16],[37,-98],[-6,-50]],[[5813,6760],[-32,-36],[-36,-6],[-18,22],[-117,38],[-79,-19],[-211,29],[-38,23],[-39,-33],[22,-29],[-19,-32],[63,-57],[-37,-79],[-18,-69],[18,-38],[4,-77],[12,-38],[-15,-24]],[[5768,6929],[35,38],[37,-40],[-15,-40],[3,-49],[-23,-45],[8,-33]],[[5813,6760],[-2,-35],[91,-59],[28,-7],[4,78],[79,3]],[[6013,6740],[74,-29],[147,-13]],[[6234,6698],[-29,-34],[-29,13],[-38,-80],[-15,-48],[17,-78],[26,-68],[39,-64],[4,-43],[32,-61],[26,-1],[82,-38],[-1,-22],[50,-55],[28,-44],[13,-141],[168,-116],[100,-66]],[[6414,7449],[-37,20],[-70,-18],[-54,-36],[-55,7]],[[6198,7422],[-27,-31],[-79,38],[-18,24],[-29,77]],[[6367,7673],[91,-20],[-20,-83],[-17,-31],[14,-29],[-21,-61]],[[6133,7217],[-55,-15],[13,-101],[-57,-73],[32,-25],[12,-32],[-13,-41],[3,-48],[-37,-56],[-18,-86]],[[5840,7324],[14,-27],[72,7],[32,-36],[19,34],[34,3],[98,-54],[24,-34]],[[6198,7422],[35,-67],[9,-49],[-21,-22],[-88,-67]],[[6414,7449],[-10,-99],[35,-27],[11,-89],[-27,-39],[8,-43],[45,-19],[-36,-60],[-19,-67],[-21,-14],[15,-81],[-33,-67],[-105,-70],[-27,-5],[-16,-71]]],"transform":{"scale":[0.0026440949334698054,0.0022807016991818765],"translate":[-8.668909,18.968147]},"objects":{"admin_level_4":{"type":"GeometryCollection","geometries":[{"arcs":[[0,1,2]],"type":"Polygon","properties":{"ref":"37","name":"Tindouf","name:ar":"تندوف","name:en":"Tindouf","name:es":"Tinduf","name:fr":"Tindouf","name:ru":"Тиндуф","boundary":"administrative","name:ber":"ⵜⵉⵏⴷⵓⴼ","name:kab":"Tinduf","wikidata":"Q231151","ISO3166-2":"DZ-37","wikipedia":"fr:Wilaya de Tindouf","admin_level":"4","alt_name:en":"Tinduf","long_name:ar":"ولاية تندوف","long_name:en":"Tindouf Province","long_name:fr":"Wilaya de Tindouf","is_in:country":"Algeria","is_in:continent":"Africa","is_in:country_code":"DZ"},"id":1258651},{"arcs":[[3,4,5,6,7]],"type":"Polygon","properties":{"ref":"11","name":"Tamanrasset","name:ar":"تمنراست","name:da":"Tamanrasset","name:de":"Tamanrasset","name:en":"Tamanrasset","name:es":"Tamanrasset","name:fr":"Tamanrasset","name:ru":"Таманрассет","boundary":"administrative","name:ber":"ⵜⴰⵎⴰⵏⵖⴰⵙⴻⵜ","name:kab":"Tamenɣast","old_name":"Fort-Laperrine","wikidata":"Q229467","ISO3166-2":"DZ-11","wikipedia":"fr:Wilaya de Tamanrasset","population":"176637","admin_level":"4","alt_name:fr":"Tamanghasset","long_name:ar":"ولاية تمنراست","long_name:en":"Tamanrasset Province","long_name:fr":"Wilaya de Tamanrasset","is_in:country":"Algeria","is_in:continent":"Africa","population:date":"2008","source:population":"ONS 2008","is_in:country_code":"DZ"},"id":1279667},{"arcs":[[8,9,10,11]],"type":"Polygon","properties":{"ref":"15","name":"Tizi Ouzou","name:ar":"تيزي وزو","name:en":"Tizi Ouzou","name:fa":"تیزی وزو","name:fr":"Tizi Ouzou","name:zh":"提济乌祖","boundary":"administrative","name:ber":"ⵜⵉⵣⵉ ⵓⵣⵣⵓ","name:kab":"Tizi Wezzu","wikidata":"Q233645","ISO3166-2":"DZ-15","wikipedia":"fr:Wilaya de Tizi Ouzou","admin_level":"4","long_name:ar":"ولاية تيزي وزو","long_name:en":"Tizi Ouzou Province","long_name:fr":"Wilaya de Tizi Ouzou","is_in:country":"Algeria","is_in:continent":"Africa","is_in:country_code":"DZ"},"id":1283601},{"arcs":[[12,13,14,15,-10]],"type":"Polygon","properties":{"ref":"35","name":"Boumerdès - بومرداس","is_in":"Algeria","name:ar":"بومرداس","name:en":"Boumerdès","name:fr":"Boumerdès","boundary":"administrative","name:ber":"ⴱⵓⵎⴻⵔⴷⴰⵙ","name:kab":"Bumerdas","wikidata":"Q236752","ISO3166-2":"DZ-35","wikipedia":"fr:Wilaya de Boumerdès","admin_level":"4","old_name:fr":"Rocher Noir","long_name:ar":"ولاية بومرداس","long_name:en":"Boumerdès Province","long_name:fr":"Wilaya de Boumerdès","is_in:country":"Algeria","is_in:continent":"Africa","is_in:country_code":"DZ"},"id":1283608},{"arcs":[[16,17,-12,18,19,20]],"type":"Polygon","properties":{"ref":"06","name":"Béjaïa","name:ar":"بجاية","name:bg":"Бежая","name:en":"Bejaia","name:es":"Bugía","name:fr":"Béjaïa","name:ja":"ベジャイア","name:la":"Saldae","name:lt":"Bedžaja","name:mk":"Беџаја","name:pl":"Bidżaja","name:pt":"Bugia","name:ru":"Беджая","name:zh":"贝贾亚","boundary":"administrative","int_name":"Bejaia","name:ber":"ⴱⴳⴰⵢⴻⵜ","name:kab":"Bgayet","old_name":"Bougie","ISO3166-2":"DZ-06","wikipedia":"fr:Wilaya de Béjaïa","population":"912577","admin_level":"4","postal_code":"06000","alt_name:kab":"Vgayet","long_name:ar":"ولاية بجاية","long_name:en":"Bejaia Province","long_name:fr":"Wilaya de Béjaïa","is_in:country":"Algeria","is_in:continent":"Africa","population:date":"2008","source:population":"ONS","is_in:country_code":"DZ"},"id":1278765},{"arcs":[[21,22,23,24,25,-14]],"type":"Polygon","properties":{"ref":"09","name":"Blida - البليدة","name:ar":"البليدة","name:en":"Blida","name:fa":"البلیده","name:fr":"Blida","name:ja":"블리다","name:ru":"Блида","name:uk":"Бліда","name:zh":"卜利达","boundary":"administrative","name:ber":"ⴱⵍⵉⴷⴰ","name:kab":"Blida","ISO3166-2":"DZ-09","wikipedia":"fr:Wilaya de Blida","admin_level":"4","long_name:ar":"ولاية البليدة","long_name:en":"Blida Province","long_name:fr":"Wilaya de Blida","is_in:country":"Algeria","is_in:continent":"Africa","is_in:country_code":"DZ"},"id":1283683},{"arcs":[[26,27,28,29,-25]],"type":"Polygon","properties":{"ref":"42","name":"Tipaza - تيبازة","name:ar":"تيبازة","name:en":"Tipaza","name:fr":"Tipaza","boundary":"administrative","name:ber":"ⵜⵉⵒⴰⵣⴰ","name:kab":"Tipaza","ISO3166-2":"DZ-42","wikipedia":"fr:Wilaya de Tipaza","admin_level":"4","alt_name:fr":"Tipasa","long_name:ar":"ولاية تيبازة","long_name:en":"Tipaza Province","long_name:fr":"Wilaya de Tipaza","is_in:country":"Algeria","is_in:continent":"Africa","is_in:country_code":"DZ"},"id":1286213},{"arcs":[[-26,-30,30,-15]],"type":"Polygon","properties":{"ref":"16","name":"Alger - الجزائر","capital":"yes","name:af":"Algiers","name:am":"አልጀርስ","name:an":"Alcher","name:ar":"الجزائر","name:az":"Əlcəzair","name:be":"Алжыр","name:bg":"Алжир","name:bn":"আলজিয়ার্স","name:bo":"ཨཱལ་ཇི་ཡར་སི།","name:bs":"Alžir","name:ca":"Alger","name:cs":"Alžír","name:cv":"Алжир","name:cy":"Alger","name:da":"Algier","name:de":"Algier","name:el":"Αλγέρι","name:en":"Algiers","name:eo":"Alĝero","name:es":"Argel","name:et":"Alžiir","name:eu":"Aljer","name:fa":"الجزیره","name:fi":"Alger","name:fo":"Alger","name:fr":"Alger Capital","name:fy":"Algiers","name:gd":"Algiers","name:gl":"Alxer","name:he":"אלג'יר","name:hi":"आल्जेर","name:hr":"Alžir","name:ht":"Alje","name:hu":"Algír","name:hy":"Ալժիր","name:id":"Aljir","name:ie":"Alger","name:io":"Aljer","name:is":"Algeirsborg","name:it":"Algeri","name:ja":"アルジェ","name:jv":"Aljir","name:ka":"ალჟირი","name:kk":"Алжир","name:kn":"ಆಲ್ಜೇರ್","name:ko":"알제","name:ku":"Cezayir","name:ky":"Алжир шаары","name:la":"Algeria","name:lb":"Alger","name:ln":"Alje","name:lt":"Alžyras","name:lv":"Alžīra","name:mk":"Алжир","name:ml":"അൾജിയേഴ്സ്","name:mr":"अल्जीयर्स","name:ms":"Algiers","name:nl":"Algiers","name:nn":"Alger","name:no":"Alger","name:oc":"Argièr","name:os":"Алжир","name:pl":"Algier","name:ps":"الجزيره","name:pt":"Argel","name:ro":"Alger","name:ru":"Алжир","name:sh":"Alžir","name:sk":"Alžír","name:sl":"Alžir","name:so":"Algiers","name:sr":"Алжир","name:su":"Aljir","name:sv":"Alger","name:sw":"Algiers","name:ta":"அல்ஜியர்ஸ்","name:tg":"Алҷазоир","name:th":"แอลเจียร์","name:tl":"Algiers","name:tr":"Cezayir","name:ug":"ئالجىر","name:uk":"Алжир","name:ur":"الجزائر شہر","name:vi":"Algiers","name:vo":"Cäsair","name:wo":"Alse","name:yo":"Algiers","name:zh":"阿爾及爾","name:zu":"Algiers","alt_name":"Al Djazāir","boundary":"administrative","name:arc":"ܓܙܐܐܪ","name:ast":"Arxel","name:ber":"ⴷⵣⴰⵢⴻⵔ","name:ckb":"ئەلجەزیرە","name:diq":"Cezayir","name:ext":"Argel","name:frp":"Alg·èr","name:hif":"Algiers","name:hsb":"Alžěr","name:kab":"Dzayer","name:lad":"Arjel","name:lij":"Algè","name:lmo":"Algeri","name:mdf":"Алжир","name:mrj":"Алжир","name:nah":"Argel","name:nov":"Algiers","name:pap":"Algiers","name:pms":"Algeri","name:pnb":"الجیرز","name:scn":"Algeri","name:sco":"Algiers","name:udm":"Алжир","name:vec":"Algeri","name:vep":"Alžir","name:war":"Algiers","old_name":"Icosium","wikidata":"Q141026","ISO3166-2":"DZ-16","wikipedia":"fr:Wilaya d'Alger","admin_level":"4","name:simple":"Algiers","name:zh-yue":"阿爾及爾","long_name:ar":"ولاية الجزائر","long_name:en":"Algiers Province","long_name:fr":"Wilaya d'Alger","name:bat-smg":"Alžīrs","name:roa-rup":"Alger","is_in:country":"Algeria","name:be-tarask":"Альжыр","is_in:continent":"Africa","name:zh-min-nan":"Algiers","is_in:country_code":"DZ"},"id":157062},{"arcs":[[31,32,33,34,35,36]],"type":"Polygon","properties":{"ref":"43","name":"Mila - ميلة","name:ar":"ميلة","name:en":"Mila","name:fr":"Mila","boundary":"administrative","name:ber":"ⵎⵉⵍⴰ","name:kab":"Mila","wikidata":"Q235723","ISO3166-2":"DZ-43","wikipedia":"fr:Wilaya de Mila","admin_level":"4","long_name:ar":"ولاية ميلة","long_name:en":"Mila Province","long_name:fr":"Wilaya de Mila","is_in:country":"Algeria","is_in:continent":"Africa","is_in:country_code":"DZ"},"id":1273544},{"arcs":[[37,-3,38,39,40,-5]],"type":"Polygon","properties":{"ref":"01","name":"Adrar","name:ar":"أدرار","name:en":"Adrar","name:fr":"Adrar","name:ru":"Адрар","boundary":"administrative","name:ber":"ⴰⴷⵔⴰⵔ","name:kab":"Adrar","wikidata":"Q188166","ISO3166-2":"DZ-01","wikipedia":"fr:Wilaya d'Adrar","population":"399714","admin_level":"4","long_name:ar":"ولاية أدرار","long_name:en":"Adrar Province","long_name:fr":"Wilaya d'Adrar","is_in:country":"Algeria","is_in:continent":"Africa","population:date":"2008","source:population":"ONS","is_in:country_code":"DZ"},"id":1258650},{"arcs":[[41,42,43,-27,-24]],"type":"Polygon","properties":{"ref":"44","name":"Aïn Defla - عين الدفلى","name:ar":"عين الدفلى","name:en":"Aïn Defla","name:fr":"Aïn Defla","boundary":"administrative","name:ber":"ⵄⵉⵏ ⴷⴻⴼⵍⴰ","name:kab":"Ɛin Defla","old_name":"Duperré","ISO3166-2":"DZ-44","wikipedia":"fr:Wilaya de Aïn Defla","admin_level":"4","alt_name:fr":"Aïn-Defla","long_name:ar":"ولاية عين الدفلى","long_name:en":"Aïn Defla Province","long_name:fr":"Wilaya d'Aïn Defla","is_in:country":"Algeria","is_in:continent":"Africa","is_in:country_code":"DZ"},"id":1283678},{"arcs":[[44,45,46,47]],"type":"Polygon","properties":{"ref":"13","name":"Tlemcen","name:ar":"تلمسان","name:en":"Tlemcen","name:fr":"Tlemcen","boundary":"administrative","name:ber":"ⵜⵍⴻⵎⵙⴻⵏ","name:kab":"Tlemsen","wikidata":"Q233632","ISO3166-2":"DZ-13","wikipedia":"fr:Wilaya de Tlemcen","admin_level":"4","alt_name:fr":"Tilimsen","long_name:ar":"ولاية تلمسان","long_name:en":"Tlemcen Province","long_name:fr":"Wilaya de Tlemcen","is_in:country":"Algeria","is_in:continent":"Africa","is_in:country_code":"DZ"},"id":1280702},{"arcs":[[48,49,50,51,52]],"type":"Polygon","properties":{"ref":"31","name":"Oran - وهران","name:ar":"وهران","name:en":"Oran","name:es":"Orán","name:fr":"Oran","name:he":"אוראן","name:hu":"Orán","name:it":"Orano","name:ja":"オラン","name:ko":"오랑","name:lt":"Oranas","name:pt":"Orã","name:ru":"Оран","name:zh":"瓦赫蘭","boundary":"administrative","name:ber":"ⵡⴻⵀⵔⴰⵏ","name:kab":"Wehran","ISO3166-2":"DZ-31","wikipedia":"fr:Wilaya d'Oran","admin_level":"4","long_name:ar":"ولاية وهران","long_name:en":"Oran Province","long_name:fr":"Wilaya d'Oran","is_in:country":"Algeria","is_in:continent":"Africa","is_in:country_code":"DZ"},"id":1259187},{"arcs":[[53,-47,54,-52]],"type":"Polygon","properties":{"ref":"46","name":"Aïn Témouchent - عين تموشنت","name:ar":"عين تموشنت","name:en":"Aïn Témouchent","name:fr":"Aïn Témouchent","boundary":"administrative","name:ber":"ⵄⵉⵏ ⵜⵉⵎⵓⵛⴻⵏⵜ","name:kab":"Ɛin Timucent","ISO3166-2":"DZ-46","wikipedia":"fr:Wilaya d'Aïn Témouchent","admin_level":"4","long_name:ar":"ولاية عين تموشنت","long_name:en":"Aïn Témouchent Province","long_name:fr":"Wilaya d'Aïn Témouchent","is_in:country":"Algeria","is_in:continent":"Africa","is_in:country_code":"DZ"},"id":1259188},{"arcs":[[55,56,57,58]],"type":"Polygon","properties":{"ref":"23","name":"Annaba - عنابة‎","name:ar":"عنابة‎","name:en":"Annaba","name:fr":"Annaba","boundary":"administrative","name:ber":"ⵄⴻⵏⵏⴰⴱⴰ","name:kab":"Ɛennaba","wikidata":"Q213944","ISO3166-2":"DZ-23","wikipedia":"fr:Wilaya d'Annaba","admin_level":"4","long_name:ar":"ولاية عنابة","long_name:en":"Annaba Province","long_name:fr":"Wilaya d'Annaba","is_in:country":"Algeria","is_in:continent":"Africa","is_in:country_code":"DZ"},"id":1455599},{"arcs":[[59,60,-59,61]],"type":"Polygon","properties":{"ref":"36","name":"El Tarf","name:ar":"الطارف","name:en":"El Tarf","name:fr":"El Tarf","boundary":"administrative","name:ber":"ⵟⵟⴻⵔⴼ","name:kab":"Ṭṭerf","wikidata":"Q236788","ISO3166-2":"DZ-36","wikipedia":"fr:Wilaya d'El Tarf","admin_level":"4","long_name:ar":"ولاية الطارف","long_name:en":"El Tarf Province","long_name:fr":"Wilaya d'El Tarf","is_in:country":"Algeria","is_in:continent":"Africa","is_in:country_code":"DZ"},"id":1455600},{"arcs":[[-8,62,63]],"type":"Polygon","properties":{"ref":"33","name":"Illizi","name:ar":"إلـيـزي","name:en":"Illizi","name:fr":"Illizi","name:ru":"Иллизи","boundary":"administrative","name:ber":"ⵉⵍⵍⵉⵣⵉ","name:kab":"Illizi","old_name":"Fort-Polignac","wikidata":"Q233659","ISO3166-2":"DZ-33","wikipedia":"fr:Wilaya d'Illizi","population":"52333","admin_level":"4","long_name:ar":"ولاية إليزي","long_name:en":"Illizi Province","long_name:fr":"Wilaya d'Illizi","is_in:country":"Algeria","is_in:continent":"Africa","population:date":"2008","source:population":"ONS 2008","is_in:country_code":"DZ"},"id":1279816},{"arcs":[[-63,-7,64,65,66,67,68]],"type":"Polygon","properties":{"ref":"30","name":"Ouargla","name:ar":"ورقلة","name:en":"Ouargla","name:fr":"Ouargla","name:ru":"Уаргла","boundary":"administrative","name:ber":"ⵡⴰⵔⴳⵍⴰ","name:kab":"Wergla","wikidata":"Q235709","ISO3166-2":"DZ-30","wikipedia":"fr:Wilaya d'Ouargla","admin_level":"4","alt_name:en":"Warqla","long_name:ar":"ولاية ورقلة","long_name:en":"Ouargla Province","long_name:fr":"Wilaya d'Ouargla","is_in:country":"Algeria","is_in:continent":"Africa","is_in:country_code":"DZ"},"id":1279811},{"arcs":[[69,-37,70,71]],"type":"Polygon","properties":{"ref":"25","name":"Constantine - قسنطينة","name:ar":"قسنطينة","name:de":"Constantine","name:en":"Constantine","name:es":"Constantina","name:fr":"Constantine","name:la":"Cirta","name:lt":"Konstantina","name:ru":"Константина","name:tr":"Konstantin","alt_name":"Qacentina","boundary":"administrative","name:ber":"ⵇⵙⴻⵏⵟⵉⵏⴰ","name:kab":"Qsenṭina","ISO3166-2":"DZ-25","wikipedia":"fr:Wilaya de Constantine","admin_level":"4","alt_name:la":"Constantina","long_name:ar":"ولاية قسنطينة","long_name:en":"Constantine Province","long_name:fr":"Wilaya de Constantine","is_in:country":"Algeria","is_in:continent":"Africa","is_in:country_code":"DZ"},"id":1273368},{"arcs":[[-35,72,-20,73,74]],"type":"Polygon","properties":{"ref":"18","name":"Jijel - جيجل","name:ar":"جيجل","name:en":"Jijel","name:fr":"Jijel","boundary":"administrative","name:ber":"ⵉⵖⵉⵍ ⴳⵉⵍⵉ","name:kab":"Ighil Gili","wikidata":"Q235718","ISO3166-2":"DZ-18","wikipedia":"fr:Wilaya de Jijel","admin_level":"4","alt_name:fr":"Djidjelli","long_name:ar":"ولاية جيجل","long_name:en":"Jijel Province","long_name:fr":"Wilaya de Jijel","is_in:country":"Algeria","is_in:continent":"Africa","is_in:country_code":"DZ"},"id":1278746},{"arcs":[[75,76,-72,77,-56,-61]],"type":"Polygon","properties":{"ref":"24","name":"Guelma","name:ar":"ڤالمة‎","name:en":"Guelma","name:fr":"Guelma","boundary":"administrative","name:ber":"ⴳⴰⵍⵎⴰ","name:kab":"Galma","old_name":"Calama;Malacca","ISO3166-2":"DZ-24","wikipedia":"fr:Wilaya de Guelma","admin_level":"4","long_name:ar":"ولاية ڤالمة","long_name:en":"Guelma Province","long_name:fr":"Wilaya de Guelma","is_in:country":"Algeria","is_in:continent":"Africa","is_in:country_code":"DZ"},"id":1273369},{"arcs":[[-78,-71,-36,-75,78,-57]],"type":"Polygon","properties":{"ref":"21","name":"Skikda - سكيكدة","name:ar":"سكيكدة","name:en":"Skikda","name:fr":"Skikda","name:la":"Rusicade","name:pl":"Sukajkida","name:zh":"斯基克达","boundary":"administrative","name:ber":"ⵙⴽⵉⴽⴷⴰ","name:kab":"Skikda","wikidata":"Q234227","ISO3166-2":"DZ-21","wikipedia":"fr:Wilaya de Skikda","admin_level":"4","old_name:fr":"Philippeville","long_name:ar":"ولاية سكيكدة","long_name:en":"Skikda Province","long_name:fr":"Wilaya de Skikda","is_in:country":"Algeria","is_in:continent":"Africa","is_in:country_code":"DZ"},"id":1273552},{"arcs":[[-2,79,80,81,-39]],"type":"Polygon","properties":{"ref":"08","name":"Béchar","name:ar":"بشار","name:en":"Béchar","name:fr":"Béchar","name:ru":"Бешар","boundary":"administrative","name:ber":"ⴱⵛⴰⵔ","name:kab":"Beccar","old_name":"Colomb-Béchar","wikidata":"Q215467","ISO3166-2":"DZ-08","wikipedia":"fr:Wilaya de Béchar","admin_level":"4","long_name:ar":"ولاية بشار","long_name:en":"Béchar Province","long_name:fr":"Wilaya de Béchar","is_in:country":"Algeria","is_in:continent":"Africa","is_in:country_code":"DZ"},"id":1258647},{"arcs":[[-81,82,-45,83,84]],"type":"Polygon","properties":{"ref":"45","name":"Naâma","name:ar":"النعامة","name:en":"Naâma","name:fr":"Naâma","boundary":"administrative","name:ber":"ⵏⵄⴰⵎⴰ","name:kab":"Nɛama","ISO3166-2":"DZ-45","wikipedia":"fr:Wilaya de Naâma","admin_level":"4","long_name:ar":"ولاية النعامة","long_name:en":"Naâma Province","long_name:fr":"Wilaya de Naâma","is_in:country":"Algeria","is_in:continent":"Africa","is_in:country_code":"DZ"},"id":1258648},{"arcs":[[-84,-48,-54,-51,85,86,87]],"type":"Polygon","properties":{"ref":"22","name":"Sidi Bel Abbès - سيدي بلعباس","name:ar":"سيدي بلعباس","name:en":"Sidi Bel Abbès","name:fr":"Sidi Bel Abbès","boundary":"administrative","name:ber":"ⵙⵉⴷⵉ ⴱⴻⵍ ⵄⴻⴱⴱⴰⵙ","name:kab":"Sidi bel ɛebbas","ISO3166-2":"DZ-22","wikipedia":"fr:Wilaya de Sidi Bel Abbès","admin_level":"4","alt_name:fr":"Sidi-bel-Abbès","long_name:ar":"ولاية سيدي بلعباس","long_name:en":"Sidi Bel Abbès Province","long_name:fr":"Wilaya de Sidi Bel Abbès","is_in:country":"Algeria","is_in:continent":"Africa","is_in:country_code":"DZ"},"id":1259189},{"arcs":[[88,-87,89,90]],"type":"Polygon","properties":{"ref":"20","name":"Saïda - سعيدة","name:ar":"سعيدة","name:en":"Saïda","name:fr":"Saïda","boundary":"administrative","name:ber":"ⵙⵄⵉⴷⴰ","name:kab":"Sɛida","ISO3166-2":"DZ-20","wikipedia":"fr:Wilaya de Saïda","admin_level":"4","long_name:ar":"ولاية سعيدة","long_name:en":"Saïda Province","long_name:fr":"Wilaya de Saïda","is_in:country":"Algeria","is_in:continent":"Africa","is_in:country_code":"DZ"},"id":1281260},{"arcs":[[-65,-6,-41,91,92,93]],"type":"Polygon","properties":{"ref":"47","name":"Ghardaïa","name:ar":"غرداية","name:en":"Ghardaia","name:fr":"Ghardaïa","name:lt":"Gardaja","name:ru":"Гардая","boundary":"administrative","name:ber":"ⵜⴰⵖⵔⴷⴰⵢⵜ","name:kab":"Taɣerdayt","ISO3166-2":"DZ-47","wikipedia":"fr:Wilaya de Ghardaïa","admin_level":"4","long_name:ar":"ولاية غرداية","long_name:en":"Ghardaia Province","long_name:fr":"Wilaya de Ghardaïa","is_in:country":"Algeria","is_in:continent":"Africa","is_in:country_code":"DZ"},"id":1279666},{"arcs":[[-40,-82,-85,-88,-89,94,95,-92]],"type":"Polygon","properties":{"ref":"32","name":"El Bayadh","name:ar":"البيض","name:en":"El Bayadh","name:fr":"El Bayadh","name:ru":"Эль-Баяд","boundary":"administrative","name:ber":"ⵍⴱⴰⵢⴻⴹ","name:kab":"Lbayeḍ","old_name":"Géryville","wikidata":"Q235703","ISO3166-2":"DZ-32","wikipedia":"fr:Wilaya d'El Bayadh","admin_level":"4","long_name:ar":"ولاية البيض","long_name:en":"El Bayadh Province","long_name:fr":"Wilaya d'El Bayadh","is_in:country":"Algeria","is_in:continent":"Africa","is_in:country_code":"DZ"},"id":1258649},{"arcs":[[-93,-96,96,97]],"type":"Polygon","properties":{"ref":"03","name":"Laghouat - الأغواط","name:ar":"الأغواط","name:en":"Laghouat","name:fr":"Laghouat","boundary":"administrative","name:ber":"ⵍⴻⵖⵡⴰⵟ","name:kab":"Leɣwaṭ","wikidata":"Q231748","ISO3166-2":"DZ-03","wikipedia":"fr:Wilaya de Laghouat","admin_level":"4","long_name:ar":"ولاية الأغواط","long_name:en":"Laghouat Province","long_name:fr":"Wilaya de Laghouat","is_in:country":"Algeria","is_in:continent":"Africa","is_in:country_code":"DZ"},"id":1280081},{"arcs":[[98,99,100,-22,-13,-9,-18]],"type":"Polygon","properties":{"ref":"10","name":"Bouira - البويرة","name:ar":"البويرة","name:en":"Bouira","name:fr":"Bouira","name:tr":"Buira","boundary":"administrative","name:ber":"ⵜⵓⴱⵉⵔⴻⵜ","name:kab":"Tubiret","ISO3166-2":"DZ-10","wikipedia":"fr:Wilaya de Bouira","admin_level":"4","old_name:fr":"Coligny","old_name:tr":"Bordj Hamza","alt_name:kab":"Tubiret","long_name:ar":"ولاية البويرة","long_name:en":"Bouira Province","long_name:fr":"Wilaya de Bouira","is_in:country":"Algeria","is_in:continent":"Africa","is_in:country_code":"DZ"},"id":1283093},{"arcs":[[101,102,-42,-23,-101,103]],"type":"Polygon","properties":{"ref":"26","name":"Médéa - المدية","name:ar":"المدية","name:en":"Médéa","name:fr":"Médéa","boundary":"administrative","name:ber":"ⵎⴷⵉⵢⵢⴰ","name:kab":"Mdiyya","ISO3166-2":"DZ-26","wikipedia":"fr:Wilaya de Médéa","admin_level":"4","long_name:ar":"ولاية المدية","long_name:en":"Médéa Province","long_name:fr":"Wilaya de Médéa","is_in:country":"Algeria","is_in:continent":"Africa","is_in:country_code":"DZ"},"id":1282111},{"arcs":[[-66,-94,-98,104,105,-102,106,107]],"type":"Polygon","properties":{"ref":"17","name":"Djelfa","name:ar":"الجلفة","name:en":"Djelfa","name:fr":"Djelfa","boundary":"administrative","name:ber":"ⴵⴻⵍⴼⴰ","name:kab":"Ǧelfa","ISO3166-2":"DZ-17","wikipedia":"fr:Wilaya de Djelfa","admin_level":"4","long_name:ar":"ولاية الجلفة","long_name:en":"Djelfa Province","long_name:fr":"Wilaya de Djelfa","is_in:country":"Algeria","is_in:continent":"Africa","is_in:country_code":"DZ"},"id":1280073},{"arcs":[[108,109,110,-21,-73,-34]],"type":"Polygon","properties":{"ref":"19","name":"Sétif - سطيف‎","name:ar":"سطيف‎","name:en":"Sétif","name:fr":"Sétif","boundary":"administrative","name:ber":"ⵙⵟⵉⴼ","name:kab":"Sṭif","wikidata":"Q237164","ISO3166-2":"DZ-19","wikipedia":"fr:Wilaya de Sétif","admin_level":"4","long_name:ar":"ولاية سطيف","long_name:en":"Sétif Province","long_name:fr":"Wilaya de Sétif","is_in:country":"Algeria","is_in:continent":"Africa","is_in:country_code":"DZ"},"id":1278747},{"arcs":[[111,112,-107,-104,-100,113,-110]],"type":"Polygon","properties":{"ref":"28","name":"M'Sila - المسيلة","name:ar":"المسيلة","name:en":"M'Sila","name:fr":"M'Sila","website":"http://www.msila-dz.org/","alt_name":"Msila","boundary":"administrative","name:ber":"ⵎⵙⵉⵍⴰ","name:kab":"Msila","ISO3166-2":"DZ-28","wikipedia":"fr:Wilaya de M'Sila","admin_level":"4","long_name:ar":"ولاية المسيلة","long_name:en":"M'Sila Province","long_name:fr":"Wilaya de M'Sila","is_in:country":"Algeria","is_in:continent":"Africa","is_in:country_code":"DZ"},"id":1278767},{"arcs":[[-114,-99,-17,-111]],"type":"Polygon","properties":{"ref":"34","name":"Bordj Bou Arreridj‎ - برج بوعريريج‎","name:ar":"برج بوعريريج‎","name:en":"Bordj Bou Arreridj‎","name:fr":"Bordj Bou Arreridj‎","boundary":"administrative","name:ber":"ⴱⵓⵔⴵ ⴱⵓ ⵄⵔⵉⵔⵉⴵ","name:kab":"Burǧ bu ɛririǧ","ISO3166-2":"DZ-34","wikipedia":"fr:Wilaya de Bordj Bou Arreridj‎","admin_level":"4","long_name:ar":"ولاية برج بوعريريج","long_name:en":"Bordj Bou Arreridj‎ Province","long_name:fr":"Wilaya de Bordj Bou Arreridj","is_in:country":"Algeria","is_in:continent":"Africa","is_in:country_code":"DZ"},"id":1278766},{"arcs":[[-97,-95,-91,114,115,116,-105]],"type":"Polygon","properties":{"ref":"14","name":"Tiaret","name:ar":"تيارت‎","name:en":"Tiaret","name:fr":"Tiaret","boundary":"administrative","name:ber":"ⵜⵢⴰⵔⴻⵜ","name:kab":"Tyaret","wikidata":"Q233258","ISO3166-2":"DZ-14","wikipedia":"fr:Wilaya de Tiaret","admin_level":"4","long_name:ar":"ولاية تيارت","long_name:en":"Tiaret Province","long_name:fr":"Wilaya de Tiaret","is_in:country":"Algeria","is_in:continent":"Africa","is_in:country_code":"DZ"},"id":1281404},{"arcs":[[-90,-86,-50,117,118,-115]],"type":"Polygon","properties":{"ref":"29","name":"Mascara - معسكر","name:ar":"معسكر","name:en":"Mascara","name:fr":"Mascara","boundary":"administrative","name:ber":"ⵎⵄⴻⵙⴽⴻⵔ","name:kab":"Mɛesker","ISO3166-2":"DZ-29","wikipedia":"fr:Wilaya de Mascara","admin_level":"4","long_name:ar":"ولاية معسكر","long_name:en":"Mascara Province","long_name:fr":"Wilaya de Mascara","is_in:country":"Algeria","is_in:continent":"Africa","is_in:country_code":"DZ"},"id":1259190},{"arcs":[[119,120,121,122,-28,-44]],"type":"Polygon","properties":{"ref":"02","name":"Chlef - الشلف‎","name:ar":"الشلف","name:bg":"Шлеф","name:de":"Ech Cheliff","name:en":"Chlef","name:fr":"Chlef","name:la":"Castellum Tingitanum","name:lt":"Šelifas","name:pl":"Szalif","name:sv":"Ech Cheliff","name:zh":"谢利夫","boundary":"administrative","name:ber":"ⵛⵛⵍⴻⴼ","name:kab":"Cclef","old_name":"Orléansville;Al-Asnam","wikidata":"Q231752","ISO3166-2":"DZ-02","wikipedia":"fr:Wilaya de Chlef","admin_level":"4","long_name:ar":"ولاية الشلف","long_name:en":"Chlef Province","long_name:fr":"Wilaya de Chlef","is_in:country":"Algeria","is_in:continent":"Africa","is_in:country_code":"DZ"},"id":1283740},{"arcs":[[-106,-117,123,-120,-43,-103]],"type":"Polygon","properties":{"ref":"38","name":"Tissemsilt - تسمسيلت","name:ar":"تسمسيلت","name:en":"Tissemsilt","name:fr":"Tissemsilt","boundary":"administrative","name:ber":"ⵜⵉⵙⴻⵎⵙⵉⵍⵜ","name:kab":"Tisemsilt","ISO3166-2":"DZ-38","wikipedia":"fr:Wilaya de Tissemsilt","admin_level":"4","long_name:ar":"ولاية تيسمسيلت","long_name:en":"Tissemsilt Province","long_name:fr":"Wilaya de Tissemsilt","is_in:country":"Algeria","is_in:continent":"Africa","is_in:country_code":"DZ"},"id":1282090},{"arcs":[[-116,-119,124,-121,-124]],"type":"Polygon","properties":{"ref":"48","name":"Relizane - غليزان","name:ar":"غليزان","name:en":"Relizane","name:fr":"Relizane","boundary":"administrative","name:ber":"ⵉⵖⵉⵍ ⵉⵣⴰⵏ","name:kab":"Iɣil n Yizan","wikidata":"Q236758","ISO3166-2":"DZ-48","wikipedia":"fr:Wilaya de Relizane","admin_level":"4","long_name:ar":"ولاية غليزان","long_name:en":"Relizane Province","long_name:fr":"Wilaya de Relizane","is_in:country":"Algeria","is_in:continent":"Africa","is_in:country_code":"DZ"},"id":1282091},{"arcs":[[-125,-118,-49,125,-122]],"type":"Polygon","properties":{"ref":"27","name":"Mostaganem - مستغانم","name:ar":"مستغانم","name:en":"Mostaganem","name:es":"Mostaganem","name:fa":"مستغانم","name:fr":"Mostaganem","name:lt":"Mostaganemas","name:pl":"Mustaghanam","name:zh":"穆斯塔加奈姆","boundary":"administrative","loc_name":"Mestghalem","name:ber":"ⵎⵓⵙⵜⵖⴰⵏⴻⵎ","name:kab":"Mustɣanem","ISO3166-2":"DZ-27","wikipedia":"fr:Wilaya de Mostaganem","admin_level":"4","long_name:ar":"ولاية مستغانم","long_name:en":"Mostaganem Province","long_name:fr":"Wilaya de Mostaganem","is_in:country":"Algeria","is_in:continent":"Africa","is_in:country_code":"DZ"},"id":1259191},{"arcs":[[126,-112,-109,-33,127,128]],"type":"Polygon","properties":{"ref":"05","name":"Batna","name:ar":"باتنة","name:en":"Batna","name:fr":"Batna","boundary":"administrative","name:ber":"ⴱⴰⵜⵏⴰ","name:kab":"Batna","wikidata":"Q215452","ISO3166-2":"DZ-05","wikipedia":"fr:Wilaya de Batna","admin_level":"4","long_name:ar":"ولاية باتنة","long_name:en":"Batna Province","long_name:fr":"Wilaya de Batna","is_in:country":"Algeria","is_in:continent":"Africa","is_in:country_code":"DZ"},"id":1278748},{"arcs":[[129,-67,-108,-113,-127,130]],"type":"Polygon","properties":{"ref":"07","name":"Biskra - بسكرة","name:ar":"بسكرة","name:en":"Biskra","name:fr":"Biskra","boundary":"administrative","int_name":"Biskra","name:ber":"ⴱⴻⵙⴽⵔⴰ","name:kab":"Beskra","ISO3166-2":"DZ-07","wikipedia":"fr:Wilaya de Biskra","admin_level":"4","long_name:ar":"ولاية بسكرة","long_name:en":"Biskra Province","long_name:fr":"Wilaya de Biskra","is_in:country":"Algeria","is_in:continent":"Africa","is_in:country_code":"DZ"},"id":1280072},{"arcs":[[-130,131,132,133,-68]],"type":"Polygon","properties":{"ref":"39","name":"El Oued","name:ar":"الوادي","name:en":"El Oued","name:fr":"El Oued","boundary":"administrative","name:ber":"ⵍⵡⴰⴷ","name:kab":"Lwad","wikidata":"Q233651","ISO3166-2":"DZ-39","wikipedia":"fr:Wilaya d'El Oued","admin_level":"4","alt_name:fr":"El-Oued","long_name:ar":"ولاية الوادي","long_name:en":"El Oued Province","long_name:fr":"Wilaya d'El Oued","is_in:country":"Algeria","is_in:continent":"Africa","is_in:country_code":"DZ"},"id":1280071},{"arcs":[[134,135,-76,-60,136]],"type":"Polygon","properties":{"ref":"41","name":"Souk Ahras - سوق أهراس","name:ar":"سوق أهراس","name:en":"Souk Ahras","name:fr":"Souk Ahras","boundary":"administrative","name:ber":"ⵙⵓⵇⴻⵀⵔⴰⵙ","name:kab":"Suqehras","ISO3166-2":"DZ-41","wikipedia":"fr:Wilaya de Souk Ahras","admin_level":"4","long_name:ar":"ولاية سوق اهراس","long_name:en":"Souk Ahras Province","long_name:fr":"Wilaya de Souk Ahras","is_in:country":"Algeria","is_in:continent":"Africa","is_in:country_code":"DZ"},"id":1283457},{"arcs":[[137,-132,-131,-129,138]],"type":"Polygon","properties":{"ref":"40","name":"Khenchela - خنشلة","name:ar":"خنشلة","name:en":"Khenchela","name:fr":"Khenchela","alt_name":"Kenchela","boundary":"administrative","name:ber":"ⵅⴻⵏⵛⵍⴰ","name:kab":"Xencla","old_name":"Mascula","wikidata":"Q213950","ISO3166-2":"DZ-40","wikipedia":"fr:Wilaya de Khenchela","admin_level":"4","long_name:ar":"ولاية خنشلة","long_name:en":"Khenchela Province","long_name:fr":"Wilaya de Khenchela","is_in:country":"Algeria","is_in:continent":"Africa","is_in:country_code":"DZ"},"id":1280466},{"arcs":[[-139,-128,-32,-70,-77,-136,139]],"type":"Polygon","properties":{"ref":"04","name":"Oum El Bouaghi - أم الـبـواقي","name:ar":"أم الـبـواقي","name:en":"Oum El Bouaghi","name:fr":"Oum El Bouaghi","name:la":"Makumidas","boundary":"administrative","name:ber":"ⵓⵎⵍⴻⴱⵡⴰⵖⵉ","name:kab":"Umlebwaɣi","wikidata":"Q235705","ISO3166-2":"DZ-04","wikipedia":"fr:Wilaya d'Oum El Bouaghi","admin_level":"4","old_name:fr":"Canrobert","long_name:ar":"ولاية أم البواقي","long_name:en":"Oum El Bouaghi Province","long_name:fr":"Wilaya d'Oum El Bouaghi","is_in:country":"Algeria","is_in:continent":"Africa","is_in:country_code":"DZ"},"id":1278749},{"arcs":[[-133,-138,-140,-135,140]],"type":"Polygon","properties":{"ref":"12","name":"Tébessa - تبسة","name:ar":"تبسة","name:en":"Tébessa","name:fa":"تبسه","name:fr":"Tébessa","name:la":"Theveste","name:pl":"Tibissa","name:ru":"Тебесса","name:zh":"泰贝萨","boundary":"administrative","name:ber":"ⵜⴱⴻⵙⴰ","name:kab":"Tbesa","ISO3166-2":"DZ-12","wikipedia":"fr:Wilaya de Tébessa","admin_level":"4","alt_name:fr":"Tbessa","long_name:ar":"ولاية تبسة","long_name:en":"Tébessa Province","long_name:fr":"Wilaya de Tébessa","is_in:country":"Algeria","is_in:continent":"Africa","is_in:country_code":"DZ"},"id":1280465}]}}}