{"transform":{"scale":[0.0012410203720372047,0.000983407130713072],"translate":[24.706388999999998,21.9999975]},"objects":{"admin_level_4":{"geocoding":{"license":"ODbL (see http://www.openstreetmap.org/copyright)","generator":{"package":"fences-builder","author":{"name":"Mapzen"},"version":"0.1.2"},"creation_date":"2016-01-09"},"geometries":[{"properties":{"admin_level":"4","name:ru":"мухафаза Южный Синай","name:en":"South Sinai Governorate","name:hu":"Dél-Sínai kormányzóság","name":"جنوب سيناء","boundary":"administrative","ISO3166-2":"EG-JS","name:de":"Südsinai"},"id":3060793,"arcs":[[-1,-2,-3,-4]],"osm_type":"relation","name":"جنوب سيناء","type":"Polygon"},{"properties":{"admin_level":"4","name:ru":"мухафаза Файюм","name:en":"Faiyum Governorate","name:hu":"el-Fajjúm kormányzóság","name":"محافظة الفيوم","boundary":"administrative","ISO3166-2":"EG-FYM","name:de":"Faiyum"},"id":3726124,"arcs":[[-5,-6]],"osm_type":"relation","name":"محافظة الفيوم","type":"Polygon"},{"properties":{"admin_level":"4","name:ru":"мухафаза Александрия","name:en":"Alexandria Governorate","name:hu":"Alexandria kormányzóság","name":"الإسكندرية","boundary":"administrative","ISO3166-2":"EG-ALX","name:de":"Alexandria"},"id":3061846,"arcs":[[-7,-8,-9]],"osm_type":"relation","name":"الإسكندرية","type":"Polygon"},{"properties":{"admin_level":"4","name:ru":"мухафаза Эль-Минья","name:en":"Minya Governate","name:hu":"el-Minja kormányzóság","name":"محافظة الفيوم","boundary":"administrative","ISO3166-2":"EG-MN","name:de":"Minya"},"id":3726175,"arcs":[[9,10,11,12,13]],"osm_type":"relation","name":"محافظة الفيوم","type":"Polygon"},{"properties":{"admin_level":"4","name:ru":"мухафаза Асьют","name:en":"Asyut Governorate","name:hu":"Assziut kormányzóság","name":"أسيوط","boundary":"administrative","ISO3166-2":"EG-AST","name:de":"Asyut"},"id":3726184,"arcs":[[-15,-16,-17,-10]],"osm_type":"relation","name":"أسيوط","type":"Polygon"},{"properties":{"admin_level":"4","name:ru":"мухафаза Сохаг","name:en":"Sohag Governorate","name:hu":"Szauhág kormányzóság","name":"سوهاج‎","boundary":"administrative","ISO3166-2":"EG-SHG","name:de":"Sohag"},"id":3726186,"arcs":[[-18,-19,-20,15]],"osm_type":"relation","name":"سوهاج‎","type":"Polygon"},{"properties":{"admin_level":"4","name:ru":"мухафаза Северный Синай","name:en":"North Sinai Governorate","name:hu":"Észak-Sínai kormányzóság","name":"شمال سيناء","boundary":"administrative","ISO3166-2":"EG-SIN","name:de":"Nordsinai"},"id":3060792,"arcs":[[-21,3,-22,-23,-24]],"osm_type":"relation","name":"شمال سيناء","type":"Polygon"},{"properties":{"admin_level":"4","name:ru":"мухафаза Суэц","name:en":"Suez Governorate","name:hu":"Szuez kormányzóság","name":"الغربية","boundary":"administrative","ISO3166-2":"EG-SUZ","name:de":"Suez"},"id":3062185,"arcs":[[21,2,-25,-26,-27,-28,-29]],"osm_type":"relation","name":"الغربية","type":"Polygon"},{"properties":{"admin_level":"4","name:ru":"мухафаза Кена","name:en":"Qena Governorate","name:hu":"Kina kormányzóság","name":"محافظة قنا","boundary":"administrative","ISO3166-2":"EG-KN","name:de":"Qena"},"id":3726189,"arcs":[[-30,-31,-32,-33,-34,18]],"osm_type":"relation","name":"محافظة قنا","type":"Polygon"},{"properties":{"admin_level":"4","name:ru":"мухафаза Луксор","name:en":"Luxor Governate","name:hu":"Luxor kormányzóság","wikipedia":"de:Gouvernement al-Uqsur","name:ar":"‏محافظة الأقصر‎","name":"الأقصر / Luxor","boundary":"administrative","fixme":"please","ISO3166-2":"EG-LX","name:de":"Luxor"},"id":3726211,"arcs":[[34,32]],"osm_type":"relation","name":"الأقصر / Luxor","type":"Polygon"},{"properties":{"admin_level":"4","name:ru":"мухафаза Новая Долина","name:en":"New Valley Governorate","name:hu":"Új völgy kormányzóság","name":"الوادي الجديد","boundary":"administrative","ISO3166-2":"EG-WAD","name:de":"Neues Tal"},"id":3061827,"arcs":[[33,-35,31,-36,-37,-38,-39,-11,16,19]],"osm_type":"relation","name":"الوادي الجديد","type":"Polygon"},{"properties":{"admin_level":"4","name:ru":"мухафаза Минуфия","name:en":"Monufia Governorate","name:hu":"el-Minúfijja kormányzóság","ISO3166-2":"EG-MNF","name":"محافظة المنوفية","boundary":"administrative","wikidata":"Q30786","name:de":"al-Minufiyya"},"id":3824207,"arcs":[[39,40,41,42]],"osm_type":"relation","name":"محافظة المنوفية","type":"Polygon"},{"properties":{"admin_level":"4","name:ru":"мухафаза Бени-Суэйф","name:en":"Beni Suef Governorate","name:hu":"Bani Szuvajf kormányzóság","name":"‏محافظة بنى سويف","boundary":"administrative","ISO3166-2":"EG-BNS","name:de":"Beni Suef"},"id":3726170,"arcs":[[-44,-13,-45,4,-46,25]],"osm_type":"relation","name":"‏محافظة بنى سويف","type":"Polygon"},{"properties":{"admin_level":"4","name:ru":"мухафаза Гиза","name:en":"Giza Governorate","name:hu":"Gíza kormányzóság","ISO3166-2":"EG-GZ","name":"محافظة الجيزة‎","boundary":"administrative","wikidata":"Q30832","name:de":"al-Dschiza"},"id":3824206,"arcs":[[45,5,44,-12,38,46,47,-40,48,49,26]],"osm_type":"relation","name":"محافظة الجيزة‎","type":"Polygon"},{"properties":{"admin_level":"4","name:ru":"мухафаза Бухейра","name:en":"Beheira Governorate","name:hu":"el-Buhajra kormányzóság","ISO3166-2":"EG-BH","name":"‏البحيرة‎","boundary":"administrative","wikidata":"Q30630","name:de":"al-Buhaira"},"id":3824513,"arcs":[[-48,50,6,51,52,53,-41]],"osm_type":"relation","name":"‏البحيرة‎","type":"Polygon"},{"properties":{"admin_level":"4","name:ru":"мухафаза Матрух","name:en":"Matrouh Governorate","name:hu":"Matrúh kormányzóság","name":"مطروح","boundary":"administrative","ISO3166-2":"EG-MT","name:de":"Matruh"},"id":3061826,"arcs":[[-51,-47,37,-55,7]],"osm_type":"relation","name":"مطروح","type":"Polygon"},{"properties":{"admin_level":"4","name:ru":"мухафаза Асуан","name:en":"Aswan Governorate","name:hu":"Asszuán kormányzóság","name":"محافظة أسوان","boundary":"administrative","ISO3166-2":"EG-ASN","name:de":"Assuan"},"id":3061757,"arcs":[[55,35,30,56]],"osm_type":"relation","name":"محافظة أسوان","type":"Polygon"},{"properties":{"admin_level":"4","name:ru":"мухафаза Каир","name:en":"Cairo Governorate","name:hu":"Kairó kormányzóság","name":"القاهرة","boundary":"administrative","ISO3166-2":"EG-C","name:de":"Gouvernement al-Qahira"},"id":4103336,"arcs":[[27,-50,-58,-59,-60]],"osm_type":"relation","name":"القاهرة","type":"Polygon"},{"properties":{"admin_level":"4","name:ru":"мухафаза Кафр-эш-Шейх","name:en":"Kafr el-Sheikh Governorate","name:hu":"Kafr es-Sajh kormányzóság","name":"كفر الشيخ","boundary":"administrative","ISO3166-2":"EG-KFS","name:de":"Gouvernement Kafr asch-Schaich"},"id":4103405,"arcs":[[-61,-62,-53,-63]],"osm_type":"relation","name":"كفر الشيخ","type":"Polygon"},{"properties":{"admin_level":"4","name:ru":"мухафаза Кальюбия","name:en":"Qalyubia Governorate","name:hu":"el-Kaljúbijja kormányzóság","name":"القليوبية","ISO3166-2":"EG-KB","boundary":"administrative"},"id":4103337,"arcs":[[-49,-43,63,64,57]],"osm_type":"relation","name":"القليوبية","type":"Polygon"},{"properties":{"admin_level":"4","name:ru":"мухафаза Исмаилия","name:en":"Ismailia Governorate","name:hu":"el-Iszmáilijja kormányzóság","name":"الإسماعيلية","boundary":"administrative","ISO3166-2":"EG-IS","name:de":"Ismailiya"},"id":3062184,"arcs":[[28,59,65,66,22]],"osm_type":"relation","name":"الإسماعيلية","type":"Polygon"},{"properties":{"admin_level":"4","name:ru":"мухафаза Гарбия","name:en":"Gharbiyya Governorate","name:hu":"Nyugati kormányzóság","int_name":"Al-Gharbiyya","name":"‏محافظة الغربي","boundary":"administrative","ISO3166-2":"EG-GH","wikidata":"Q30835","name:de":"Gouvernement al-Gharbiyya"},"id":3584607,"arcs":[[-68,-42,-54,61]],"osm_type":"relation","name":"‏محافظة الغربي","type":"Polygon"},{"properties":{"admin_level":"4","name:ru":"мухафаза Дакахлия","name:en":"Dakahlia Governorate","name:hu":"ed-Dakahlijja kormányzóság","name":"الدقهلية","boundary":"administrative","ISO3166-2":"EG-DK","name:de":"Gouvernement ad-Daqahliyya"},"id":4103403,"arcs":[[68,69,-64,67,60,70,71,72]],"osm_type":"relation","name":"الدقهلية","type":"Polygon"},{"properties":{"admin_level":"4","name:ru":"мухафаза Порт-Саид","name:en":"Port Said Governorate","name:hu":"Port Szaíd kormányzóság","name":"‏محافظة بورسعيد","ISO3166-2":"EG-PTS","boundary":"administrative"},"id":4103406,"arcs":[[-67,73,-69,74,23]],"osm_type":"relation","name":"‏محافظة بورسعيد","type":"Polygon"},{"properties":{"admin_level":"4","name:ru":"мухафаза Шаркия","name:en":"Al Sharqia Governorate","name:hu":"Keleti kormányzóság","name":"الشرقية‎‎","ISO3166-2":"EG-SHR","boundary":"administrative"},"id":4103407,"arcs":[[-74,-66,58,-65,-70]],"osm_type":"relation","name":"الشرقية‎‎","type":"Polygon"},{"properties":{"admin_level":"4","name:ru":"мухафаза Думьят","name:en":"Damietta Governorate","name:hu":"Damietta kormányzóság","name":"دمياط‎‎","ISO3166-2":"EG-DT","boundary":"administrative"},"id":4103404,"arcs":[[-72,75]],"osm_type":"relation","name":"دمياط‎‎","type":"Polygon"},{"properties":{"admin_level":"4","name:ru":"мухафаза Красное Море","name:en":"Red Sea Governorate","name:hu":"Vörös-tenger kormányzóság","name":"البحر الأحممر","boundary":"administrative","ISO3166-2":"EG-BA","name:de":"Rotes Meer"},"id":3061758,"arcs":[[[76]],[[-57,29,17,14,-14,43,24,1,77]]],"osm_type":"relation","name":"البحر الأحممر","type":"MultiPolygon"}],"type":"GeometryCollection"}},"arcs":[[[7703,5479],[149,227],[55,104],[-34,77],[-7,53],[-5,31],[-4,29],[0,27],[3,25],[2,27],[-2,13],[1,11],[1,12],[2,12],[2,7],[4,8],[5,7],[9,18],[4,12],[6,20],[8,24],[8,35],[10,40],[3,46],[5,22],[0,17],[13,39],[17,54],[32,65],[17,49],[5,33],[16,38],[6,29],[3,39],[6,56],[19,56],[1,36],[7,20],[1,21],[11,39],[-4,42],[2,23],[22,48],[5,55],[-4,47],[5,30],[6,23],[15,32],[17,57],[8,54],[4,24],[17,44],[17,35],[9,29],[7,8],[4,11],[9,32],[-1,6],[11,22],[-14,35],[-1,3],[0,2],[1,1],[-5,15],[-2,4],[-8,15],[-5,17],[-2,15]],[[6520,7259],[164,-402],[99,-214],[314,-446],[606,-718]],[[6548,8057],[-26,-26],[-58,-40],[-78,-53],[-72,-32],[-2,-56],[15,-119],[68,-166],[125,-306]],[[8195,7686],[-28,2],[-49,-11],[-72,-15],[-178,20],[-110,40],[-493,243],[-197,41],[-257,29],[-263,22]],[[4145,7212],[180,-68],[182,0],[2,-65],[114,12],[344,150],[5,92],[96,12],[5,68],[90,103],[7,45]],[[5170,7561],[-80,285],[-263,-16],[-108,-75],[-574,-543]],[[3957,8501],[87,107],[214,116],[-45,121],[22,30],[-75,144],[36,27],[82,216],[63,90],[-5,87],[-3,313]],[[3840,9391],[42,-109],[55,-140],[9,-241],[4,-159],[3,-132],[4,-109]],[[4333,9752],[-87,-64],[-15,-12],[-43,-38],[-135,-109],[-61,-55],[-152,-83]],[[6404,6002],[-189,7],[-37,-14],[-207,-47],[-388,-156],[-412,-30],[-193,0],[-53,-49],[-86,5],[-33,20],[0,61],[-13,28]],[[4793,5827],[-1635,10]],[[3158,5837],[159,244],[335,154],[269,209],[10,8],[141,309],[16,156]],[[4088,6917],[47,-20],[785,-17],[59,-40],[122,-8],[149,-288],[58,-46],[116,-67],[174,-47],[204,-9]],[[5802,6375],[21,-1],[87,11],[132,42],[50,0],[44,-18],[69,-44],[76,-95],[59,-90],[64,-178]],[[6419,5456],[58,138],[7,57],[-47,243],[-33,108]],[[5310,4976],[98,78],[388,88],[211,-74],[72,65],[294,332],[46,-9]],[[4793,5827],[5,-129],[77,-173],[114,-134],[146,-84],[69,-96],[65,-159],[41,-76]],[[6521,4881],[-5,170],[-101,357],[4,48]],[[5821,4285],[124,55],[51,21],[110,-98],[415,618]],[[5310,4976],[24,-41],[38,-51],[66,-80],[51,-43],[50,-73],[139,-196],[47,-82],[44,-58],[52,-67]],[[8195,7686],[-2,12],[-1,9],[-5,19],[1,1],[2,5],[3,11],[3,14],[1,17],[0,3],[1,1],[-3,0],[-1,1],[0,3],[-2,4],[-1,2],[-1,2],[0,10],[-3,-1],[-1,1],[-2,6],[0,4],[-4,6],[-2,13],[-2,22],[-1,11],[-1,9],[-2,23],[-3,16],[-3,4],[-3,2],[2,1],[-1,1],[-1,-1],[-1,3],[2,1],[0,2],[-4,2],[-1,1],[-1,7],[3,1],[0,3],[-1,2],[-1,-1],[-4,1],[-1,1],[-1,5],[1,3],[-1,2],[-1,8],[0,4],[-2,5],[-1,0],[0,-1],[-1,-1],[-1,3],[-1,4],[-4,10],[-4,13],[-4,10],[-3,12],[-3,9],[-3,11],[-1,3],[-3,10],[-3,8],[-2,10],[-6,22],[-4,11],[-2,9],[-2,6],[-2,7],[-2,8],[-4,13],[-3,11],[-9,28],[-5,15],[-1,12],[0,2],[-1,2],[-1,3],[-1,2],[0,2],[-1,3],[-1,2],[-1,2],[0,2],[-1,3],[-1,2],[-1,2],[0,3],[-1,2],[-1,3],[-1,2],[0,2],[-1,2],[-1,3],[-1,2],[0,2],[-4,6],[-5,11],[-7,23],[-4,12],[-8,30],[-2,7],[-3,10],[-2,6],[-2,9],[-3,7],[0,2],[-1,3],[-1,2],[-1,3],[0,2],[-2,2],[0,2],[-1,3],[0,2],[-1,2],[-1,3],[-1,3],[-1,4],[-2,8],[-1,3],[-3,8],[-2,9],[-1,4],[-2,6],[-3,7],[-2,6],[-1,4],[0,2],[-1,2],[-3,8],[-1,2],[-1,3],[-1,2],[0,5],[-1,2],[0,5],[-1,2],[-1,2],[0,5],[-1,2],[0,1],[-2,1],[-2,2],[-2,1],[-2,2],[-2,1],[-3,2],[-2,1],[-2,2],[-2,1],[-2,2],[-3,1],[-1,3],[-1,3],[-3,2],[-3,1],[-2,0],[-2,1],[-2,1],[-2,3],[-3,2],[-2,4],[-2,1],[-2,-2],[-2,1],[-3,1],[1,5],[-2,1],[-2,2],[0,14],[-1,1],[-3,1],[-1,1],[-1,1],[2,6],[1,2],[2,7],[0,1],[-1,2],[1,2],[1,0],[-1,1],[-2,2],[0,1],[1,0],[0,-1],[1,0],[1,-1],[1,1],[1,3],[0,5],[1,1],[0,6],[1,1],[1,0],[0,4],[-2,1],[1,3],[-1,2],[1,4],[0,2],[1,1],[1,3],[-1,4],[1,2],[3,3],[-8,11],[-6,6],[-3,4],[-1,0],[0,-3],[-3,4],[-1,2],[-2,2],[-2,3],[-1,2],[-2,3],[-1,2],[-1,1],[0,9],[-1,2],[0,4],[1,2],[0,3],[1,7],[0,5],[-1,0],[-1,2],[2,4],[-2,4],[2,2],[0,1],[-1,5],[2,3],[-1,2],[0,4],[-1,2],[2,4],[1,5],[-3,4],[-3,12],[-1,5],[0,7],[-2,5],[0,2],[-1,3],[-1,3],[0,5],[-1,4],[-1,3],[0,3],[-2,5],[-1,3],[-1,3],[0,2],[-1,2],[-1,2],[-2,1],[0,1],[-1,2],[4,2],[-2,5],[-2,4],[-1,2],[-1,4],[-2,3],[0,2],[-1,1],[-2,6],[-2,4],[-2,3],[-2,6],[-1,3],[-2,5],[-2,5],[-6,14],[-2,6],[-2,5],[-3,5],[0,3],[-4,9],[-5,13],[-9,21],[-9,20],[-1,3],[-5,13],[-3,7],[-4,9],[-1,3],[-3,8],[0,3],[-1,2],[0,1],[-1,1],[-1,2],[-1,4],[-3,13],[-7,23],[-15,48],[-5,16],[-7,24],[-1,3],[-1,4],[-1,3],[-1,2],[-2,5],[-1,5],[-2,6],[-1,1],[0,1],[-1,2],[-1,3],[-1,2],[0,3],[-1,2],[-1,2],[0,2],[-1,3],[-1,2],[0,2],[-1,3],[-1,2],[0,3],[-1,2],[0,2],[-1,3],[-1,2],[-1,2],[0,2],[-1,3],[0,2],[-1,2],[-1,3],[-1,2],[0,3],[-1,0],[0,2],[-1,4],[-1,2],[-1,3],[0,2],[-2,6],[-1,4],[-1,3],[-2,6],[-1,4],[-1,3],[0,3],[-1,3],[-1,1],[0,2],[-3,10],[-1,4],[-1,3],[-1,2],[0,2],[-1,2],[-1,3],[0,1],[-1,2],[0,2],[-1,2],[0,2],[-1,2],[0,4],[-1,2],[-1,3],[0,2],[-1,2],[-1,4],[-1,2],[0,2],[-1,2],[-1,3],[-1,2],[0,2],[-1,3],[-1,2],[0,1],[-1,3],[0,3],[-1,2],[-1,2],[-1,5],[-1,2],[0,2],[-1,4],[-1,2],[-4,14],[-1,4],[-2,6],[-1,2],[0,2],[-1,3],[-1,2],[-1,5],[-1,3],[0,1],[-1,3],[0,1],[-1,2],[0,1],[-1,1],[0,2],[-1,4],[-2,6],[-4,0],[-2,6],[-2,3],[-1,2],[-1,3],[-1,2],[-2,4],[-1,2],[0,1],[-1,1],[-1,3],[-1,0],[0,1],[-121,157],[-79,-61],[-67,-33],[-168,-60],[-73,-5],[-59,38],[-39,18],[-45,15],[-105,30],[-19,4],[-62,10],[-31,2],[-32,-3],[-33,-7],[-23,-6],[-29,-10],[-39,-19],[-91,-58],[-146,-43]],[[6507,8396],[20,-65],[-2,-201],[23,-73]],[[6356,9098],[7,-93],[21,-347],[16,-40],[81,-117],[23,-80],[3,-25]],[[6404,9450],[-65,-245],[17,-107]],[[5854,7107],[120,10],[129,43],[144,55],[47,31],[48,12],[42,-13],[136,14]],[[5752,7129],[102,-22]],[[5802,7879],[-50,-750]],[[5773,8368],[31,-242],[-2,-247]],[[6507,8396],[-191,5],[-39,-28],[-31,-28],[-44,-4],[-79,42],[-101,1],[-249,-16]],[[7061,3393],[-1,229],[-62,62],[-23,35],[-8,65],[60,156],[110,166],[2,50],[-179,465],[-101,-49],[-223,253],[-71,54],[-44,2]],[[6399,3264],[21,62],[9,67],[632,0]],[[6268,3466],[40,-123],[91,-79]],[[6448,4051],[202,1],[7,-181],[-122,-220],[-207,-163],[-60,-22]],[[5821,4285],[140,-150],[60,-30],[89,0],[88,38],[70,28],[146,75],[42,-35],[16,-24],[2,-59],[-26,-77]],[[6268,3466],[-8,94],[-35,88],[4,80],[79,59],[115,121],[14,80],[11,63]],[[5150,0],[1269,3163],[20,68],[-40,33]],[[237,5846],[1,-45],[0,-28],[-1,-14],[1,-14],[0,-29],[-1,-28],[0,-28],[1,-14],[0,-14],[-1,-15],[0,-663],[-1,-13],[1,-15],[0,-56],[-1,-14],[1,-14],[0,-43],[-1,-14],[0,-28],[1,-14],[0,-14],[-1,-14],[0,-43],[1,-14],[0,-14],[-1,-14],[0,-578],[-1,-14],[0,-29],[1,-14],[0,-28],[-1,-28],[0,-29],[1,-13],[-1,-15],[0,-592],[-1,-14],[1,-14],[0,-43],[-1,-14],[0,-14],[1,-14],[0,-28],[-1,-14],[0,-28],[1,-14],[0,-29],[-1,-33],[0,-14],[1,-14],[0,-43],[-1,-13],[0,-29],[1,-14],[0,-56],[-1,-14],[1,-14],[0,-409],[1,-15],[-1,-13],[0,-71],[1,-14],[0,-14],[-1,-14],[0,-43],[1,-14],[0,-42],[-1,-14],[0,-14],[1,-14],[0,-71],[-1,-14],[1,-14],[0,-282],[1,-14],[0,-14],[-1,-14],[0,-57],[1,-14],[0,-28],[-1,-14],[0,-28],[1,-14],[0,-57],[-1,-14],[1,-14],[0,-70],[-1,-14],[1,-15],[0,-616],[1,-14],[-1,-14],[0,-56],[1,-14],[0,-14],[-1,-14],[0,-43],[1,-14],[0,-28],[-1,-14],[0,-42],[1,-14],[0,-14],[-1,-28],[0,-29],[1,-14],[0,-42],[-1,-14],[0,-14],[1,-14],[0,-56],[-1,-15],[0,-14],[1,-14],[-1,-28],[0,-174],[4913,0]],[[2098,5835],[-1490,5],[-371,6]],[[3158,5837],[-1060,-2]],[[5186,8309],[-3,1],[-5,4],[-7,4],[-4,4],[-2,1],[-5,4],[-6,4],[-4,3],[-3,2],[-3,4],[-2,4],[-2,4],[-2,2],[-4,2],[-3,1],[-2,2],[0,2],[-2,1],[-14,0],[-1,-1],[-3,-3],[-3,-2],[-2,-2],[-3,-2],[-4,-2],[-4,-2],[-2,-2],[-2,-3],[-2,-1],[-2,-2],[-3,-1],[-2,1],[-2,2],[-1,1],[-4,1],[-2,2],[-4,1],[-3,2],[-4,4],[-2,3],[-3,3],[-2,4],[-2,4],[-3,5],[-2,4],[-1,4],[0,12],[-1,1],[-1,3],[-1,2],[1,3],[0,7],[-1,3],[-1,2],[-2,2],[-1,2],[-1,4],[-1,2],[0,2],[-1,2],[-2,1],[-1,0],[0,1],[-3,-1],[-2,0],[-2,1],[-1,1],[-3,0],[0,-1],[-2,-1],[-2,-1],[-3,-1],[-9,0],[-2,1],[-1,2],[-1,2],[0,5],[1,2],[1,3],[1,3],[0,2],[1,2],[1,1],[1,2],[1,2],[0,14],[-1,3],[1,3],[-1,2],[-1,2],[-1,1],[-2,1],[-2,1],[-4,1],[-6,2],[-2,1],[-15,0],[-2,1],[-2,0],[-1,-1],[-1,-1],[-2,-2],[-2,-2],[-2,-2],[-1,-1],[-6,-4],[-2,-1],[-3,-2],[-7,0],[-4,2],[-40,-54],[-46,-44]],[[4853,8369],[-13,2],[-1,1],[-1,0],[-142,90],[-39,18],[27,128],[25,27],[81,-3],[7,-16],[-33,-31],[58,-49],[45,67],[56,4],[18,12],[0,3],[-1,4],[-1,2],[-1,4],[-1,1],[0,2],[-1,3],[-1,3],[-1,3],[0,2],[1,1],[2,3],[1,3],[1,3],[0,3],[2,4],[2,1],[3,2],[1,2],[0,2],[1,2],[1,4],[1,3],[1,2],[1,1],[0,2],[-1,2],[-2,2],[-2,2],[-2,0],[-2,-1],[-2,-1],[-2,-1],[-3,-1],[-7,0],[-3,1],[-2,1],[-1,2],[-1,3],[-1,4],[0,7],[1,3],[3,3],[3,4],[2,2],[2,3],[6,4],[1,2],[1,2],[0,2],[-1,1],[-1,1],[-1,0],[-1,-1],[-2,0],[-3,-1],[-6,0],[-2,1],[-2,3],[-1,2],[-1,3],[-1,3],[-2,2],[-1,4],[-1,2],[0,7],[-1,2],[-2,4],[0,2],[-1,4],[0,2],[-1,1],[-2,4],[-1,2],[-1,2],[-1,3],[0,2],[-2,3],[-1,2],[-1,3],[0,1],[1,2],[1,1],[1,1],[1,3],[0,1],[1,3],[2,2],[2,4],[1,3],[1,3],[1,4],[1,3],[0,2]],[[4913,8825],[49,3],[21,21],[42,-2],[38,-33],[53,-2],[14,-30],[47,-4],[29,-17],[27,-32],[29,-9],[8,-1]],[[5270,8719],[-1,-1],[-1,-2],[-1,-1],[-1,-2],[0,-5],[1,-3],[1,-2],[2,-2],[1,-2],[3,-3],[3,-2],[2,-1],[0,-5],[-1,-2],[-2,-1],[-5,0],[-2,1],[-1,1],[-3,2],[-1,1],[-3,1],[-1,1],[-2,2],[-2,0],[-2,-1],[-2,-1],[-1,-3],[-1,-2],[0,-7],[1,-3],[1,-4],[1,-3],[0,-3],[-1,-3],[0,-3],[-1,-4],[-1,-2],[-2,-3],[-1,-3],[-3,-2],[-1,-1],[-2,-1],[-1,-1],[-3,-1],[-2,-1],[-3,-1],[-2,-1],[-2,-2],[-2,-1],[-3,-3],[-2,-1],[-2,-2],[-1,-1],[-1,-2],[-1,-2],[-1,-2],[0,-2],[-1,-3],[-1,-4],[0,-15],[-1,-2],[-2,-2],[-3,-2],[-3,-1],[-2,-2],[-5,-1],[-2,-1],[-4,-1],[-3,0],[-3,-1],[-1,-1],[-2,0],[-2,-1],[-2,0],[-2,-1],[-2,-2],[-1,-1],[0,-1],[-1,-1],[0,-2],[1,-2],[0,-2],[1,-1],[1,-2],[1,-2],[1,-1],[1,-1],[0,-1],[2,-3],[0,-6],[-1,-5],[0,-6],[-2,-4],[-2,-3],[-3,-1],[-3,1],[-2,4],[-1,2],[-1,4],[-1,6],[-2,4],[-3,4],[-2,2],[-8,0],[-1,-2],[-1,-3],[1,-4],[2,-4],[5,-4],[4,-4],[2,-5],[0,-3],[-1,-4],[-2,-4],[-2,-3],[-3,-5],[-2,-2],[-1,-3],[-1,-2],[0,-4],[-1,-3],[-2,-1],[-2,-1],[-3,1],[-7,4],[-3,2],[-2,3],[-2,4],[-3,1],[-2,0],[-3,-2],[-2,-2],[-1,-3],[0,-3],[1,-3],[4,-4],[5,-5],[5,-4],[2,-2],[1,-3],[1,-5],[2,-4],[2,-3],[3,-2],[3,-1],[3,-2],[3,-1],[3,-2],[2,-1],[2,-3],[1,-4],[-1,-6],[-2,-6],[-2,-4],[-4,-5],[-3,-4],[-2,-3],[-2,-3],[0,-6],[1,-2],[1,-2],[2,-2],[2,-2],[4,-1],[4,-1],[4,-1],[3,-2],[1,-3],[1,-2],[-2,-5],[-3,-6],[-3,-5],[-2,-4],[0,-6],[1,-4],[1,-2],[1,-1],[0,-8],[1,-2],[0,-4],[2,-4],[4,-5],[2,-1],[3,-4],[1,-4],[3,-5],[0,-1],[6,-10],[2,-6],[2,-5],[1,-3]],[[5802,6375],[-13,44],[-69,117],[-14,111],[45,53],[24,35],[-14,61],[1,48],[48,87],[6,45],[30,80],[8,51]],[[4145,7212],[-57,-295]],[[5752,7129],[-25,5],[-280,94],[-205,80],[15,67],[-22,55],[15,15],[11,47],[-19,70],[-72,-1]],[[2098,5835],[383,912],[761,188],[677,748],[597,371]],[[4516,8054],[337,315]],[[5186,8309],[3,-5],[4,-5],[3,-4],[3,-6],[3,-5],[2,-4],[6,-4],[6,-3],[4,-2],[8,-3],[4,-2],[5,-3],[5,-2],[2,-4],[3,-7],[2,-5],[3,-6],[3,-5],[3,-4]],[[5258,8230],[0,-6],[-2,-3],[-1,-5],[-1,-4],[-2,-4],[1,-4],[0,-4],[2,-6],[0,-3],[2,-5],[0,-5],[-1,-5],[-2,-3],[0,-1],[-3,-3],[-1,-4],[-1,-6],[0,-10],[1,-3],[2,-4],[2,-6],[1,-5],[-2,-4],[1,-3],[1,-6],[3,-6],[2,-5],[0,-5],[2,-4],[3,-3],[5,-3],[3,-3],[4,-3],[5,-4],[4,-2],[4,-4],[2,-3],[2,-5],[1,-6],[2,-5],[2,-5],[1,-6],[0,-9],[-1,-4],[0,-10],[-1,-5],[2,-4],[1,-4],[1,-5],[1,-5],[2,-5],[2,-5],[0,-4],[1,-8],[-1,-6],[-2,-6],[0,-4],[1,-2],[0,-5],[1,-6],[1,-4],[1,-6],[1,-4],[0,-5],[-1,-4],[-1,-1],[-1,-4],[0,-3],[1,-4],[-1,-4],[-1,-5],[-2,-3],[-2,-5],[17,-3],[18,-10],[108,0],[53,11],[163,5],[54,-16],[87,-5]],[[4516,8054],[-559,348],[0,99]],[[4333,9752],[101,74]],[[4434,9826],[131,-207],[7,-11],[2,-2],[3,-3],[1,-1],[6,-1],[6,0],[9,-1],[5,-3],[3,-2],[2,-3],[1,-3],[2,-5],[0,-13],[-2,-12],[-1,-8],[-2,-8],[-2,-4],[1,-3],[5,-2],[4,0],[3,1],[4,2],[1,0],[2,-3],[5,-7],[1,-11],[1,-7],[3,-10],[2,-5],[2,-2],[2,1],[3,3],[3,4],[1,3],[3,2],[5,0],[6,-2],[8,-5],[8,-6],[6,-6],[2,-6],[-1,-5],[-1,-8],[0,-15],[1,-8],[0,-10],[-1,-7],[-4,-6],[-4,-5],[-4,-5],[-5,-7],[-1,-7],[0,-1],[1,-5],[1,-3],[3,-3],[5,-2],[3,0],[4,1],[3,1],[3,-2],[0,-6],[-2,-6],[-2,-8],[0,-6],[4,-6],[6,-4],[4,-2],[5,0],[4,4],[2,4],[4,4],[4,1],[3,-2],[7,-5],[5,-8],[5,-5],[8,-5],[5,-3],[4,-3],[4,-8],[2,-5],[1,-10],[4,-6],[6,-6],[7,-8],[5,-6],[7,-9],[5,-6],[5,-5],[9,-5],[7,-6],[5,-4],[6,-4],[4,-3],[6,-6],[8,-6],[3,-4],[1,-6],[0,-6],[-1,-11],[-1,-5],[0,-4],[-1,-5],[-1,-4],[-1,-3],[1,-3],[4,-6],[4,-3],[9,-3],[5,-2],[4,-3],[3,-4],[3,-6],[1,-4],[0,-3]],[[4879,9139],[0,-2],[-1,-4],[-4,-4],[-5,-3],[-1,-3],[0,-3],[1,-5],[3,-5],[4,-5],[5,-5],[12,-8],[3,-4],[1,-5],[0,-9],[-2,-5],[-2,-6],[-4,-5],[-3,-4],[-4,-5],[-5,-8],[-2,-3],[0,-4],[1,-3],[6,-4],[8,-2],[7,-2],[4,-3],[3,-5],[1,-4],[1,-5],[-1,-3],[-1,-4],[-4,-8],[-3,-4],[-4,-3],[-3,-2],[-4,-3],[-4,-3],[-1,-2],[-1,-3],[1,-2],[2,-2],[3,0],[4,1],[2,2],[2,2],[2,2],[4,2],[3,1],[3,0],[4,-1],[4,-1],[5,-2],[1,-3],[0,-2],[-1,-3],[-2,-2],[-4,-2],[-4,-2],[-3,-2],[-4,-3],[-3,-4],[-3,-4],[-3,-2],[-3,-3],[-3,-4],[-6,-6],[-3,-2],[-3,-3],[-1,-3],[0,-3],[-1,-4],[1,-4],[2,-4],[2,-2],[5,0],[3,1],[2,1],[2,2],[1,1],[2,1],[4,0],[2,-2],[3,-2],[2,-4],[3,-4],[1,-3],[-1,-4],[0,-3],[-4,-8],[-2,-2],[-2,-2],[-2,-1],[-6,-2],[-3,-1],[-4,0],[-1,-1],[-2,-1],[-1,-3],[0,-5],[1,-1],[3,-3],[1,-2],[2,-3],[2,-2],[2,-4],[3,-3],[4,-1],[2,-1],[2,-2],[3,-3],[3,-4],[3,-3],[2,-2],[0,-5]],[[3840,9391],[-34,-19],[-82,-27],[-22,-9],[-205,-101],[-51,47],[-26,20],[-28,15],[-195,81],[-19,7],[-129,37],[-43,7],[-283,8],[-4,11],[-14,35],[-19,30],[-25,27],[-29,21],[-32,15],[-33,9],[-35,1],[-35,-5],[-154,-40],[-7,0],[-49,81],[-20,26],[-23,22],[-26,18],[-28,14],[-30,8],[-191,32],[-28,20],[-30,18],[-32,11],[-276,70],[-323,84],[-26,5],[-283,29],[-33,0],[-33,-6],[-365,-107],[-12,37],[-6,12],[-167,-99],[-3,-1],[-1,0],[0,-1],[-1,1],[-1,0],[-1,-1],[-3,-1],[-1,-3],[-2,-1],[-12,-10],[-8,-16],[-4,-5],[-6,-7],[-6,-10],[-2,-3],[0,-3],[-6,-14],[-2,-9],[0,-2],[-1,-10],[0,-3],[1,-5],[0,-10],[1,-2],[0,-4],[1,-4],[-2,-1],[-4,-1],[-2,-2],[-2,-1],[-1,-2],[-7,-6],[-1,-1],[-2,-1],[-1,-1],[-5,-3],[-1,-2],[-2,-2],[-1,0],[-1,-1],[-3,-2],[-2,0],[-2,-1],[-1,-1],[-5,-3],[-2,-2],[-6,-4],[-6,-4],[-18,-11],[-13,-15],[-10,-8],[-10,-9],[-3,-6],[-2,-40],[-1,-2],[-2,-2],[-5,-2],[-4,-3],[-4,-2],[-4,-3],[-5,-1],[-4,-2],[-3,-4],[-3,-3],[-4,-4],[-2,-5],[-3,-3],[-3,-4],[-3,-4],[-3,-5],[-1,-6],[-1,-7],[0,-5],[1,-6],[0,-11],[1,-6],[0,-6],[1,-6],[0,-6],[1,-5],[1,-6],[-1,-6],[1,-6],[0,-5],[1,-6],[1,-6],[0,-6],[1,-5],[1,-5],[2,-5],[1,-6],[1,-5],[1,-6],[1,-5],[0,-11],[-1,-8],[-1,-7],[-1,-6],[-2,-5],[-2,-6],[-1,-6],[-2,-6],[-1,-6],[-1,-7],[0,-12],[1,-4],[2,-5],[1,-5],[4,-10],[1,-5],[1,-5],[2,-5],[1,-5],[1,-5],[2,-6],[1,-5],[1,-5],[1,-5],[2,-5],[1,-5],[1,-6],[0,-6],[1,-5],[2,-10],[1,-6],[1,-6],[1,-5],[1,-5],[2,-5],[1,-5],[1,-5],[2,-5],[2,-4],[2,-4],[3,-5],[3,-3],[3,-4],[2,-5],[2,-4],[2,-5],[1,-6],[2,-3],[1,-6],[1,-5],[2,-5],[1,-5],[1,-5],[1,-6],[1,-5],[2,-5],[2,-5],[1,-5],[2,-4],[2,-5],[2,-4],[1,-6],[2,-4],[1,-6],[2,-5],[2,-4],[1,-5],[2,-4],[2,-5],[3,-4],[2,-4],[2,-6],[2,-4],[2,-4],[1,-5],[2,-5],[2,-4],[2,-5],[2,-4],[2,-5],[2,-4],[2,-5],[2,-5],[1,-4],[2,-6],[0,-5],[-2,-14],[-2,-7],[-1,-5],[-2,-6],[-2,-5],[-3,-4],[-2,-6],[-2,-5],[-2,-5],[-2,-6],[-2,-4],[-4,-12],[-1,-6],[-2,-6],[-1,-6],[-1,-7],[-1,-8],[-1,-6],[1,-5],[-1,-7],[1,-6],[-1,-6],[0,-7],[-1,-7],[-2,-4],[-2,-5],[-3,-5],[-2,-5],[-2,-5],[-2,-6],[-2,-4],[-2,-6],[-3,-4],[-3,-5],[-4,-10],[-3,-4],[-1,-6],[-1,-7],[-1,-6],[0,-20],[-1,-5],[-2,-8],[-2,-4],[-1,-6],[-2,-5],[-2,-5],[-3,-4],[-2,-7],[-3,-3],[-2,-5],[-2,-5],[-3,-4],[-2,-4],[-2,-5],[-4,-3],[-2,-6],[-2,-4],[-3,-5],[-2,-5],[-2,-5],[-2,-5],[-2,-5],[-3,-5],[-3,-3],[-2,-6],[-3,-4],[-2,-4],[-3,-5],[-3,-3],[-3,-6],[-3,-3],[-3,-3],[-3,-4],[-4,-4],[-3,-3],[-3,-4],[-3,-3],[-3,-5],[-3,-3],[-3,-3],[-4,-4],[-3,-4],[-4,-2],[-3,-4],[-4,-3],[-3,-4],[-3,-3],[-2,-6],[-2,-5],[-1,-8],[-1,-7],[-1,-5],[-2,-5],[-2,-6],[-2,-5],[-2,-7],[-2,-4],[-2,-5],[-2,-5],[-3,-5],[-3,-3],[-2,-6],[-3,-4],[-3,-4],[-3,-5],[-3,-3],[-2,-4],[-2,-6],[-4,-10],[-2,-6],[-1,-6],[-2,-7],[-2,-5],[-1,-6],[-1,-8],[-1,-6],[-1,-7],[0,-19],[2,-4],[1,-5],[2,-5],[3,-4],[3,-4],[2,-3],[3,-5],[3,-4],[3,-3],[2,-5],[2,-5],[1,-5],[2,-3],[2,-6],[1,-5],[1,-4],[2,-5],[1,-5],[2,-4],[2,-5],[2,-4],[1,-5],[2,-5],[2,-5],[2,-5],[2,-4],[1,-5],[2,-5],[1,-5],[1,-5],[2,-5],[2,-5],[1,-5],[2,-5],[2,-4],[1,-5],[2,-5],[2,-4],[2,-5],[2,-4],[2,-5],[2,-5],[2,-4],[2,-4],[1,-5],[2,-5],[2,-5],[1,-5],[1,-5],[1,-6],[2,-4],[2,-6],[1,-4],[1,-5],[1,-6],[2,-5],[2,-4],[1,-5],[1,-5],[1,-6],[1,-6],[-1,-6],[0,-7],[-1,-6],[-1,-6],[-2,-7],[-1,-6],[-2,-5],[-1,-6],[-2,-6],[-2,-5],[-3,-4],[-2,-6],[-1,-6],[0,-6],[1,-5],[2,-6],[1,-3],[2,-5],[3,-4],[2,-5],[3,-3],[1,-5],[2,-4],[2,-5],[3,-4],[2,-5],[2,-4],[2,-4],[2,-5],[2,-4],[2,-6],[3,-3],[2,-5],[3,-3],[2,-4],[2,-6],[3,-3],[3,-4],[2,-4],[2,-5],[1,-4],[2,-5],[1,-6],[1,-5],[0,-6],[1,-7],[0,-11],[1,-5],[0,-7],[-2,-6],[-2,-7],[0,-12],[-1,-7],[-2,-6],[-1,-5],[0,-18],[-1,-8],[0,-6],[-1,-7],[-1,-6],[-1,-7],[0,-12],[1,-6],[5,-15],[6,-15],[5,-15],[6,-15],[5,-15],[6,-14],[5,-16],[6,-15],[5,-14],[6,-16],[6,-14],[5,-15],[6,-15],[10,-30],[6,-15],[6,-15],[3,-8],[-1,-14],[0,-14],[1,-14],[0,-226],[1,-14],[0,-43],[-1,-13],[0,-28],[1,-15],[0,-98],[1,-15],[-1,-13],[0,-86],[1,-13],[0,-311],[1,-14],[0,-56],[-1,-15],[1,-14],[0,-113],[1,-14],[0,-4],[-1,-15],[0,-41],[1,-14],[-1,-14],[0,-268],[-1,-26]],[[7016,0],[-1623,0],[6,21],[2,7],[1,4],[0,2],[1,2],[1,1],[0,2],[1,4],[1,4],[2,5],[2,5],[1,3],[1,2],[1,3],[0,2],[1,2],[1,2],[1,3],[1,2],[1,4],[2,4],[1,3],[2,5],[1,2],[1,2],[1,2],[1,2],[3,5],[1,2],[1,2],[1,1],[1,3],[1,1],[3,5],[1,2],[2,3],[1,1],[1,2],[3,4],[1,2],[3,4],[2,4],[4,6],[3,3],[1,2],[1,1],[2,3],[2,2],[1,3],[2,2],[1,3],[2,2],[1,2],[2,11],[5,7],[-8,9],[-1,2],[-1,0],[-2,2],[0,1],[-1,0],[0,2],[-1,1],[0,1],[-1,2],[0,3],[-1,1],[0,3],[-2,2],[0,1],[-1,1],[-1,2],[-1,1],[-1,1],[-1,1],[0,1],[-1,0],[-1,1],[-1,1],[-1,1],[-2,1],[-1,-1],[-2,0],[-4,-3],[-3,-2],[-2,-2],[-3,-2],[-2,-2],[-3,-3],[-3,-3],[-3,-2],[-2,-2],[-2,-2],[-7,-8],[-4,-4],[-2,-3],[-7,-8],[-3,-3],[-2,-2],[-1,-3],[-2,-3],[-6,-6],[-1,-2],[-2,-2],[-2,-2],[-1,-2],[-4,-4],[-1,-2],[-2,-3],[-1,-3],[-2,-2],[-2,-4],[-3,-5],[-3,-8],[-3,-4],[-2,-4],[-2,-7],[-2,-5],[-1,-2],[-2,-4],[-1,-3],[-4,-11],[-1,-4],[-3,-13],[-1,-5],[-1,-3],[0,-3],[-1,-4],[-1,-4],[-1,-5],[-1,-4],[0,-2],[-2,-7],[-1,-3],[-2,-9],[-5,-20],[-175,0]],[[7061,3393],[-45,-3393]],[[5579,8336],[-11,-9],[-19,-17],[-88,-6],[-42,-8],[-16,-1],[-14,-2],[-70,-25],[-61,-38]],[[5746,8461],[-167,-125]],[[5773,8368],[-27,93]],[[5258,9232],[31,15],[28,19],[-22,40],[17,39],[-4,68],[-12,144],[47,-26],[22,52],[38,309]],[[4879,9139],[9,-1],[19,-24],[36,1],[21,11],[32,-11],[15,23],[79,0],[14,39],[12,28],[-9,40],[41,-3],[37,-12],[23,27],[35,-6],[15,-19]],[[5403,9892],[-42,20],[-72,28],[-25,8],[-59,13],[-40,5],[-71,0],[-27,-2],[-27,-7],[-372,-122],[-28,15],[-24,8],[-19,5],[-31,6],[-31,-1],[-31,-6],[-30,-11],[-28,-17],[-12,-8]],[[5270,8719],[21,0],[18,-16],[47,10]],[[5356,8713],[4,-10],[-28,-32],[-36,-90],[65,-85],[-2,-36],[17,-31],[25,-1],[85,-52],[93,-40]],[[5746,8461],[-1,1],[-21,70],[-10,46],[0,32],[-3,19],[-16,20],[-23,24],[3,22],[23,-7],[83,-5],[59,9],[37,0],[32,-2],[35,-19],[39,10],[14,42],[30,37],[-5,100],[4,67],[-1,51],[6,44]],[[6031,9022],[76,-4],[80,11],[124,87],[45,-18]],[[5270,8719],[2,1],[2,1],[2,2],[2,1],[2,2],[0,1],[1,1],[1,2],[1,3],[0,7],[-1,2],[0,13],[1,4],[1,4],[1,2],[0,2],[1,3],[1,2],[2,3],[1,2],[1,2],[0,4],[1,5],[2,4],[0,3],[1,3],[-1,4],[0,10],[-1,4],[-1,3],[-1,5],[0,3],[-1,4],[-1,2],[0,6],[-1,2],[-2,2],[-3,4],[-2,6],[-6,6],[-2,3],[0,5],[1,2],[1,3],[2,3],[-1,4],[0,3],[-2,3],[-2,2],[-3,1],[-5,2],[-1,1],[-2,2],[-1,3],[-1,1],[-1,2],[-2,1],[-2,2],[-1,1],[0,5],[2,2],[0,1],[1,0],[0,1],[1,2],[0,1],[2,3],[1,1],[1,1],[1,4],[0,8],[-1,5],[0,4],[-1,4],[-2,2],[-1,1],[-2,4],[-2,5],[-2,3],[-2,3],[0,2],[-1,3],[0,5],[-1,5],[-1,4],[0,2],[2,4],[3,2],[1,2],[7,0],[5,-2],[3,0],[3,1],[3,2],[2,2],[0,8],[-1,5],[-1,4],[-1,3],[-1,3],[-1,1],[-2,2],[-3,1],[-4,2],[-1,1],[-1,2],[1,2],[2,1],[4,0],[3,1],[1,0],[1,1],[0,5],[-1,3],[-2,1],[-3,1],[-4,2],[-1,2],[-1,1],[0,4],[2,1],[2,2],[2,2],[2,1],[3,1],[1,1],[3,2],[3,2],[2,2],[2,2],[1,3],[0,8],[-1,3],[-1,2],[-3,3],[-4,3],[-3,3],[-1,1],[-2,2],[-2,3],[-1,2],[-1,2],[1,1],[0,2],[1,1],[3,2],[2,3],[1,2],[2,3],[2,2],[2,2],[3,1],[4,2],[3,2],[4,2],[4,2],[4,1],[3,2],[5,0],[2,1],[1,1],[2,4],[2,8],[-8,0],[-40,2],[-28,-7],[-5,16],[19,41],[6,34]],[[6156,9668],[-235,-443],[-17,-10]],[[5904,9215],[-3,-2],[-33,-7],[-78,-23],[-82,-14],[-55,-78],[-18,-51],[-42,-23],[-2,-56],[-45,-34],[-85,-3],[-68,-16],[-12,-33],[14,-81],[-13,-30],[5,-19],[3,-9],[-4,-8],[-7,-5],[-15,-3],[-8,-7]],[[5403,9892],[157,-69],[49,18],[52,26]],[[5661,9867],[-122,-334],[-24,-30],[-48,-53],[73,-43],[53,-26],[-7,-35],[-21,-13],[-2,-54],[6,-20],[68,46],[46,12],[29,33],[218,497]],[[5930,9847],[16,-11],[22,-19],[19,-21],[83,-108],[86,-20]],[[6031,9022],[21,27],[7,31],[-9,32],[-15,28],[-6,39],[-66,-7],[-59,43]],[[6156,9668],[36,-8],[30,-10],[28,-15],[26,-21],[22,-24],[106,-140]],[[5661,9867],[31,15],[38,13],[40,5],[29,0],[37,-4],[35,-11],[32,-19],[27,-19]],[[8364,4356],[-5,-31],[-8,-29],[-11,-24],[-12,-22],[-16,-20],[-17,-17],[-19,-15],[-20,-11],[-22,-9],[-22,-6],[-22,-2],[-21,1],[-21,3],[-21,6],[-19,9],[-19,12],[-32,26],[-13,12],[-11,14],[-11,15],[-9,16],[-8,17],[-7,18],[-5,19],[-3,19],[-2,24],[0,23],[3,24],[6,23],[7,22],[10,21],[12,19],[15,18],[10,11],[13,12],[15,10],[25,14],[31,10],[33,3],[33,-3],[31,-10],[21,-11],[9,-6],[16,-12],[6,-7],[19,-16],[12,-13],[10,-13],[15,-25],[12,-28],[8,-30],[4,-30],[0,-31]],[[7703,5479],[-10,-15],[-30,-199],[9,-260],[30,-44],[9,-15],[30,-68],[9,-24],[139,-590],[230,-389],[7,-14],[6,-16],[59,-172],[121,-125],[16,-21],[9,-15],[6,-10],[262,-583],[7,-20],[5,-20],[1,-10],[2,-21],[5,-87],[99,-138],[206,-171],[12,-12],[16,-21],[9,-15],[54,-95],[7,-14],[9,-21],[7,-23],[44,-190],[388,-303],[18,-15],[15,-18],[13,-19],[12,-22],[9,-23],[6,-24],[4,-25],[1,-18],[-7,-620],[161,-225],[12,-19],[5,-10],[9,-21],[4,-11],[4,-16],[38,-185],[52,-28],[15,-10],[14,-10],[13,-13],[12,-14],[11,-15],[9,-16],[9,-17],[6,-18],[67,-211],[5,-19],[2,-10],[3,-20],[1,-20],[-2,-61],[-1,-5],[-2980,0]]],"type":"Topology"}
