{"type":"Topology","arcs":[[[4465,2898],[-101,5],[25,73],[75,-6],[1,-72]],[[4497,3149],[-32,-25],[-71,-27],[13,-29],[-40,-41],[-42,17],[-33,-18],[-86,0]],[[4206,3026],[7,81],[60,25],[76,-33],[74,78],[32,5],[42,-33]],[[2845,2790],[-17,-67],[-45,-18],[-59,72],[21,51],[86,1],[14,-39]],[[575,1837],[-42,31],[-32,51],[-17,74],[-66,71],[-39,14],[-30,35],[-98,35],[-62,8],[-32,-18],[-36,36],[-92,8],[-25,31],[-4,44],[39,40],[19,42],[36,15],[-11,33],[8,91],[60,42],[54,-7],[66,10],[55,-14],[7,-29],[37,-10],[53,22],[11,36],[70,23],[40,30]],[[544,2581],[22,-16],[44,26],[44,-24],[63,-63],[46,-23],[42,-52],[41,-8],[34,-45],[71,8],[50,-25],[-89,-38],[31,-32],[-33,-42],[-7,-51],[63,-74],[6,-34],[56,-23],[-9,-43],[37,-9],[34,41]],[[1090,2054],[-1,-25],[50,-35],[-20,-117],[-73,-38],[-51,26],[-47,-29],[-80,-4],[-43,-41],[-41,-4],[-64,36],[-93,-15],[-52,29]],[[2932,43],[95,45],[103,172],[-10,37],[30,98],[38,67],[61,154],[9,86],[69,188],[60,89],[84,-21],[149,26],[56,62],[96,63],[43,14],[-23,62],[-4,135],[7,96],[-10,85],[19,38],[56,66],[56,24],[47,-34],[100,-40],[88,-92],[57,80],[39,25],[19,-18],[68,28],[27,80],[10,69],[41,61],[20,72],[3,57],[-16,17],[-135,56],[-14,62],[44,121],[-22,34],[17,180],[38,61],[-1,52],[21,34],[93,72],[29,-50],[87,-23],[13,-18],[18,-100],[23,-49],[42,10],[32,93],[56,17],[13,62],[-7,41],[-29,31],[13,70],[-78,89],[-28,46],[-70,192],[-45,59],[-14,71],[-18,2]],[[4206,3026],[-45,21],[-48,-7],[-24,-22],[-87,23],[-44,-6],[-36,-33],[-105,-51],[-55,-6],[-7,42],[-50,24]],[[3705,3011],[3,46],[24,59],[47,70],[83,79],[-40,44],[33,142],[39,142],[-4,41],[54,57],[38,81],[226,5],[25,10]],[[4233,3787],[74,-37],[59,4],[20,23],[152,7],[86,43],[71,5],[18,-46],[67,-21],[-101,-150],[-5,-35],[86,-195],[71,-78],[24,-63],[83,-33],[20,-119],[51,-31],[13,-37],[73,-45],[126,-111],[106,-86],[40,-20],[112,-37],[426,-149],[461,-159],[370,-131],[476,-1],[-309,-333],[-213,-228],[-196,-207],[-260,-281],[-204,-213],[-263,-286],[-207,4],[-79,8],[-170,1],[-108,-21],[-180,-54],[-97,-50],[-74,-47],[-34,-67],[-53,-75],[-35,-26],[-43,-1],[-72,-25],[-104,-13],[-136,-5],[-117,-116],[-58,19],[-24,-13],[-60,11],[-59,-19],[-75,7],[-49,-8],[-98,95],[-30,12],[-29,46],[-41,16],[-184,-87],[-98,-39],[-146,-77],[-46,-105],[-88,-91],[-78,-17],[-114,13],[-49,30]],[[1684,3025],[-31,-21],[-18,35],[34,9],[15,-23]],[[2932,43],[-88,-12],[-171,65],[-50,-20],[-123,9],[-30,-7],[-65,62],[-138,91],[-99,73],[-176,119],[-51,43],[-90,35],[-62,-4]],[[1789,497],[13,47],[66,97],[14,55],[-15,38],[16,90],[30,48],[119,15],[60,-27],[37,4],[136,70],[96,-31],[0,64],[23,68],[-2,66],[63,25],[7,28],[-34,23],[-24,83],[-81,18],[-11,79],[30,50],[0,65],[-16,61],[31,41],[180,-57],[20,-55],[-35,-14],[-20,-37],[-1,-45],[-43,-25],[64,-112],[54,-13],[-5,81],[23,56],[34,29],[-4,94],[24,22],[44,6],[67,-25],[31,4],[50,-50],[41,-71],[36,-11],[38,20],[-13,38],[19,46],[-19,100],[-26,34],[-134,43],[-57,38],[37,44],[-22,100],[-27,33],[-63,-17],[-66,37],[-51,-73],[-58,-19],[-26,42],[7,58],[91,64],[36,86],[41,18],[-7,84],[16,39],[50,56],[38,82],[-41,96],[25,18],[20,-65],[39,44],[-32,33],[8,33],[-24,40],[-44,13],[-28,-11],[-18,-68],[-40,-23],[-17,58],[-22,19],[-69,0],[-125,-36],[-138,40],[-31,1],[-19,-75],[72,-29],[-14,-68],[4,-55],[-30,-6],[-23,32],[-48,-12],[22,-37],[-15,-46],[-2,-73],[21,-59],[-26,-81],[-114,-82],[-107,-10],[-82,23],[-53,40],[-80,35],[-38,-3],[-88,38],[-32,29],[-46,7],[-5,49],[-26,46],[-72,47],[28,53],[-22,66],[-46,2],[-20,-29],[37,-45],[-18,-25],[-70,-34],[-30,2],[-16,38],[-42,-6],[-16,-27],[-79,-72],[11,-75]],[[544,2581],[8,9],[0,214],[-7,86]],[[545,2890],[105,-13],[32,61],[-13,88],[58,21],[-41,72],[62,3],[94,-56],[26,13],[2,94],[45,53],[-12,17],[46,70],[28,-7],[-1,-46],[67,14],[38,-14],[50,-41],[14,-69],[90,-14],[41,-38],[7,-42],[53,-30],[-11,-71],[78,3],[24,-43],[43,-25],[12,-46],[71,68],[-33,27],[23,30],[54,-13],[5,86],[-88,72],[-11,81],[0,105],[73,30],[106,128],[36,0],[-14,-56],[97,46],[78,-54],[54,9],[10,31]],[[1943,3434],[82,-29],[-5,-60],[51,-26],[45,-4],[68,-27],[78,-77],[60,14],[20,23],[85,26],[143,94],[31,-4],[27,53],[9,56],[125,12],[53,-13],[-6,-74],[8,-48],[-86,-51],[64,-29],[-5,-41],[19,-57],[40,-27],[25,23],[54,-33],[-17,-40],[17,-28],[51,28],[39,65],[60,24],[9,-23],[-15,-87],[-38,-24],[75,-60],[-36,-55],[-63,-13],[14,-41],[46,-30],[-48,-85],[0,-45],[18,-60],[60,44],[30,-37],[45,35],[84,22],[0,130],[20,2]],[[3279,2857],[48,-2],[21,-51],[48,-35],[-20,-53],[39,2],[38,53],[33,16],[3,39],[40,40],[69,101],[91,25],[16,19]],[[1563,2681],[-10,82],[-38,40],[-45,2],[-17,-86],[57,-10],[53,-28]],[[1789,497],[-321,3],[-40,41],[-8,52],[-63,72],[1,164],[22,42],[-1,58],[-69,44],[-44,-3],[-59,21],[-89,-44],[-15,21],[8,63],[-87,61],[2,31],[-59,102],[-3,96],[-24,83],[24,52],[4,63],[-57,63],[-50,-5],[-40,51],[-38,26],[-46,6],[1,48],[-34,34],[-43,-3],[-85,64],[-1,34]],[[3264,4458],[-71,-10],[-27,-22],[-22,36],[-46,2],[-68,-20],[-21,26],[-6,63],[-26,90],[54,24],[6,56],[-61,106],[-45,-25],[-38,22],[-3,46],[18,29],[-46,49],[-50,-18],[-49,17],[-2,69],[-27,44],[-95,-9],[-26,54],[-87,-42],[-93,-12],[-81,29],[-51,57],[-40,-85],[-32,-32],[-84,-26],[-78,4],[-23,27],[-51,11],[-62,-39],[-48,13],[-74,60],[-11,22],[-99,27],[-36,81]],[[1663,5182],[16,36],[-19,59],[53,165],[37,15],[105,4],[54,-14],[24,-22],[37,10],[23,70],[75,19],[112,-133],[186,357],[63,-87],[47,-23],[43,9],[42,-68],[66,-72],[33,1],[181,45],[37,20],[25,46],[34,-1],[51,-35],[29,-40],[50,26],[57,-16],[47,52],[86,-31],[80,-66],[24,16]],[[3361,5524],[-14,-42],[-109,10],[-24,-25],[1,-79],[40,-16],[31,-125],[-12,-79],[9,-91],[-28,7],[-19,-49],[11,-24],[-13,-88],[45,-78],[-22,-45],[-3,-59],[39,-17],[23,-33],[-12,-74],[-24,-23],[-16,-136]],[[4527,4530],[-42,-83],[-28,-24],[-146,-223],[-57,-40],[-31,-120],[17,-88],[-7,-165]],[[3279,2857],[41,89],[-50,37],[46,51],[2,58],[-21,65],[75,-5],[3,37],[35,52],[1,38],[-43,27],[2,28],[68,13],[-11,47],[12,28],[9,89],[-7,75],[8,38],[-25,41],[26,62],[-10,42],[26,66],[-9,57],[-31,58],[-21,7],[-6,77],[-30,46],[-5,45],[-53,55],[3,74],[-22,24],[-17,90],[-21,58],[10,32]],[[3361,5524],[53,50],[27,-4],[32,-77],[22,13],[51,-23]],[[3546,5483],[41,-30],[173,-68],[64,-46],[25,-32],[123,-204],[73,-55],[116,-58],[12,-31],[107,-125],[36,-76],[44,-61],[78,-20],[29,-63],[60,-84]],[[3546,5483],[63,112],[27,19],[-8,90],[-17,90],[89,98],[85,-68],[51,-21],[49,-68],[104,-34],[80,-78],[34,-60],[81,-110],[59,-26],[30,-59],[116,-41],[35,-51],[66,-38],[46,-82],[36,-8],[48,21],[19,-72],[42,-70],[57,-18],[-9,-86],[51,-7],[55,-34],[81,-101],[41,-89],[-70,-36],[-126,-52],[-45,-70],[14,-22],[-66,-36],[-58,57],[-50,25],[-29,-28]],[[1943,3434],[-162,37],[-14,-23],[-71,45],[5,39],[-68,-6],[-34,29],[-16,44],[25,59],[-27,37],[33,63],[96,104],[-39,10],[0,55],[44,18],[-14,66],[-41,29],[-53,78],[3,67],[-27,-3],[-57,-48],[-30,63],[-66,76],[-8,28],[-73,18],[-39,-54],[-70,-44],[-2,-19],[-73,-15],[-37,5],[-30,35],[-6,35]],[[1092,4262],[39,52],[18,66],[151,249],[148,29],[64,-10],[12,86],[-15,24],[56,224],[71,100],[27,100]],[[545,2890],[-11,149],[-10,26],[26,103],[32,74],[12,63],[44,44],[12,65],[-27,138],[71,132],[74,52],[98,-85],[86,73],[-21,46],[35,110],[-18,53],[58,128],[-14,103],[36,62],[64,36]]],"transform":{"scale":[0.0020777001802551303,0.0019907703326544467],"translate":[32.998006000000004,3.4508536999999997]},"objects":{"admin_level_4":{"type":"GeometryCollection","geometries":[{"arcs":[[0]],"type":"Polygon","properties":{"name":"Harari","name:am":"ሐረር","name:fr":"Harar","name:ru":"Харари","name:so":"Adari","name:uk":"Гарарі","alt_name":"Harer","boundary":"administrative","wikidata":"Q1033855","ISO3166-2":"ET-HA","wikipedia":"en:Harari Region","admin_level":"4"},"id":1707700},{"arcs":[[1,2]],"type":"Polygon","properties":{"name":"Dirē Dawa","name:am":"ድሬ ዳዋ","name:en":"Dire Dawa","name:fr":"Diré Daoua","name:ru":"Дыре-Дауа","name:uk":"Дире-Дауа","boundary":"administrative","wikidata":"Q193486","ISO3166-2":"ET-DD","wikipedia":"en:Dire Dawa","admin_level":"4","alt_name:fr":"Dire Dawa"},"id":1707654},{"arcs":[[3]],"type":"Polygon","properties":{"name":"Addis Abeba","capital":"2","name:am":"አዲስ አበባ","name:ar":"أديس أبابا","name:az":"Əddis-Əbəbə","name:be":"Адыс-Абеба","name:bg":"Адис Абеба","name:bn":"আদ্দিস আবাবা","name:bo":"ཨ་ཌི་སི་ཨ་བ་བ།","name:bs":"Adis Abeba","name:cy":"Addis Ababa","name:da":"Addis Ababa","name:el":"Αντίς Αμπέμπα","name:en":"Addis Ababa","name:eo":"Adis-Abebo","name:es":"Adís Abeba","name:fa":"آدیس آبابا","name:fo":"Addis Ababa","name:fr":"Addis-Abeba","name:ga":"Adas Ababa","name:gd":"Addis Ababa","name:gl":"Adís Abeba - አዲስ አበባ","name:he":"אדיס אבבה","name:hr":"Adis Abeba","name:ht":"Adis-Abeba","name:hu":"Addisz-Abeba","name:hy":"Ադիս Աբեբա","name:id":"Addis Ababa","name:ig":"Addis Ababa","name:io":"Addis Ababa","name:is":"Addis Ababa","name:ja":"アディスアベバ","name:jv":"Addis Ababa","name:ka":"ადის-აბება","name:kn":"ಅಡಿಸ್ ಅಬಾಬ","name:ko":"아디스아바바","name:ky":"Аддис-Абеба","name:la":"Neanthopolis","name:lt":"Adis Abeba","name:lv":"Adisabeba","name:mk":"Адис Абеба","name:ml":"അഡിസ് അബെബ","name:mn":"Аддис-Абеба","name:mr":"अदिस अबाबा","name:ms":"Addis Ababa","name:my":"အာဒစ် အာဘာဘာမြို့","name:os":"Аддис-Абебæ","name:pa":"ਆਦਿਸ ਆਬਬਾ","name:pt":"Adis Abeba","name:qu":"Adis Ababa","name:ru":"Аддис-Абеба","name:rw":"Addis Ababa","name:sl":"Adis Abeba","name:sr":"Адис Абеба","name:sw":"Addis Ababa","name:ta":"அடிஸ் அபாபா","name:tg":"Аддис-Абеба","name:th":"แอดดิสอาบาบา","name:tl":"Adis Abeba","name:tr":"Addis Ababa","name:uk":"Аддис-Абеба","name:ur":"ادیس ابابا","name:vi":"Addis Ababa","name:wo":"Addis-Abeba","name:yo":"Addis Ababa","name:zh":"亚的斯亚贝巴","boundary":"administrative","wikidata":"Q3624","ISO3166-2":"ET-AA","wikipedia":"am:አዲስ አበባ","admin_level":"4"},"id":1707699},{"arcs":[[0]],"type":"Polygon","properties":{"name":"Oromia - Harari","source":"maplibrary.org","boundary":"administrative","left:state":"Harari","admin_level":"4","right:state":"Oromia"},"id":31658258},{"arcs":[[4,5,6]],"type":"Polygon","properties":{"name":"Gambela","name:am":"ጋምቤላ","name:fr":"Gambela","name:ru":"Гамбела","name:uk":"Гамбела","boundary":"administrative","wikidata":"Q207638","ISO3166-2":"ET-GA","wikipedia":"en:Gambela Region","admin_level":"4"},"id":1707655},{"arcs":[[7,-3,8,9,10]],"type":"Polygon","properties":{"name":"Somali","name:ru":"Сомали","name:uk":"Сомалі","boundary":"administrative","wikidata":"Q202800","ISO3166-2":"ET-SO","wikipedia":"en:Somali Region","admin_level":"4"},"id":1707658},{"arcs":[[11]],"type":"Polygon","properties":{"name":"Oromia - Benishangul-Gumuz","source":"maplibrary.org","boundary":"administrative","left:state":"Benishangul-Gumuz","admin_level":"4","right:state":"Oromia"},"id":31660863},{"arcs":[[12,13,-6,14,15,16,17,-9,-2,-8],[18],[-12],[-4],[-1]],"type":"Polygon","properties":{"name":"Oromia","name:ru":"Оромия","name:uk":"Оромія","boundary":"administrative","wikidata":"Q202107","ISO3166-2":"ET-OR","wikipedia":"en:Oromia Region","admin_level":"4"},"id":1707656},{"arcs":[[19,-7,-14]],"type":"Polygon","properties":{"name":"Southern Nations","name:de":"Südliche Nationen","name:es":"Pueblos del Sur","name:fr":"Nations du Sud","name:pl":"Narodowości i Ludów Południa","name:ru":"Народов юга","name:uk":"Народів півдня","boundary":"administrative","wikidata":"Q203193","ISO3166-2":"ET-SN","wikipedia":"en:Southern Nations, Nationalities, and Peoples' Region","admin_level":"4"},"id":1707657},{"arcs":[[20,21,22]],"type":"Polygon","properties":{"name":"Tigray","name:fr":"Tigré","name:ru":"Тыграй","name:uk":"Тиграй","boundary":"administrative","wikidata":"Q200127","ISO3166-2":"ET-TI","wikipedia":"en:Tigray Region","admin_level":"4"},"id":1707148},{"arcs":[[23,-10,-18,24,-23,25,26]],"type":"Polygon","properties":{"name":"Afar","name:am":"አፋር","name:ru":"Афар","name:uk":"Афар","boundary":"administrative","wikidata":"Q193494","ISO3166-2":"ET-AF","wikipedia":"en:Afar Region","admin_level":"4"},"id":1707249},{"arcs":[[-27,27]],"type":"Polygon","properties":{"name":"ዞባ ደቡባዊ ቀይሕ ባሕሪ","name:en":"Debubawi Kayih Bahri","name:it":"Regione del Mar Rosso Meridionale","boundary":"administrative","ISO3166-2":"ER-DK","admin_level":"4"},"id":4610935},{"arcs":[[-17,28,29,-21,-25]],"type":"Polygon","properties":{"name":"Amhara","name:am":"አማራ","name:en":"Amhara","name:fr":"Amhara","name:ru":"Амхара","name:uk":"Амхара","boundary":"administrative","wikidata":"Q203009","ISO3166-2":"ET-AM","wikipedia":"en:Amhara Region","admin_level":"4"},"id":1707264},{"arcs":[[[11]],[[-19]],[[30,-29,-16]]],"type":"MultiPolygon","properties":{"name":"Bīnshangul-Gumuz Kilil","name:am":"ቤንሻንጉል-ጉምዝ","name:de":"Benishangul-Gumuz","name:en":"Benishangul-Gumuz Region","name:fr":"Benishangul-Gumuz","name:ru":"Бенишангул-Гумуз","name:uk":"Бенішангул-Гумуз","alt_name":"Benshangul-Gumaz","boundary":"administrative","old_name":"Region 6","wikidata":"Q207635","ISO3166-2":"ET-BE","wikipedia":"en:Benishangul-Gumuz Region","admin_level":"4"},"id":1707653}]}}}