{"type":"Topology","arcs":[[[2872,4704],[65,-24],[-12,-91],[-55,-127],[-31,-20],[-24,-65],[-44,-6],[-97,-59],[-56,2],[-42,-92],[46,-20],[3,-95],[12,-57],[39,-48],[-65,-36],[-7,-66],[36,-131],[-18,-34],[36,-130],[31,-56],[-18,-34],[19,-49],[-42,-18],[-78,-71],[-42,-96],[-32,-12],[-116,-90],[-45,5],[-60,-62],[13,-98],[-72,-5],[-80,-51]],[[2136,2968],[-27,238],[-23,155],[-33,127],[-35,120],[-37,79],[-65,48],[-119,33],[-107,53],[-96,-13],[-1,1],[-75,111],[-36,228],[-19,44],[-1,1],[-41,60],[-57,-8],[-30,-31],[-103,144],[-1,1],[-32,51],[-23,15],[-148,24],[-88,-3],[-65,31],[-91,-17],[-49,80],[-45,32],[-51,-10],[-88,68],[-32,6],[-60,-58],[-83,83],[-20,181],[-30,106],[-106,49],[-118,83],[-101,19],[0,84],[44,66],[30,113],[44,59],[-7,51],[93,42],[78,0],[66,24],[53,-34],[153,-39],[32,12],[62,-19],[39,-53],[84,-12],[57,60],[76,36],[52,-65],[51,-12],[56,-49],[71,-39],[96,-21],[-5,-46],[50,-29],[28,-53],[76,27],[48,-72],[74,-29],[9,28],[169,-39],[25,-42],[53,-5],[20,-49],[68,23],[31,46],[68,-25],[2,-72],[63,-32],[41,-52],[76,-34],[26,-46],[79,-60],[55,35],[31,-45],[57,49],[33,-6],[81,-76],[62,20],[25,72],[51,-34],[95,-36],[72,2],[20,-55],[59,36]],[[2438,1875],[30,-46],[64,18],[57,-29],[47,30],[65,-31],[23,-83],[66,-23],[29,-35],[75,-20],[140,13],[35,-74],[26,29],[63,18],[32,-1],[65,23],[56,61],[43,-18],[18,-59],[70,-18]],[[3442,1630],[41,-90],[-38,-105],[39,-113],[73,-53],[39,-109]],[[3596,1160],[-36,-42],[-5,-123],[-84,-83],[11,-49],[-1,-28],[-112,11],[-55,55],[-20,-8],[-154,68],[-67,10],[-32,-16],[-34,50],[-88,-8],[-42,-1],[-58,-36],[-67,24],[-13,37],[-44,-2],[-58,-47],[-42,-85],[-79,-64],[-107,88],[-155,33],[-24,33],[-98,42],[20,53],[18,132],[15,26],[1,2],[67,85],[25,-21],[3,-1],[-6,6],[5,2],[36,30],[1,1],[8,8],[37,67],[83,264],[0,2],[1,2],[5,81],[-13,117]],[[2366,2218],[-4,50],[57,36],[-1,63],[37,20],[73,-16],[50,14],[67,15],[39,39],[33,-25],[82,11],[63,-44],[58,7],[25,-66],[73,-9],[54,19]],[[3072,2332],[-1,-98],[102,-73],[41,0],[34,50],[63,-13],[30,-131],[27,-33],[48,10],[59,-63],[44,-5],[46,-33],[77,3],[30,-37],[16,-62],[-4,-149]],[[3684,1698],[-43,12],[-66,-94],[-68,22],[-65,-8]],[[2438,1875],[-12,160],[0,6],[-4,45],[-30,68],[0,1],[-6,14],[0,1],[-20,48]],[[3072,2332],[86,-34],[20,123],[-19,60],[-5,98],[62,95],[39,71],[17,59],[113,165],[-13,38],[30,93],[36,35],[11,60],[40,62],[128,46]],[[3617,3303],[23,-7],[-20,-98],[27,-108],[67,16],[80,81],[68,-63],[70,35],[57,-22],[47,-17],[79,-89],[-37,-60],[38,-48],[36,12],[73,-56],[70,21],[39,-13],[72,33],[76,103],[28,4],[58,50],[127,-9],[128,-40],[31,43],[80,-51],[33,10]],[[4967,3030],[4,-78],[40,-39],[-39,-70],[42,-38],[65,-24],[-3,-41],[-75,-62],[-14,-58],[4,-89],[27,-22]],[[5018,2509],[-41,-69],[-26,-84],[-63,-84],[-41,-10],[-23,-105],[-1,-78],[-33,-16],[-57,-67],[30,-65]],[[4763,1931],[-88,-45],[-41,-47],[-100,-48],[-93,-30],[-118,-60],[-181,10],[-55,-58],[-62,49],[-45,-25],[-109,38],[-14,-33],[-56,-32],[-79,19],[-38,29]],[[5018,2509],[9,-48],[79,-49],[27,-19],[53,39],[83,-11],[-15,-83],[68,-32],[57,110],[37,6],[13,57],[4,60],[44,-21],[10,-6],[30,26],[63,-1],[45,61],[43,-44],[18,-105],[57,-80],[79,19],[65,-81],[38,4],[-24,-99],[65,1],[-5,-84],[82,59],[87,-1],[81,-23]],[[6211,2164],[26,-97],[27,-108],[34,-35],[32,-75],[-16,-78],[-58,20],[-19,-51],[-3,-88],[-43,-73],[18,-47]],[[6209,1532],[-36,-40],[-60,-4],[-51,19],[-59,63],[-33,-38],[-152,-36],[-22,31],[-51,-18],[-77,-17],[-103,16],[-82,-16],[-81,25],[-15,41]],[[5387,1558],[-99,51],[-36,4],[-69,-6],[-106,55],[-18,60],[-43,-3],[-71,101],[-16,65],[-49,7],[-59,52],[-58,-13]],[[7352,3315],[21,-10],[11,-83],[27,-12],[90,66],[105,-37],[121,24],[46,-88],[50,-16],[51,12],[50,-62],[73,28],[-1,-131],[-56,-110],[27,-151],[-47,-44],[-69,-14],[-27,17],[-52,-118],[11,-59],[37,-51],[34,-3],[105,-86],[-9,-32],[35,-9],[27,-55],[96,26],[57,-16],[34,-56],[12,-107],[34,-18],[46,47],[71,-55],[62,21],[4,-54],[30,-42],[35,48],[40,-38],[104,56],[27,-30],[-14,-51],[41,-29],[9,-45],[53,-35],[26,37],[40,-27],[44,14],[37,-60],[-15,-91],[-23,-59],[-53,-43],[-78,-107],[-123,-27],[-48,-64],[7,-102],[30,-75],[-16,-45],[68,-80],[108,29],[23,-33],[-59,-49],[47,-155],[74,-34],[57,-64],[82,-70],[52,-29],[130,-45],[46,-80],[66,-76],[6,-53],[39,-37],[-41,-31],[0,-49],[-45,-50],[2,-62],[-21,-50],[9,-80],[-40,-73],[-112,33],[-80,-126],[-31,20],[-17,74],[-123,16],[-1,30],[-107,120],[-16,34],[-59,-18],[-67,24],[-94,1],[-33,-46],[-45,39],[-85,-22],[-70,-4],[-55,28],[-38,44],[-96,25],[-84,69],[-78,97],[56,101],[-47,37],[-33,-13],[-48,52],[-66,-11],[-51,73],[-39,21],[-27,8],[-86,76],[-35,-53],[-53,-8],[-37,56],[-79,42]],[[7348,912],[8,81],[-90,81],[-36,-3],[-76,138],[61,76],[-32,104],[23,49],[-29,55],[-82,45],[-41,89],[-30,100],[-36,8]],[[6988,1735],[25,61],[-60,37],[99,66],[63,-56],[79,29],[3,43],[-89,54],[-64,6],[-26,46],[7,50],[33,42],[-59,95],[31,65],[-39,34],[40,59],[32,218],[35,104],[47,22],[33,65],[80,25],[0,82],[-25,29],[-7,84],[78,98],[0,123],[48,99]],[[6209,1532],[42,11],[53,-20],[87,-128]],[[6391,1395],[-25,-33],[54,-90],[92,13],[65,-25],[51,9],[43,42],[61,-2],[56,-40],[129,65],[29,66],[-10,86],[-54,44],[-70,32],[-53,-7],[-1,60],[25,23]],[[6783,1638],[22,80],[56,45],[127,-28]],[[7348,912],[-66,-10],[-15,-46],[-117,-88],[-100,-147],[-17,12],[-122,-131],[-44,-60],[-66,0],[-21,37],[-63,0],[-30,54],[-33,-25],[-1,-81],[107,-102],[-128,37],[-93,10],[-32,-22],[-52,49],[-66,7],[-28,-104],[-81,43],[-2,29],[-35,-68],[-48,-29],[-90,44],[-40,42],[-53,11],[-38,-29],[-64,0],[-48,57],[-70,10],[-33,-119],[-52,-7],[-67,22],[-88,-23],[-84,-42]],[[5468,243],[20,58],[-20,71],[-45,77],[19,95],[33,64],[-38,99],[-50,73],[17,56],[-22,107],[-33,60],[-55,57],[-68,-29],[-67,-8],[-63,13],[54,227],[-5,131],[11,41],[52,32],[94,-60],[17,50],[68,101]],[[6783,1638],[-43,33],[-130,54],[-52,-64],[-64,-1],[-42,-66],[38,-49],[-15,-53],[21,-36],[-49,-52],[-56,-9]],[[6211,2164],[60,-7],[-14,117],[82,135],[-5,42],[66,63],[-15,47],[7,110],[-55,115],[43,76],[-5,25],[-82,32],[-24,41],[-63,8],[-27,46],[-23,56],[-126,26],[-32,49],[20,73],[-58,115],[-53,58],[-34,-21],[-17,69],[24,119],[97,92],[104,-36],[47,23],[112,-43],[-12,80],[14,41],[49,12],[48,-29],[80,1],[58,23],[48,-30],[54,-61],[-12,-31],[31,-125],[51,-62],[33,3],[-5,56],[17,71],[45,52],[1,58],[25,50],[81,8],[47,-13],[44,-70],[58,-44],[45,41],[101,-7],[9,-34],[72,-71],[47,-82],[38,-36],[45,-80]],[[4349,4188],[38,-13],[16,-53],[75,-32],[110,-20],[25,-54],[75,20],[122,-28],[62,-46],[53,5],[63,-66],[4,-52],[61,-40],[34,14],[45,-56],[96,-40],[20,-27],[-9,-70],[-49,-61],[-47,-30],[-22,-50],[-78,-23],[-11,-34],[-79,-88],[17,-69],[34,-26],[-24,-68],[3,-60],[-26,-26],[10,-65]],[[3617,3303],[-28,43],[-53,130],[-41,43],[47,91],[-6,35],[-71,89],[-122,63],[-56,29],[-32,49],[41,110],[124,20],[-6,78],[118,0],[45,-33],[43,16],[55,-14],[58,-43],[138,75],[51,-33],[91,-25],[56,-31],[130,34],[47,-65],[47,83],[-21,58],[75,61],[2,22]],[[2872,4704],[164,51],[66,1],[9,-35],[116,15],[30,61],[116,8],[8,-68],[89,-47],[43,-47],[46,-4],[117,-75],[29,64],[132,41],[58,-48],[48,27],[44,-50],[58,-12],[-1,-53],[94,-21],[67,-67],[-36,-33],[49,-114],[80,-43],[51,-67]],[[2366,2218],[-78,140],[-6,60],[-4,0],[-29,86],[11,100],[-7,60],[0,1],[-34,138],[-21,68],[-54,61],[-8,36]],[[5468,243],[-19,22],[-135,-34],[-88,-66],[-38,-47],[-91,54],[-122,-10],[-40,35],[-130,-49],[-46,122],[-102,54],[-53,-6],[-115,-51],[-21,32],[-54,134],[-63,-15],[-21,21],[112,75],[3,24],[-115,44],[-32,62],[-121,64],[-74,157],[-96,62],[-30,53],[-26,-65],[-79,51],[-3,53],[41,81],[-5,76],[-71,-31],[-47,39],[-78,8],[-113,-32]]],"transform":{"scale":[0.0007209017274678112,0.00045689752618273757],"translate":[40.0103964,41.0552922]},"objects":{"ge_slim":{"type":"GeometryCollection","geometries":[{"arcs":[[0,1]],"type":"Polygon","properties":{"srid":"4326","id":"3572912","name":"Autonomous Republic of Abkhazia","localname":"აფხაზეთის ავტონომიური რესპუბლიკა - Аҧсны Автономтә Республика","official_name":"","boundary":"adminstrative","admin_level":"4","note":"","wikidata":"Q2914461","wikipedia":"ru:Автономная Республика Абхазия","timestamp":"2019-01-23 06:19:09","rpath":"3572912,28699,0","alltags":{"name":"აფხაზეთის ავტონომიური რესპუბლიკა - Аҧсны Автономтә Республика","name:ab":"Аҧсны Автономтә Республика","name:ca":"República Autònoma d'Abkhàzia","name:de":"Autonome Republik Abchasien","name:en":"Autonomous Republic of Abkhazia","name:es":"República Autónoma de Abjasia","name:fr":"Gouvernement de la République autonome d'Abkhazie","name:ka":"აფხაზეთის ავტონომიური რესპუბლიკა","name:ru":"Автономная Республика Абхазия","name:uk":"Абхазька Автономна Республіка","boundary":"administrative","wikidata":"Q2914461","ISO3166-2":"GE-AB","wikipedia":"ru:Автономная Республика Абхазия","admin_level":"4"}}},{"arcs":[[2,3,4]],"type":"Polygon","properties":{"srid":"4326","id":"1995970","name":"Autonomous Republic of Adjara","localname":"აჭარის ავტონომიური რესპუბლიკა","official_name":"","boundary":"adminstrative","admin_level":"4","note":"","wikidata":"Q45693","wikipedia":"ru:Аджария","timestamp":"2019-01-23 06:19:09","rpath":"1995970,28699,0","alltags":{"name":"აჭარის ავტონომიური რესპუბლიკა","name:ca":"Adjària","name:de":"Autonome Republik Adscharien","name:en":"Autonomous Republic of Adjara","name:es":"Ayaria","name:fr":"Adjarie","name:it":"Repubblica Autonoma Agiara","name:ka":"აჭარის ავტონომიური რესპუბლიკა","name:ku":"Komara Xweserî ya Acaristanê","name:ru":"Аджарская Автономная Республика","name:uk":"Аджарська Автономна Республіка","boundary":"administrative","wikidata":"Q45693","ISO3166-2":"GE-AJ","wikipedia":"ru:Аджария","population":"376016","admin_level":"4","alt_name:ku":"Acaristan;Acarî"}}},{"arcs":[[5,6,7,-3,8]],"type":"Polygon","properties":{"srid":"4326","id":"1995971","name":"Guria","localname":"გურია","official_name":"","boundary":"adminstrative","admin_level":"4","note":"","wikidata":"Q19038","wikipedia":"en:Guria","timestamp":"2019-01-23 06:19:09","rpath":"1995971,28699,0","alltags":{"ref":"GU","name":"გურია","name:ca":"Gúria","name:de":"Gurien","name:en":"Guria","name:es":"Guria","name:fr":"Gourie","name:ka":"გურია","name:ku":"Gûrya","name:ru":"Гурия","name:uk":"Гурія","boundary":"administrative","int_name":"Guria","wikidata":"Q19038","ISO3166-2":"GE-GU","wikipedia":"en:Guria","admin_level":"4","is_in:country":"Georgia","is_in:continent":"Asia","is_in:country_code":"GE"}}},{"arcs":[[9,10,11,12,13,-7]],"type":"Polygon","properties":{"srid":"4326","id":"1997289","name":"Imereti","localname":"იმერეთი","official_name":"","boundary":"adminstrative","admin_level":"4","note":"","wikidata":"Q200045","wikipedia":"en:Imereti","timestamp":"2019-01-23 06:19:09","rpath":"1997289,28699,0","alltags":{"ref":"IM","name":"იმერეთი","name:ab":"Имереҭи","name:ca":"Imerètia","name:de":"Imeretien","name:en":"Imereti","name:es":"Imericia","name:fr":"Iméréthie","name:it":"Imerezia","name:ku":"Îmêretî","name:ru":"Имеретия","name:uk":"Імереті","boundary":"administrative","int_name":"Imereti","wikidata":"Q200045","ISO3166-2":"GE-IM","wikipedia":"en:Imereti","admin_level":"4"}}},{"arcs":[[14,15,16,17,-13]],"type":"Polygon","properties":{"srid":"4326","id":"2000040","name":"Inner Kartli","localname":"შიდა ქართლი","official_name":"","boundary":"adminstrative","admin_level":"4","note":"","wikidata":"Q200047","wikipedia":"ka:შიდა ქართლის მხარე","timestamp":"2019-01-23 06:19:09","rpath":"2000040,28699,0","alltags":{"ref":"SK","name":"შიდა ქართლი","name:ab":"Аҩнуҵҟатәи Қарҭли","name:ca":"Xida Kartli","name:de":"Innerkartlien","name:en":"Inner Kartli","name:es":"Shida Kartli","name:fr":"Kartlie intérieure","name:it":"Cartalia Interna","name:ka":"შიდა ქართლი","name:ru":"Внутренняя Карталиния","name:uk":"Шида Картлі","boundary":"administrative","wikidata":"Q200047","ISO3166-2":"GE-SK","wikipedia":"ka:შიდა ქართლის მხარე","admin_level":"4","alt_name:ru":"Шида-Картли","old_name:uk":"Внутрішня Картлі"}}},{"arcs":[[18,19,20]],"type":"Polygon","properties":{"srid":"4326","id":"2000091","name":"Kakheti","localname":"კახეთი","official_name":"","boundary":"adminstrative","admin_level":"4","note":"","wikidata":"Q169674","wikipedia":"en:Kakheti","timestamp":"2019-01-23 06:19:09","rpath":"2000091,28699,0","alltags":{"ref":"KA","name":"კახეთი","name:ab":"Кахеҭи","name:ca":"Kakhètia","name:de":"Kachetien","name:en":"Kakheti","name:es":"Kajetia","name:fr":"Kakhétie","name:it":"Cachezia","name:ku":"Kaxêtî","name:lt":"Kachetija","name:ru":"Кахетия","name:tr":"Kaheti","name:uk":"Кахеті","boundary":"administrative","int_name":"Kakheti","wikidata":"Q169674","ISO3166-2":"GE-KA","wikipedia":"en:Kakheti","admin_level":"4"}}},{"arcs":[[-17,21,22,23,-20,24,25]],"type":"Polygon","properties":{"srid":"4326","id":"2000092","name":"Lower Kartli","localname":"ქვემო ქართლი","official_name":"","boundary":"adminstrative","admin_level":"4","note":"","wikidata":"Q200048","wikipedia":"de:Niederkartlien","timestamp":"2019-01-23 06:19:09","rpath":"2000092,28699,0","alltags":{"ref":"KK","name":"ქვემო ქართლი","name:ab":"Ҵаҟатәи Қарҭли","name:az":"Aşağı Kartli","name:ca":"Kvemo Kartli","name:de":"Niederkartlien","name:en":"Lower Kartli","name:es":"Kvemo Kartli","name:fr":"Basse Kartlie","name:it":"Bassa Cartalia","name:ka":"ქვემო ქართლი","name:ku":"Kvêmo Kartlî","name:ru":"Нижняя Карталиния","name:tr":"Aşağı Kartli","boundary":"administrative","int_name":"Kvemo Kartli","name:xmf":"თუდოლენი ქართლიშ აკანი","wikidata":"Q200048","ISO3166-2":"GE-KK","wikipedia":"de:Niederkartlien","admin_level":"4","alt_name:ru":"Квемо-Картли"}}},{"arcs":[[-21,-24,26,-22,-16,27]],"type":"Polygon","properties":{"srid":"4326","id":"2000090","name":"Mtskheta-Mtianeti","localname":"მცხეთა-მთიანეთი","official_name":"","boundary":"adminstrative","admin_level":"4","note":"","wikidata":"Q203339","wikipedia":"en:Mtskheta-Mtianeti","timestamp":"2019-01-23 06:19:09","rpath":"2000090,28699,0","alltags":{"ref":"MM","name":"მცხეთა-მთიანეთი","name:ca":"Mtskheta-Mtianeti","name:de":"Mzcheta-Mtianeti","name:en":"Mtskheta-Mtianeti","name:es":"Mtsjeta-Mtianeti","name:fr":"Mtskheta-Mtianeti","name:ka":"მცხეთა-მთიანეთი","name:ku":"Mtsxêta-Mtîanêtî","name:ru":"Мцхета-Мтианети","name:uk":"Мцхета-Мтіанеті","boundary":"administrative","int_name":"Mtskheta-Mtianeti","wikidata":"Q203339","ISO3166-2":"GE-MM","wikipedia":"en:Mtskheta-Mtianeti","admin_level":"4"}}},{"arcs":[[28,-11,29]],"type":"Polygon","properties":{"srid":"4326","id":"1997284","name":"Racha-Lechkhumi and Lower Svaneti","localname":"რაჭა-ლეჩხუმი და ქვემო სვანეთი","official_name":"","boundary":"adminstrative","admin_level":"4","note":"","wikidata":"Q38893","wikipedia":"en:Racha-Lechkhumi and Kvemo Svaneti","timestamp":"2019-01-23 06:19:09","rpath":"1997284,28699,0","alltags":{"name":"რაჭა-ლეჩხუმი და ქვემო სვანეთი","name:ca":"Racha-Lechkhumi i Kvemo Svaneti","name:de":"Ratscha-Letschchumien und Niederswanetien","name:en":"Racha-Lechkhumi and Lower Svaneti","name:es":"Racha-Lechjumi y Kvemo Svaneti","name:fr":"Racha-Lechkhumi et Kvemo Svaneti","name:ka":"რაჭა-ლეჩხუმი და ქვემო სვანეთი","name:ku":"Raça-Lêçxûmî û Kvêmo-Svanêtî","name:nl":"Ratsja-Letsjchoemi en Kvemo Svaneti","name:ru":"Рача-Лечхуми и Нижняя Сванетия","boundary":"administrative","wikidata":"Q38893","ISO3166-2":"GE-RL","wikipedia":"en:Racha-Lechkhumi and Kvemo Svaneti","population":"50969","admin_level":"4"}}},{"arcs":[[-1,30,-30,-10,-6,31]],"type":"Polygon","properties":{"srid":"4326","id":"1996076","name":"Samegrelo-Upper Svaneti","localname":"სამეგრელო-ზემო სვანეთი","official_name":"","boundary":"adminstrative","admin_level":"4","note":"","wikidata":"Q200309","wikipedia":"ka:სამეგრელო-ზემო სვანეთის მხარე","timestamp":"2019-01-23 06:19:09","rpath":"1996076,28699,0","alltags":{"ref":"SZ","name":"სამეგრელო-ზემო სვანეთი","name:ab":"Агырны-Хыхьтәи Шәаны","name:ca":"Samegrelo - Zemo Svaneti","name:de":"Mingrelien-Oberswanetien","name:en":"Samegrelo-Upper Svaneti","name:es":"Samegrelo-Zemo Svaneti","name:fr":"Mingrélie-et-Haute-Svanétie","name:it":"Mingrelia-Alta Svanezia","name:ka":"სამეგრელო-ზემო სვანეთი","name:ku":"Samêgrelo û Zêmo Svanêtî","name:ru":"Самегрело и Верхняя Сванетия","name:uk":"Самеґрело-Земо Сванеті","website":"http://www.szs.gov.ge/cgi-bin/admin/index.pl","boundary":"administrative","int_name":"Samegrelo-Zemo Svaneti","name:xmf":"სამარგალო-ჟიმოლენი შონეშ აკანი","wikidata":"Q200309","ISO3166-2":"GE-SZ","wikipedia":"ka:სამეგრელო-ზემო სვანეთის მხარე","population":"466000","admin_level":"4"}}},{"arcs":[[-8,-14,-18,-26,32,-4]],"type":"Polygon","properties":{"srid":"4326","id":"1996031","name":"Samtskhe-Javakheti","localname":"სამცხე-ჯავახეთი","official_name":"","boundary":"adminstrative","admin_level":"4","note":"","wikidata":"Q19039","wikipedia":"ka:სამცხე-ჯავახეთის მხარე","timestamp":"2019-01-23 06:19:09","rpath":"1996031,28699,0","alltags":{"ref":"SJ","name":"სამცხე-ჯავახეთი","name:ab":"Самцхе-Џьавахеҭи","name:ca":"Samtskhé-Txavtxètia","name:de":"Samzche-Dschawachetien","name:en":"Samtskhe-Javakheti","name:es":"Samtsje-Yavajeti","name:fr":"Samtskhé-Djavakhétie","name:ha":"Սամցխե-Ջավախք","name:hy":"Սամցխե-Ջավախք","name:it":"Samtskhe-Giavachezia","name:ka":"სამცხე-ჯავახეთი","name:ku":"Samtsxê-Cevaxêtî","name:lt":"Samcchė-Džavachetija","name:ru":"Самцхе-Джавахети","name:tr":"Samtshe-Cavaheti","name:uk":"Самцхе-Джавахеті мхаре","boundary":"administrative","int_name":"Samtskhe-Javakheti","old_name":"მესხეთი","wikidata":"Q19039","ISO3166-2":"GE-SJ","wikipedia":"ka:სამცხე-ჯავახეთის მხარე","population":"208000","admin_level":"4","old_name:en":"Meskhetia","addr:country":"GE"}}},{"arcs":[[-27,-23]],"type":"Polygon","properties":{"srid":"4326","id":"1996871","name":"Tbilisi","localname":"თბილისი","official_name":"","boundary":"adminstrative","admin_level":"4","note":"","wikidata":"Q994","wikipedia":"en:Tbilisi","timestamp":"2019-01-23 06:19:09","rpath":"1996871,28699,0","alltags":{"name":"თბილისი","place":"city","name:ab":"Қарҭ","name:af":"Tbilisi","name:am":"ትብሊሲ","name:an":"Tbilisi","name:ar":"تبليسي","name:av":"Тбилиси","name:az":"Tbilisi","name:be":"Тбілісі","name:bg":"Тбилиси","name:bn":"তিবি‌লিসি","name:bo":"ཁྲེ་བྷི་ལི་སི།","name:br":"Tbilisi","name:bs":"Tbilisi","name:ca":"Tbilissi","name:cs":"Tbilisi","name:cv":"Тбилиси","name:cy":"Tbilisi","name:da":"Tbilisi","name:de":"Tiflis","name:el":"Τιφλίδα","name:en":"Tbilisi","name:eo":"Tbiliso","name:es":"Tiflis","name:et":"Thbilisi","name:eu":"Tbilisi","name:fa":"تفلیس","name:fi":"Tbilisi","name:fo":"Tbilisi","name:fr":"Tbilissi","name:fy":"Tbilisy","name:gd":"Tbilisi","name:gl":"Tbilisi","name:gv":"Tbilisi","name:he":"טביליסי","name:hi":"थ्बिलिसि","name:hr":"Tbilisi","name:ht":"Tbilisi","name:hu":"Tbiliszi","name:hy":"Թբիլիսի","name:id":"Tbilisi","name:io":"Tbilisi","name:is":"Tíblisi","name:it":"Tbilisi","name:ja":"トビリシ","name:jv":"Tbilisi","name:ka":"თბილისი","name:kk":"Тбилиси","name:ko":"트빌리시","name:ku":"Tibîlîsî","name:kv":"Тбилиси","name:ky":"Тбилиси","name:la":"Triphelis","name:lt":"Tbilisis","name:lv":"Tbilisi","name:mi":"Tbilisi","name:mk":"Тбилиси","name:mn":"Тбилис","name:mr":"त्बिलिसी","name:ms":"Tbilisi","name:nl":"Tbilisi","name:nn":"Tbilisi","name:no":"Tbilisi","name:oc":"Tbilissi","name:os":"Тбилис","name:pl":"Tbilisi","name:pt":"Tbilisi","name:ro":"Tbilisi","name:ru":"Тбилиси","name:sc":"Tbilisi","name:sh":"Tbilisi","name:sk":"Tbilisi","name:sl":"Tbilisi","name:sq":"Tbilisi","name:sr":"Тбилиси","name:sv":"Tbilisi","name:sw":"Tbilisi","name:ta":"திபிலீசி","name:tg":"Тбилисӣ","name:th":"ทบิลิซิ","name:tl":"Tbilisi","name:ug":"تبىلىسى","name:uk":"Тбілісі","name:ur":"تبلیسی","name:vi":"Tbilisi","name:vo":"Tbilisi","name:wo":"Tibilisi","name:yi":"טביליסי","name:yo":"Tbilisi","name:zh":"第比利斯","website":"http://tbilisi.gov.ge/","boundary":"administrative","int_name":"Tbilisi","name:ace":"Tbilisi","name:arc":"ܛܒܝܠܝܣܝ","name:bcl":"Tbilisi","name:ckb":"تبلیس","name:diq":"Tıflis","name:frp":"Tbilisi","name:hif":"Tbilisi","name:hsb":"Tbilisi","name:kbd":"Тбилиси","name:lbe":"Ттуплис","name:lij":"Tiblisi","name:lmo":"Tbilisi","name:mhr":"Тбилиси","name:mrj":"Тбилиси","name:myv":"Тбилиси ош","name:mzn":"تفلیس","name:nah":"Tbilisi","name:nan":"Tbilisi","name:nov":"Tbilisi","name:pam":"Tbilisi","name:pms":"Tbilisi","name:pnb":"تبلیسی","name:sah":"Тбилиси","name:scn":"Tbilisi","name:sco":"Tbilisi","name:szl":"Tbilisi","name:udm":"Тбилиси","name:vep":"Tbilisi","name:war":"Tbilisi","name:xmf":"ქართი","old_name":"ტფილისი","wikidata":"Q994","ISO3166-2":"GE-TB","wikipedia":"en:Tbilisi","population":"1152500","admin_level":"4","alt_name:ca":"Tiflis","alt_name:ko":"뜨빌리씨","name:simple":"Tbilisi","old_name:en":"Tiflisi","old_name:ru":"Тифлис","addr:country":"GE","name:bat-smg":"Tbėlėsis","name:fiu-vro":"Thbilisi","name:roa-tara":"Tbilisi","name:be-tarask":"Тбілісі"}}}]}}}