{"type":"Topology","arcs":[[[2128,2621],[-21,41],[-45,27],[2,142],[35,6],[17,74],[75,11]],[[2191,2922],[60,-82],[-50,-47],[104,-138],[104,-4],[19,-21],[73,9],[78,-20],[6,-94],[35,-68],[73,59],[16,-59],[59,-126]],[[2768,2331],[-11,-51],[125,-116],[33,-53],[88,-59],[38,-86],[-21,-57],[60,-36],[26,-54],[-34,-46],[31,-174]],[[3103,1599],[-75,-11],[-12,-45],[-84,44],[-25,-63],[-51,1],[-76,64],[-35,49],[-13,56],[-90,46],[-24,-81],[-36,11],[-43,-39],[-61,4],[41,72],[-28,35],[-59,13],[-129,-119],[-90,34],[8,-42]],[[2221,1628],[-54,58],[-18,87],[5,64],[29,99],[-126,162],[22,68],[-71,95],[-5,56],[70,81],[66,19],[-6,74],[67,11],[-27,92],[-45,27]],[[1382,2521],[151,22],[159,-31],[112,31],[82,10],[56,-8],[56,12],[45,58],[85,6]],[[2221,1628],[-13,-48],[12,-77],[-32,-93]],[[2188,1410],[-76,-72],[-90,-57],[15,-37],[-34,-32],[-46,-10],[-11,67],[-46,49],[-73,-56],[-120,72],[-77,-24],[-10,99],[12,39],[-29,75],[23,31],[-31,33],[-202,-103],[-83,-72],[-242,-134],[-57,-2]],[[1011,1276],[-73,98],[0,74],[-33,42],[-43,87],[-67,28],[-53,47],[61,37],[49,7],[-17,98],[12,22],[-9,107],[33,67],[43,14],[-83,67],[-13,64],[95,-4],[53,18],[23,49],[71,-75],[58,26],[142,37],[37,-106],[-44,-40],[2,-46],[71,6],[2,44],[46,37],[8,49],[-17,39],[25,51],[-15,39],[37,106],[-29,14],[-1,142]],[[2768,2331],[59,40],[60,-33],[72,77],[68,21],[6,-97],[84,-52],[-4,47],[52,21],[101,-112],[-13,-40],[39,-55],[66,-25],[78,98],[45,18],[101,81],[6,70],[44,25],[44,6],[28,-4],[68,76],[67,38],[35,93],[-19,45],[51,64],[0,69],[-28,44],[43,62],[205,-19],[26,24],[8,55],[-25,37],[22,68],[49,1],[61,40],[75,-22],[84,23],[19,33],[78,5],[90,91],[33,-13],[44,63],[-3,33]],[[4687,3327],[27,38],[47,20],[41,-79],[37,-42],[42,-105],[95,10],[59,-93],[29,-95],[57,-15],[35,30],[83,0],[43,-77],[-36,-81],[44,-29],[-35,-75],[-61,-38],[7,-45],[-42,-5],[-35,-63],[-102,-20],[-53,49],[-32,-24],[-12,-53],[-126,-24],[-74,-175],[-32,8],[-65,-74],[-29,-81],[21,-61],[-18,-64],[-58,-4],[-67,-169],[4,-66],[-31,-18],[-35,-80],[-37,-13],[-52,-96]],[[4326,1618],[-66,-30],[-67,-69],[-39,34],[-65,11],[-80,38],[-17,63],[44,28],[5,83],[-132,34],[-105,72],[-35,-53],[-78,-52],[2,-96],[-34,-45],[-77,-3],[15,-118],[-26,-38],[-68,9],[-114,-19],[-42,-54],[14,-71],[-105,-45],[-47,39],[-43,-56],[-89,66],[19,86],[57,55],[-23,93],[-27,19]],[[2191,2922],[101,1],[54,20],[88,-25],[48,44],[77,-6],[74,33],[11,86],[96,90],[38,-46],[65,0],[40,-58],[67,-1],[23,-46],[36,46],[60,2],[14,30],[141,110],[27,-21],[96,127],[7,69],[69,91],[2,56],[62,2],[53,32],[143,27],[32,-40],[30,11],[31,-48],[86,5],[49,-42],[26,37],[70,13],[36,-13],[24,48],[69,-1],[18,33],[62,-48],[5,-31],[75,-38],[37,-130],[75,-63],[48,-7],[28,28],[125,46],[78,-18]],[[4326,1618],[16,-31],[-66,-173],[-59,-31],[2,-35],[-30,-55],[35,-55],[-88,-99],[-67,-14],[-8,-61],[-47,-102],[45,-65],[-33,-55],[-54,-4],[-6,-70],[-24,-64],[-41,5],[-10,-49],[-29,-25],[-32,30],[-80,-6],[-38,33],[-77,-15],[-21,-32],[-26,-106],[-58,-50],[-72,63],[-36,16],[-34,-59],[-81,34],[-67,-54],[-69,42],[-35,-20],[-32,42],[-25,-42],[-38,41],[-63,-1],[-92,-61],[-46,26],[-47,50],[-52,-24],[-50,12],[-51,-46],[-68,-121],[-40,8],[-65,-48],[3,-22],[-108,-1],[-33,56],[-31,-51],[11,-46],[-58,-6],[-34,-41],[-44,12],[-29,-31],[-37,4]],[[2107,221],[-13,16],[50,119],[-98,9],[21,83],[26,18],[57,173],[27,19],[8,65],[-28,105],[27,68],[-19,139],[-28,55],[18,42],[71,28],[25,63],[-63,145],[0,42]],[[586,734],[118,-15],[24,39],[-21,77],[127,52],[-3,39],[29,48],[-9,125],[4,67],[45,89],[66,-3],[45,24]],[[2107,221],[-24,-45],[-67,50],[-60,-57],[-57,-99],[-113,-70],[-50,20],[-55,1],[-67,41],[-52,2],[-33,-32],[-63,38],[-132,-3],[-68,45],[-73,26],[-29,77],[-39,35],[-94,17],[-39,-26],[-16,65],[-48,-19],[-121,256],[-119,67],[-26,2],[-67,70],[-9,52]],[[586,734],[-59,81],[-75,26],[-32,67],[-28,5],[-82,53],[-11,76],[-92,86],[29,76],[-44,36],[-42,40],[-4,54],[27,55],[-44,40],[-47,4],[-82,-24],[53,102],[64,32],[20,45],[118,6],[53,73],[-44,47],[-28,109],[10,80],[38,40],[-35,159],[102,0],[56,51],[4,67],[42,29],[-41,125],[-50,-6],[-59,36],[-58,13],[29,43],[59,40],[-3,37],[69,6],[66,-26],[22,-68],[128,8],[141,25],[-18,26],[1,101],[-48,63],[53,24],[27,63],[17,84],[53,33],[60,-33],[45,-2],[75,-91],[17,-44],[118,-79],[89,-87],[47,-18],[90,-1]]],"transform":{"scale":[0.0012789151039697545,0.000793292725752507],"translate":[16.126571,45.7389227]},"objects":{"hu_slim":{"type":"GeometryCollection","geometries":[{"arcs":[[0,1,2,3,4]],"type":"Polygon","properties":{"srid":"4326","id":"22723","name":"Central Hungary","localname":"Közép-Magyarország","official_name":"","boundary":"adminstrative","admin_level":"5","note":"","wikidata":"Q852742","wikipedia":"hu:Közép-Magyarország","timestamp":"2019-01-23 06:22:29","rpath":"22723,22786,21335,0","alltags":{"name":"Közép-Magyarország","name:de":"Mittelungarn","name:en":"Central Hungary","name:hr":"Središnja Madžarska","name:it":"Ungheria Centrale","name:lt":"Centrinė Vengrija","name:ro":"Ungaria Centrală","name:ru":"Центральная Венгрия","boundary":"administrative","wikidata":"Q852742","wikipedia":"hu:Közép-Magyarország","admin_level":"5"}}},{"arcs":[[5,-5,6,7,8]],"type":"Polygon","properties":{"srid":"4326","id":"22783","name":"Central Transdanubia","localname":"Közép-Dunántúl","official_name":"","boundary":"adminstrative","admin_level":"5","note":"","wikidata":"Q962153","wikipedia":"hu:Közép-Dunántúl","timestamp":"2019-01-23 06:22:29","rpath":"22783,22787,21335,0","alltags":{"name":"Közép-Dunántúl","name:cs":"Střední Zadunají","name:de":"Mitteltransdanubien","name:en":"Central Transdanubia","name:hr":"Središnje Podunavlje","name:it":"Transdanubio Centrale","name:ro":"Transdanubia Centrală","name:ru":"Центрально-Задунайский край","boundary":"administrative","wikidata":"Q962153","wikipedia":"hu:Közép-Dunántúl","admin_level":"5"}}},{"arcs":[[9,10,11,-3]],"type":"Polygon","properties":{"srid":"4326","id":"22715","name":"Northern Great Plain","localname":"Észak-Alföld","official_name":"","boundary":"adminstrative","admin_level":"5","note":"","wikidata":"Q905227","wikipedia":"hu:Észak-Alföld","timestamp":"2019-01-23 06:22:29","rpath":"22715,22793,21335,0","alltags":{"name":"Észak-Alföld","name:en":"Northern Great Plain","name:hr":"Sjeverni Alföld","name:ro":"Nordul Marii Câmpii","name:ru":"Северный Альфёльд","boundary":"administrative","wikidata":"Q905227","wikipedia":"hu:Észak-Alföld","admin_level":"5"}}},{"arcs":[[12,-10,-2]],"type":"Polygon","properties":{"srid":"4326","id":"22711","name":"Northern Hungary","localname":"Észak-Magyarország","official_name":"","boundary":"adminstrative","admin_level":"5","note":"","wikidata":"Q732210","wikipedia":"hu:Észak-Magyarország","timestamp":"2019-01-23 06:22:29","rpath":"22711,22793,21335,0","alltags":{"name":"Észak-Magyarország","name:de":"Nordungarn","name:en":"Northern Hungary","name:ro":"Ungaria de Nord","name:ru":"Северная Венгрия","boundary":"administrative","wikidata":"Q732210","wikipedia":"hu:Észak-Magyarország","admin_level":"5"}}},{"arcs":[[-7,-4,-12,13,14]],"type":"Polygon","properties":{"srid":"4326","id":"22719","name":"Southern Great Plain","localname":"Dél-Alföld","official_name":"","boundary":"adminstrative","admin_level":"5","note":"","wikidata":"Q630305","wikipedia":"hu:Dél-Alföld","timestamp":"2019-01-23 06:22:29","rpath":"22719,22793,21335,0","alltags":{"name":"Dél-Alföld","name:de":"Südliche Große Tiefebene","name:en":"Southern Great Plain","name:hr":"Južni Alföld","name:hu":"Dél-Alföld","name:ro":"Sudul Marii Câmpii","name:ru":"Южный Альфёльд","name:sr":"Велика јужна равница","boundary":"administrative","wikidata":"Q630305","wikipedia":"hu:Dél-Alföld","admin_level":"5","name:sr-Latn":"Velika južna ravnica"}}},{"arcs":[[15,-8,-15,16]],"type":"Polygon","properties":{"srid":"4326","id":"22785","name":"Southern Transdanubia","localname":"Dél-Dunántúl","official_name":"","boundary":"adminstrative","admin_level":"5","note":"","wikidata":"Q781747","wikipedia":"hu:Dél-Dunántúl","timestamp":"2019-01-23 06:22:29","rpath":"22785,22787,21335,0","alltags":{"name":"Dél-Dunántúl","name:cs":"Jižní Zadunají","name:de":"Südtransdanubien","name:en":"Southern Transdanubia","name:hr":"Južno Podunavlje","name:ro":"Transdanubia de Sud","name:ru":"Южно-Задунайский край","boundary":"administrative","wikidata":"Q781747","wikipedia":"hu:Dél-Dunántúl","admin_level":"5"}}},{"arcs":[[-9,-16,17]],"type":"Polygon","properties":{"srid":"4326","id":"22784","name":"Western Transdanubia","localname":"Nyugat-Dunántúl","official_name":"","boundary":"adminstrative","admin_level":"5","note":"","wikidata":"Q852716","wikipedia":"hu:Nyugat-Dunántúl","timestamp":"2019-01-23 06:22:29","rpath":"22784,22787,21335,0","alltags":{"name":"Nyugat-Dunántúl","name:cs":"Západní Zadunají","name:de":"Westtransdanubien","name:en":"Western Transdanubia","name:hr":"Zapadno Podunavlje","name:it":"Transdanubio Occidentale","name:ro":"Transdanubia de Vest","name:ru":"Западно-Задунайский край","boundary":"administrative","wikidata":"Q852716","wikipedia":"hu:Nyugat-Dunántúl","admin_level":"5"}}}]}}}