{"type":"Topology","arcs":[[[2515,285],[-78,-1]],[[2437,284],[-19,51],[-42,42],[1,31],[25,44],[36,37],[92,-6]],[[2530,483],[16,-56],[-1,-70],[-18,-57],[-12,-15]],[[2853,274],[-168,-26],[-170,37]],[[2530,483],[78,-7],[7,107]],[[2615,583],[126,-16],[249,-130]],[[2990,437],[-23,-96],[-3,-48],[-111,-19]],[[4072,1169],[-144,-36],[-61,-10],[-216,-22]],[[3651,1101],[-68,30],[-17,33],[-41,111],[115,119]],[[3640,1394],[79,106],[0,90],[47,105],[41,40],[101,113],[87,71]],[[3995,1919],[74,-72],[37,-15],[21,-46],[5,-106],[41,-93],[44,-6]],[[4217,1581],[14,-137],[-45,-81],[-114,-194]],[[1724,935],[-265,-123]],[[1459,812],[-30,109]],[[1429,921],[-35,131],[-15,26],[-33,13],[-37,83],[-61,2],[-12,10],[0,83]],[[1236,1269],[1,43]],[[1237,1312],[143,96],[227,20]],[[1607,1428],[81,-87],[73,-14],[-3,-31],[32,-28],[-27,-121],[-39,-212]],[[3028,1199],[-22,-16],[16,-67],[-26,-8],[10,-48],[-23,-21],[4,-31],[-41,-32],[-52,-30],[-130,2]],[[2764,948],[33,171]],[[2797,1119],[118,318]],[[2915,1437],[81,-83],[3,-54],[12,-36],[28,-38],[-11,-27]],[[1236,1269],[-109,-36],[-27,6],[-41,-20],[-3,-28],[-48,-33],[-30,6],[-12,-32],[-37,-19],[-22,10],[-27,-19]],[[880,1104],[-24,6],[-69,59]],[[787,1169],[-18,47],[9,26],[34,6],[26,31],[13,60]],[[851,1339],[22,13],[77,-32],[45,48],[57,-2],[60,34]],[[1112,1400],[5,-22],[32,-33],[56,0],[32,-33]],[[472,2049],[-30,-21],[-43,-2],[-8,-39],[-26,-31],[17,-45],[1,-64],[17,-10],[6,-88],[-172,-91]],[[234,1658],[-114,121],[-62,56],[-10,22],[-3,244],[-45,114],[17,59],[39,9],[87,-71],[107,-28],[78,-3],[22,-11],[47,-46],[42,-57],[33,-18]],[[1429,921],[-88,-3],[-26,13],[-29,41],[-29,-17],[-15,-30],[-52,-10],[-31,-18],[-9,-44],[-17,-30],[-45,16]],[[1088,839],[-19,48],[-54,26],[-6,27],[-53,22],[37,64],[-44,2],[-18,32],[-28,10],[-23,34]],[[2764,948],[-38,-199],[-101,9]],[[2625,758],[-231,59],[-70,-30]],[[2324,787],[49,253],[23,57],[21,13],[18,36],[38,30],[14,36],[7,67],[43,17]],[[2537,1296],[-15,-39],[12,-24],[14,-80],[20,9],[229,-43]],[[2324,787],[-257,39]],[[2067,826],[-144,23]],[[1923,849],[8,221],[6,15],[43,23],[-21,100],[17,56],[60,72],[76,48],[7,-13],[116,39],[18,36],[3,56],[49,53]],[[2305,1555],[33,4],[36,-27],[31,28],[30,11],[27,-47],[-23,-13],[-2,-68],[38,17],[1,-52],[17,-48],[55,-44],[-11,-20]],[[3722,582],[-307,-16],[-81,-9]],[[3334,557],[-89,86],[-83,200],[-34,156],[0,80],[55,25],[26,-40],[42,26],[16,22]],[[3267,1112],[18,-29],[31,-13],[32,-42],[302,-5]],[[3650,1023],[1,-49],[77,-127],[-6,-265]],[[851,1339],[-20,5],[-36,37],[-64,44],[-9,75],[-31,25],[-29,2],[-10,39]],[[652,1566],[4,56],[-17,27],[41,23],[-14,49],[2,81],[51,69]],[[719,1871],[57,-51],[124,-101],[101,-78]],[[1001,1641],[35,-89],[48,-36],[21,-28],[7,-88]],[[652,1566],[-39,14],[7,-48],[-61,0],[-60,-68],[-20,-83],[-14,-20],[-48,-29]],[[417,1332],[-69,113],[-114,213]],[[472,2049],[113,-66],[134,-112]],[[2502,392],[-1,-1],[0,0],[1,1]],[[2503,394],[0,-1],[0,0],[-1,0],[0,0],[0,0],[1,1],[0,0]],[[2615,583],[10,175]],[[3028,1199],[21,10],[41,-11],[10,21],[35,-41],[33,-5],[86,-39],[13,-22]],[[3334,557],[-6,-49],[-53,-71],[-40,-9],[-245,9]],[[3640,1394],[-180,64]],[[3460,1458],[20,78],[-36,25],[-16,23],[0,47]],[[3428,1631],[134,13],[40,66],[49,122],[19,193],[26,81],[136,111],[36,-6],[67,-104],[5,-43],[-31,-95],[86,-50]],[[2915,1437],[46,124],[49,113]],[[3010,1674],[67,-45],[57,36],[26,9],[69,-9],[99,-19]],[[3328,1646],[-11,-42],[-116,-32],[12,-33],[3,-55],[122,-5],[122,-21]],[[3651,1101],[-1,-78]],[[3328,1646],[100,-15]],[[3697,388],[25,194]],[[4072,1169],[120,1],[139,-45],[84,-48],[61,-72],[124,-155],[157,-4],[67,-15]],[[4824,831],[69,-24]],[[4893,807],[-22,-84],[8,-91],[-16,-70],[-23,-38],[-30,-14],[-54,24],[-145,109],[-90,-139],[-35,-60],[-52,-52],[-70,-44],[-125,15],[-156,-16],[-121,17],[-41,25],[-89,7],[-76,-10],[-19,21],[-40,-19]],[[3697,388],[-12,-27],[-38,-41],[7,-57],[21,-74],[-67,-69],[-198,-119],[-20,-1],[-117,47],[-59,-24],[-19,1],[-96,65],[-49,2],[-126,83],[-24,25],[-47,75]],[[3593,262],[-19,10],[-34,-14],[29,-30],[24,34]],[[1806,1770],[-52,-9],[-47,-24],[-39,-47],[-48,-87],[-16,-75],[3,-100]],[[1001,1641],[72,-18],[46,10],[46,-1],[19,24],[24,-13],[72,127],[-20,45],[1,24],[32,55],[44,31],[42,18],[134,77],[31,53],[53,48],[26,-14],[107,-230],[29,-48],[47,-59]],[[4217,1581],[123,-16],[56,63],[40,-6],[99,-173],[46,-3],[106,94]],[[4687,1540],[173,-332],[-16,-78],[-49,-56],[-17,-31],[6,-23],[112,-43],[-47,-66],[-25,-80]],[[2350,1652],[-11,-34],[-26,-12],[-8,-51]],[[1923,849],[-64,10],[-135,76]],[[1806,1770],[-21,-51],[15,-40],[64,-57],[13,-25],[36,-18],[37,23],[39,8],[36,-17],[37,3],[37,20],[8,39],[38,18],[66,-2],[5,-15],[52,-16],[12,-14],[42,31],[28,-5]],[[2350,1652],[43,2]],[[2393,1654],[35,-34],[62,-14],[10,22],[32,5],[51,52],[8,43],[37,46],[30,23],[80,12],[39,-34],[32,11],[92,13]],[[2901,1799],[7,-24],[43,-55],[59,-46]],[[2393,1654],[38,64],[-10,44],[53,33],[-17,25],[7,28],[40,15],[12,113],[15,41],[21,25],[67,-8],[56,5],[48,-7],[29,-20],[52,4],[37,-12],[60,-205]],[[787,1169],[-69,-54],[17,-49],[-6,-24],[-58,-45]],[[671,997],[-59,82],[-138,155],[-57,98]],[[1088,839],[-21,-13],[-12,-81]],[[1055,745],[-155,-27],[-36,31],[-127,174],[-66,74]],[[1935,364],[-106,37]],[[1829,401],[30,64],[37,10],[9,-30],[21,-1],[16,-49],[-7,-31]],[[1451,639],[-45,-18],[5,-76],[-48,-55]],[[1363,490],[-74,34],[-43,30],[-53,67]],[[1193,621],[48,17],[68,10],[23,44],[63,54]],[[1395,746],[18,-40],[32,-27],[6,-40]],[[1699,420],[-67,-3],[-57,10],[-175,46],[-37,17]],[[1451,639],[23,17],[-15,156]],[[1724,935],[-18,-358],[-7,-47],[-25,-8],[23,-51],[2,-51]],[[1459,812],[-64,-66]],[[1193,621],[-99,131],[-39,-7]],[[4687,1540],[78,70],[41,-6],[109,-168],[68,-39],[61,-46],[181,-49],[101,-18],[174,-98],[92,-32],[0,-202],[0,-179],[0,-131],[-19,-56],[21,-22],[0,-294],[-18,-32],[-19,17],[-158,100],[-60,-19],[-152,-2],[-18,9],[-1,54],[81,231],[-35,43],[-37,70],[-109,59],[-63,29],[-112,-22]],[[2437,284],[-53,6],[-148,36],[-190,13],[-99,22]],[[1947,361],[4,41],[41,23],[-16,69],[12,22],[27,-1],[22,17],[-2,36],[15,28],[17,230]],[[1947,361],[-12,3]],[[1829,401],[-61,21],[-69,-2]]],"transform":{"scale":[0.008264288970325348,0.007632330792816469],"translate":[94.7890119,-11.196335]},"objects":{"admin_level_4":{"type":"GeometryCollection","geometries":[{"arcs":[[0,1,2]],"type":"Polygon","properties":{"ref":"BA","name":"Bali","name:id":"Provinsi Bali","name:ja":"バリ","name:lt":"Balio provincija","boundary":"administrative","timezone":"Asia/Makassar","wikidata":"Q4648","ISO3166-2":"ID-BA","population":"3383572","admin_level":"4","source:population":"http://id.wikipedia.org/wiki/Provinsi_Indonesia"},"id":1615621},{"arcs":[[3,-3,4,5,6]],"type":"Polygon","properties":{"ref":"NB","name":"Nusa Tenggara Barat","name:de":"West-Nusa Tenggara","name:en":"West Nusa Tenggara","name:ja":"西ヌサ・トゥンガラ","name:lt":"Vakarų Nusa Tengaros provincija","boundary":"administrative","timezone":"Asia/Makassar","wikidata":"Q5062","ISO3166-2":"ID-NB","population":"4184411","admin_level":"4","source:population":"http://id.wikipedia.org/wiki/Provinsi_Indonesia"},"id":1615622},{"arcs":[[7,8,9,10,11]],"type":"Polygon","properties":{"ref":"MU","name":"Maluku Utara","name:en":"North Maluku","name:ja":"北マルク","name:ru":"Северное Малуку","alt_name":"Provinsi Maluku Utara","boundary":"administrative","timezone":"Asia/Jayapura","wikidata":"Q5094","ISO3166-2":"ID-MU","wikipedia":"id:Maluku Utara","admin_level":"4"},"id":2396796},{"arcs":[[12,13,14,15,16,17]],"type":"Polygon","properties":{"name":"Kepulauan Bangka Belitung","name:de":"Bangka-Belitung","name:en":"Bangka-Belitung Islands","name:ja":"バンカ・ブリトゥン","name:ru":"Банка-Белитунг","boundary":"administrative","timezone":"Asia/Jakarta","wikidata":"Q1866","ISO3166-2":"ID-BB","admin_level":"4"},"id":3797243},{"arcs":[[18,19,20,21]],"type":"Polygon","properties":{"ref":"SR","name":"Sulawesi Barat","name:de":"West-Sulawesi","name:en":"West Sulawesi","name:ja":"西スラウェシ","boundary":"administrative","timezone":"Asia/Makassar","wikidata":"Q5082","ISO3166-2":"ID-SR","admin_level":"4"},"id":2388669},{"arcs":[[-16,22,23,24,25,26]],"type":"Polygon","properties":{"ref":"JA","name":"Jambi","name:ja":"ジャンビ","boundary":"administrative","timezone":"Asia/Jakarta","wikidata":"Q2051","ISO3166-2":"ID-JA","admin_level":"4"},"id":2390838},{"arcs":[[27,28]],"type":"Polygon","properties":{"ref":"AC","name":"Aceh","name:ja":"アチェ","name:ru":"Ачех","boundary":"administrative","timezone":"Asia/Jakarta","wikidata":"Q1823","ISO3166-2":"ID-AC","admin_level":"4"},"id":2390836},{"arcs":[[29,30,-23,-15]],"type":"Polygon","properties":{"ref":"SS","name":"Sumatera Selatan","name:de":"Süd-Sumatra","name:en":"South Sumatra","name:ja":"南スマトラ","boundary":"administrative","timezone":"Asia/Jakarta","wikidata":"Q2271","ISO3166-2":"ID-SS","admin_level":"4"},"id":2390842},{"arcs":[[31,32,33,34,-20]],"type":"Polygon","properties":{"ref":"KS","name":"Kalimantan Selatan","name:de":"Süd-Kalimantan","name:en":"South Kalimantan","name:ja":"南カリマンタン","name:ru":"Южный Калимантан","boundary":"administrative","timezone":"Asia/Makassar","wikidata":"Q3906","ISO3166-2":"ID-KS","admin_level":"4"},"id":2388615},{"arcs":[[-34,35,36,37,38]],"type":"Polygon","properties":{"ref":"KT","name":"Kalimantan Tengah","name:de":"Zentral-Kalimantan","name:en":"Central Kalimantan","name:ja":"中部カリマンタン","name:ru":"Центральный Калимантан","boundary":"administrative","timezone":"Asia/Pontianak","wikidata":"Q3891","ISO3166-2":"ID-KT","admin_level":"4"},"id":2388613},{"arcs":[[39,40,41,42]],"type":"Polygon","properties":{"ref":"SG","name":"Sulawesi Tenggara","name:de":"Südost-Sulawesi","name:en":"Southeast Sulawesi","name:ja":"南東スラウェシ","name:ru":"Юго-Восточный Сулавеси","boundary":"administrative","timezone":"Asia/Makassar","wikidata":"Q5075","ISO3166-2":"ID-SG","admin_level":"4"},"id":2388668},{"arcs":[[-26,43,44,45,46]],"type":"Polygon","properties":{"ref":"RI","name":"Riau","name:ja":"リアウ","name:ru":"Риау","boundary":"administrative","timezone":"Asia/Jakarta","ISO3166-2":"ID-RI","wikipedia":"id:Riau","admin_level":"4"},"id":2390840},{"arcs":[[47,48,-28,49,-45]],"type":"Polygon","properties":{"ref":"SU","name":"Sumatera Utara","name:de":"Nord-Sumatra","name:en":"North Sumatra","name:ja":"北スマトラ","name:ru":"Северная Суматра","boundary":"administrative","timezone":"Asia/Jakarta","wikidata":"Q2140","ISO3166-2":"ID-SU","admin_level":"4"},"id":2390843},{"arcs":[[50]],"type":"Polygon","properties":{"name":"Batas Dusun Muntigunung Tengah","boundary":"administrative","admin_level":"4"},"id":305277685},{"arcs":[[51]],"type":"Polygon","properties":{"name":"Batas Dusun Muntigunung Induk","boundary":"administrative","admin_level":"4"},"id":305285125},{"arcs":[[-6,52,-32,-19,53,-41,54]],"type":"Polygon","properties":{"ref":"SN","name":"Sulawesi Selatan","name:de":"Süd-Sulawesi","name:en":"South Sulawesi","name:ja":"南スラウェシ","name:ru":"Южный Сулавеси","boundary":"administrative","timezone":"Asia/Makassar","wikidata":"Q5078","ISO3166-2":"ID-SN","admin_level":"4"},"id":2388667},{"arcs":[[-10,55,56,57]],"type":"Polygon","properties":{"ref":"SA","name":"Sulawesi Utara","name:de":"Nord-Sulawesi","name:en":"North Sulawesi","name:ja":"北スラウェシ","name:ru":"Северный Сулавеси","boundary":"administrative","timezone":"Asia/Makassar","wikidata":"Q5068","ISO3166-2":"ID-SA","admin_level":"4"},"id":2388666},{"arcs":[[-42,-54,-22,58,59,60,-56,-9,61]],"type":"Polygon","properties":{"ref":"ST","name":"Sulawesi Tengah","name:de":"Zentral-Sulawesi","name:en":"Central Sulawesi","name:ja":"中部スラウェシ","name:ru":"Центральный Сулавеси","boundary":"administrative","timezone":"Asia/Makassar","wikidata":"Q5065","ISO3166-2":"ID-ST","admin_level":"4"},"id":2388664},{"arcs":[[-61,62,-57]],"type":"Polygon","properties":{"ref":"GO","name":"Gorontalo","name:ja":"ゴロンタロ","boundary":"administrative","timezone":"Asia/Makassar","wikidata":"Q5067","ISO3166-2":"ID-GO","admin_level":"4"},"id":2388665},{"arcs":[[63,-43,-62,-8,64,65,66]],"type":"Polygon","properties":{"ref":"MA","name":"Maluku","name:ja":"マルク","name:ru":"Малуку","boundary":"administrative","timezone":"Asia/Jayapura","wikidata":"Q5093","ISO3166-2":"ID-MA","admin_level":"4"},"id":2396795},{"arcs":[[-64,67,-7,-55,-40],[68]],"type":"Polygon","properties":{"ref":"NT","name":"Nusa Tenggara Timur","name:de":"Ost-Nusa Tenggara","name:en":"East Nusa Tenggara","name:ja":"東ヌサ・トゥンガラ","name:ru":"Восточные Малые Зондские острова","boundary":"administrative","timezone":"Asia/Makassar","wikidata":"Q5061","ISO3166-2":"ID-NT","admin_level":"4"},"id":2396778},{"arcs":[[69,-17,-27,-47,70]],"type":"Polygon","properties":{"name":"Kepulauan Riau","name:de":"Riauinseln","name:en":"Riau Islands","name:ja":"リアウ諸島","name:ru":"Острова Риау","boundary":"administrative","timezone":"Asia/Jakarta","wikidata":"Q2223","ISO3166-2":"ID-KR","admin_level":"4"},"id":3797244},{"arcs":[[-65,-12,71,72]],"type":"Polygon","properties":{"ref":"PB","name":"Papua Barat","source":"http://en.wikipedia.org/wiki/File:Irjabar.jpg","name:en":"West Papua","name:ja":"西パプア","name:ru":"Западное Папуа","boundary":"administrative","timezone":"Asia/Jayapura","ISO3166-2":"ID-PB","wikipedia":"en:West Papua (province)","admin_level":"4"},"id":4521145},{"arcs":[[73,-38,74,-18,-70,75]],"type":"Polygon","properties":{"ref":"KB","name":"Kalimantan Barat","name:de":"West-Kalimantan","name:en":"West Kalimantan","name:ja":"西カリマンタン","name:ru":"Западный Калимантан","boundary":"administrative","timezone":"Asia/Pontianak","wikidata":"Q3916","ISO3166-2":"ID-KB","admin_level":"4"},"id":2388616},{"arcs":[[-21,-35,-39,-74,76,77,78,-59]],"type":"Polygon","properties":{"ref":"KI","name":"Kalimantan Timur","place":"suburb","source":"https://en.wikipedia.org/wiki/East_Kalimantan","name:de":"Ost-Kalimantan","name:en":"East Kalimantan","name:ja":"東カリマンタン","name:ru":"Восточный Калимантан","boundary":"administrative","timezone":"Asia/Makassar","ISO3166-2":"ID-KI","wikipedia":"id:Kalimantan Timur","admin_level":"4","wikipedia:en":"East_Kalimantan"},"id":5449459},{"arcs":[[-78,79]],"type":"Polygon","properties":{"ref":"KU","name":"Kalimantan Utara","place":"suburb","source":"https://en.wikipedia.org/wiki/North_Kalimantan","name:de":"Nord-Kalimantan","name:en":"North Kalimantan","name:ja":"北カリマンタン","boundary":"administrative","timezone":"Asia/Makassar","ISO3166-2":"ID-KU","wikipedia":"de:Kalimantan Utara","admin_level":"4","wikipedia:en":"North_Kalimantan"},"id":5449460},{"arcs":[[80,81,-48,-44,-25]],"type":"Polygon","properties":{"ref":"SB","name":"Sumatera Barat","name:de":"West-Sumatra","name:en":"West Sumatra","name:ja":"西スマトラ","name:ru":"Западная Суматра","boundary":"administrative","timezone":"Asia/Jakarta","wikidata":"Q2772","ISO3166-2":"ID-SB","admin_level":"4"},"id":2390841},{"arcs":[[82,83,-81,-24,-31]],"type":"Polygon","properties":{"ref":"BE","name":"Bengkulu","name:ja":"ブンクル","boundary":"administrative","timezone":"Asia/Jakarta","wikidata":"Q1890","ISO3166-2":"ID-BE","admin_level":"4"},"id":2390837},{"arcs":[[84,85]],"type":"Polygon","properties":{"name":"Daerah Istimewa Yogyakarta","name:de":"Sonderregion Yogyakarta","name:en":"Special Region of Yogyakarta","name:ja":"ジョグジャカルタ特別州","boundary":"administrative","timezone":"Asia/Jakarta","wikidata":"Q3741","ISO3166-2":"ID-YO","admin_level":"4"},"id":5616105},{"arcs":[[86,87,88,89]],"type":"Polygon","properties":{"ref":"BT","name":"Banten","name:en":"Banten","name:ja":"バンテン","name:ru":"Бантен","boundary":"administrative","timezone":"Asia/Jakarta","wikidata":"Q3540","ISO3166-2":"ID-BT","wikipedia":"en:Banten","admin_level":"4","wikipedia:en":"Banten","wikipedia:ru":"Бантен"},"id":2388356},{"arcs":[[90,-87,91,-13,92]],"type":"Polygon","properties":{"ref":"JB","name":"Jawa Barat","name:de":"West-Java","name:en":"West Java","name:es":"Java Occidental","name:ja":"西ジャワ","boundary":"administrative","timezone":"Asia/Jakarta","wikidata":"Q3724","ISO3166-2":"ID-JB","admin_level":"4"},"id":2388361},{"arcs":[[93,-89,94,-83,-30,-14]],"type":"Polygon","properties":{"ref":"LA","name":"Lampung","name:ja":"ランプン","boundary":"administrative","timezone":"Asia/Jakarta","wikidata":"Q2110","ISO3166-2":"ID-LA","admin_level":"4"},"id":2390839},{"arcs":[[-90,-94,-92]],"type":"Polygon","properties":{"name":"Daerah Khusus Ibukota Jakarta","name:en":"Jakarta Special Capital Region","boundary":"administrative","timezone":"Asia/Jakarta","ISO3166-2":"ID-JK","admin_level":"4"},"id":6362934},{"arcs":[[-66,-73,95]],"type":"Polygon","properties":{"ref":"PA","name":"Papua","source":"http://en.wikipedia.org/wiki/File:Irjabar.jpg","name:en":"Papua","name:ja":"パプア","name:ru":"Папуа","boundary":"administrative","timezone":"Asia/Jayapura","ISO3166-2":"ID-PA","wikipedia":"en:Papua_(province)","admin_level":"4"},"id":4521144},{"arcs":[[-53,-5,-2,96,97,-36,-33]],"type":"Polygon","properties":{"ref":"JI","name":"Jawa Timur","name:de":"Ost-Java","name:en":"East Java","name:ja":"東ジャワ","name:ru":"Восточная Ява","boundary":"administrative","timezone":"Asia/Jakarta","wikidata":"Q3586","ISO3166-2":"ID-JI","population":"37476757","admin_level":"4","source:population":"http://id.wikipedia.org/wiki/Provinsi_Indonesia"},"id":3438227},{"arcs":[[-98,98,-86,99,-93,-75,-37]],"type":"Polygon","properties":{"ref":"JT","name":"Jawa Tengah","name:de":"Zentral-Java","name:en":"Central Java","name:es":"Java Central","name:ja":"中部ジャワ","name:ru":"Центральная Ява","boundary":"administrative","timezone":"Asia/Jakarta","wikidata":"Q3557","ISO3166-2":"ID-JT","admin_level":"4"},"id":2388357}]}}}