{"type":"Topology","arcs":[[[2731,12863],[59,93],[-16,7],[135,230],[51,60],[29,17],[22,38],[131,249],[40,83]],[[3182,13640],[81,-33],[91,-27],[47,22],[99,-31],[116,-12],[23,39],[51,-9],[32,69],[56,52],[49,56],[137,-39],[13,15],[79,-14],[80,0],[24,9],[-49,64],[-21,72],[13,12],[-8,42],[8,79],[-50,-15],[-105,-15],[-10,44],[16,64],[0,48],[33,104],[78,2],[35,33],[-16,61],[-67,72],[-1,23],[37,28],[27,94],[-50,10],[0,27],[-62,19],[-37,26],[-37,3],[-1,26],[-89,9],[-87,30],[-13,20]],[[3704,14719],[50,101],[88,220],[165,488],[85,260],[-4,17],[5,-2],[-1,5],[0,0],[24,48]],[[4116,15856],[81,-10],[20,-11],[177,-21],[17,43],[52,6],[184,-21],[88,-19],[119,-9],[137,-57],[45,-75],[-15,-67],[19,-21],[75,21],[10,40],[167,18]],[[5292,15673],[51,-7],[17,-52],[-23,-40],[-49,-25],[3,-43],[-20,-7],[-69,6],[-11,-37],[-45,6],[-28,-16],[-5,-158],[-12,-84],[-32,-68],[74,-9],[41,-31],[32,-43],[-13,-30],[-33,-31],[1,-32],[-32,-34],[6,-44],[-40,6],[-63,-63],[-94,-61],[-15,-28],[-93,-37],[-66,-1],[-24,-10],[-36,-47],[17,-78],[34,-13],[87,-79],[-19,-35],[32,-19],[51,-2],[26,-35],[-32,-65],[2,-37],[20,-45],[27,-23],[-13,-46],[-33,-11],[-7,-30],[48,-126],[42,-83],[29,-79],[18,-108],[-39,-24],[-1,-111],[-16,-75],[-20,-57],[-49,-12],[23,-52],[72,-59],[30,-6],[25,-29],[-41,-24],[2,-24],[72,-42],[101,-10],[41,-31],[30,-69],[2,-114],[-13,-84],[-24,-63],[-39,-14],[-77,3],[-119,-14]],[[5003,12828],[-47,4],[-137,0],[-98,-6],[-55,-25],[-56,-11],[-21,7],[-30,-41],[-30,-6],[-42,13],[-91,-57],[23,-101],[-98,-15],[-88,-1],[-94,-10],[-210,-31],[-87,-53],[-59,-27]],[[3783,12468],[-39,-46],[-42,-32],[-92,-53],[29,-22],[-27,-14],[-29,22],[-37,-8],[-59,93],[-9,54],[-24,31],[-59,9],[-4,-68],[-67,33],[38,25],[35,64],[-91,32],[-57,9],[-36,16],[-50,-54],[-29,0],[-95,21],[-12,-41],[74,-21],[9,-44],[67,-8],[-35,-48],[-49,15],[-46,-25],[-34,-40],[-61,13],[-102,54],[-89,-12],[-12,10],[107,73],[29,37],[-38,31],[-41,13],[-36,-24],[-17,57],[12,65],[49,-3],[97,26],[0,45],[89,3],[1,34],[23,4],[0,35],[-53,-20],[-8,44],[-46,17],[-77,-2],[-9,-42],[-37,7],[-63,30]],[[5544,18474],[68,-19],[46,-75],[-6,-41],[-34,-44],[39,1],[9,73],[52,-9],[19,-61],[-4,-43],[33,-18],[-29,-20],[50,-30],[-28,-29],[7,-35],[79,-11],[80,-20],[120,-6],[-26,-80],[26,-37],[50,-26],[-51,-32],[-16,-40],[89,-16],[-7,-39],[-52,-15],[9,-36],[-25,-59],[-53,-3],[-14,-47],[-52,-24],[-1,-35],[44,-7],[32,18],[24,46],[17,-74],[-37,-5],[-7,-23],[-86,-32],[8,-51],[22,-15],[-99,-24],[-51,17],[-31,-42],[15,-31],[-10,-39],[-32,1],[8,-42],[-30,-29],[15,-52],[-53,-8],[-11,-15],[-115,-24],[11,-62],[-38,-13],[-60,-3],[11,22],[-77,22],[-73,-5],[7,-28],[37,-35],[-53,-22],[-1,-18],[93,-17],[-56,-58],[-59,-48],[-59,-1],[-24,-24],[23,-23],[-4,-54],[62,3],[26,-10],[-10,-57],[64,-8],[-31,-31],[-34,6],[-75,-27],[175,-56],[15,-25],[60,-5],[41,-18],[61,6],[13,-67],[43,4],[7,19],[76,39],[59,-12],[186,0],[26,23],[-1,57],[33,25],[99,9],[65,-2],[43,15],[47,-58],[78,-14],[-8,-45],[41,-22]],[[6384,16549],[-105,-84],[-35,5],[-26,-34],[-89,-51],[-25,-26],[-37,-10],[-103,-48],[-122,-61],[-60,-14],[-43,-22],[-33,15],[-66,-11],[-47,-40],[-73,-39],[-25,-47],[-39,-23],[1,-30],[-24,-22],[-36,-109],[-23,-16],[11,-25],[-9,-47],[-31,-33],[-16,-37],[-47,-52],[10,-15]],[[4116,15856],[18,38],[43,140],[-5,10],[42,104],[2,43],[31,76],[11,80],[32,39],[46,154],[23,66],[-2,30],[24,30],[39,140],[21,112],[-9,54],[28,27],[10,54],[-3,57],[32,43],[25,130],[-20,32],[12,21],[-5,75],[48,13],[57,63],[38,142],[38,230],[2,14],[16,110],[-17,83],[7,41],[48,21],[56,11],[75,27],[71,-34],[-1,-23],[53,-15],[35,-29],[35,26],[14,-47],[42,-9],[55,8],[59,26],[-16,33],[-32,-3],[-7,39],[51,-9],[36,-41],[28,12],[62,56],[48,55],[58,93],[57,122],[17,48]],[[5003,12828],[-29,-9],[-20,-31],[-95,-50],[-4,-26],[41,-10],[222,-14],[68,14],[31,15],[110,88],[81,33],[97,0],[72,-20],[35,-26],[50,-66],[50,-14],[6,-29],[31,-22],[71,12],[38,-11],[84,-46],[101,-22],[182,-18],[65,8],[-38,59],[14,31],[73,4],[82,-18],[21,-34],[36,11],[8,108],[-17,44],[5,20],[-21,67],[-34,13],[-16,39],[20,35],[26,17],[64,3],[19,-21],[18,-62],[16,-20],[-20,-61],[34,-54],[23,-4],[58,18],[46,-1],[57,-30],[-40,-49],[87,-20],[-48,-71],[-2,-54],[20,-16],[3,-45],[15,-14],[-35,-52],[-23,-53],[-5,-42],[47,-33],[-1,-24],[26,-21],[-76,-60],[-17,-65],[-41,-31],[-7,-42],[-25,-14],[-54,18],[-46,33],[-37,-18],[-91,43],[-178,-16],[-100,64],[-76,7],[-36,13],[-52,-38],[-33,5],[-12,24],[-51,-26],[-37,-46],[-5,-27],[-25,-13],[-74,5],[-99,-81],[-38,-18],[-8,-32],[-124,-42],[-52,-30],[-103,-49],[-119,-51],[-142,-34],[-66,-43],[-59,-52],[-85,-94],[-98,-79]],[[4742,11465],[-76,55],[-88,4],[-47,10],[-83,47],[-78,59],[-85,49],[-139,57],[-31,8],[14,49],[-22,11],[7,55],[-22,32],[46,32],[-53,20],[11,49],[36,66],[-20,13],[-21,49],[-42,31],[35,33],[55,3],[2,55],[-65,24],[-68,-3],[-91,20],[25,30],[-21,34],[-40,38],[10,46],[-57,3],[-51,24]],[[5544,18474],[16,86],[-18,54],[-55,0],[-2,-1],[-24,1],[39,83],[32,190],[34,79],[-4,21],[34,72],[74,220],[42,87],[10,50],[9,138],[15,12],[52,-9],[70,1],[63,-8],[38,5],[81,-8],[2,-25],[46,1],[124,34],[71,-17],[23,-21],[108,17],[4,33],[30,28],[96,-7],[39,-28],[45,-7],[48,14],[64,4],[112,27],[57,1],[94,40],[42,-15],[7,-26],[59,2],[52,22],[52,-51],[-23,-40],[46,-49],[43,-15],[35,-46],[32,-13],[31,-31],[73,-15],[4,-27],[99,17],[21,-9],[34,43],[74,-3],[234,25],[29,0],[34,51],[68,87],[113,12],[145,-5],[45,-13],[29,9],[59,-10],[-3,129],[14,13],[100,3],[39,45],[44,19],[1,32],[-34,44],[38,111],[20,38],[45,159],[-37,55],[3,118],[72,39],[-11,66],[67,47],[8,32],[53,59],[-10,47],[32,35],[60,-20],[54,-28],[4,-48],[-12,-28],[75,-39],[24,-31],[93,-31],[63,-28],[32,16],[-36,35],[24,39],[-25,55],[12,11],[145,42],[67,7],[53,-3],[34,30],[35,9],[47,37],[26,-12],[59,33],[39,-19],[11,34],[59,17],[21,39],[90,20],[49,47],[28,16],[72,-6],[73,24],[56,6],[20,16],[51,6],[101,-34],[172,-67],[-172,-141],[-73,-78],[45,-59],[179,-79],[33,-35],[7,-151],[8,-76],[140,-55],[46,-138],[-137,-159],[-43,-60],[-8,-78],[133,-42],[96,-16],[20,-103],[34,-123],[83,-376],[6,-55],[99,-116],[63,-82],[-104,-100],[-47,-17],[-54,-65],[-24,-20],[-71,-98],[-46,-106],[9,-93],[-55,-136],[-143,-120],[-112,-129],[-38,-2],[-84,-41],[-201,-179],[3,-9],[-57,-48],[-53,9],[-31,-46],[-55,8],[-42,-19],[-9,-30],[-39,12],[-33,-21],[-104,-35],[-31,2],[-75,-16],[3,-37],[-38,-33],[27,-37],[-65,-30],[-28,0],[-37,25],[-65,-38],[-77,45],[-67,-43],[-65,12],[-71,-32],[-4,-24],[-40,-7],[-2,-18],[53,-32],[-11,-46],[-64,7],[-50,-8],[16,-34],[-33,-11],[-45,11],[-20,-15],[-35,26],[-22,-20],[-9,-73],[-35,-24],[41,-19],[36,-46],[-6,-45],[-36,-7],[4,-41],[32,9],[43,-7],[-16,-61],[15,-29],[-17,-79],[-32,-9],[41,-38],[1,-25],[-45,-45],[-7,-30],[-58,-2],[-7,-39],[49,-33],[-16,-21],[-64,0],[-10,-44],[73,-34],[-23,-15],[42,-34],[18,10],[43,-18],[27,-45],[-76,-49],[-49,-77],[81,-32],[-23,-33],[-26,0],[11,-67],[-37,-38],[-38,8],[-31,-50],[-8,-33],[35,-26],[7,-48],[20,-28],[-94,0],[19,-44],[36,-22],[-94,-10],[-57,26],[-287,60],[-81,41],[-82,10],[-94,3],[-58,-12],[-24,-26],[-72,18],[-81,43],[-57,118],[17,13],[21,81],[29,14],[-35,54],[-69,81],[10,20],[-25,75],[-84,22],[-43,0],[-16,17],[-74,36],[-90,20],[-106,3],[-103,-27],[-140,-22],[-80,-3],[-151,31],[-141,42],[-108,71],[-83,88],[-59,-24],[-8,-18],[-92,-30]],[[4742,11465],[-60,-47],[-37,-76],[-13,-86],[-27,-90],[6,-108],[-11,-26],[26,-76],[-13,-55],[-35,-73],[-83,-118],[-134,-122],[-34,-23],[-47,-77],[-52,-76],[-32,-68],[1,-29],[41,-59],[16,-47],[76,-58],[58,-29],[18,-35],[55,-34],[44,-10],[46,6],[17,20],[36,-1],[44,18],[52,-6],[112,8],[236,41],[221,5],[42,-4],[157,2],[220,-12],[100,3],[138,-8],[111,34],[64,12],[102,5],[216,40],[116,4],[50,11],[217,132],[40,28],[89,48],[39,12],[45,38],[81,43],[115,53],[196,105],[46,28],[152,75],[100,75],[73,18],[81,0],[21,7],[85,-4],[34,6],[255,0],[14,-67],[-12,-105],[-5,-105],[-16,-142],[-17,-45],[-14,-95],[-47,-120],[-27,-50],[-87,-116],[-88,-107],[-64,-87],[-104,-130],[-36,-82],[-14,-73],[6,-75],[27,-72],[47,-86],[81,-58],[21,-35],[85,-107],[75,-87],[29,-74],[18,-84],[-10,-129],[-30,-81],[-52,-92],[-105,-122],[-63,-251],[0,-194],[-11,-94],[-99,-97],[-55,-36],[-156,1],[-116,-100],[-86,-127],[-59,-96],[-9,-28],[-13,-112],[52,-123],[25,-18],[-28,-91],[-101,-10],[-45,-37],[-12,-112],[-39,-40],[-84,-1],[-9,-147],[-56,-66],[52,-22],[-2,-35],[-22,-14],[-59,3],[-35,-48],[-20,-62],[-39,-30],[19,-24],[-56,-41],[23,-25],[-32,-61],[-189,-138],[-79,-67],[-22,-60],[-50,-76],[-52,-65],[-1,-182],[-60,-79],[-13,-191],[-47,-60],[-33,-89],[-133,-164],[-1,-123],[26,-98],[86,-130],[70,-114],[24,-52],[-183,-168],[-72,-46],[-59,-134],[19,-83],[9,-75],[-34,-63],[40,-146],[2,-65],[-33,-100],[-13,-117],[71,-42],[-27,-62],[68,-49],[-22,-32],[30,-33],[-32,-45],[-29,-109],[-11,-63],[-40,-108],[-103,-6],[-123,-122],[-81,-146],[65,-17],[-1,-33],[45,-10],[-4,-33],[-118,-20],[-31,-55],[-43,-48],[26,-16],[-20,-34],[-73,-33],[-21,-38],[57,-18],[5,-38],[-45,-54],[-3,-28],[30,-15],[20,-174],[-1,-25],[-39,-44],[0,-31],[-67,-46],[-12,-38],[-35,-40],[-84,-162],[6,-45],[-36,-46],[-10,-77],[-79,-61],[-17,-27],[-99,-295],[-15,-37],[-9,-76],[63,-132],[-10,-90],[-35,-92],[-95,-94],[-20,-39],[-45,-60],[-28,-53],[-60,-90],[2,-62],[-8,-125],[-105,31],[-53,4],[-28,-43],[-45,-27],[-5,-18],[-84,-70],[-27,-32],[-88,-86],[-69,-27],[-58,104],[-71,80],[-43,87],[-41,192],[-42,103],[55,89],[26,75],[2,92],[-56,86],[-2,47],[-23,1],[-27,59],[-31,30],[-18,72],[-54,345],[-26,90],[-50,30],[11,35],[-42,20],[-13,33],[28,23],[-49,11],[-15,34],[-14,71],[6,21],[-54,50],[-99,179],[-137,284],[-44,107],[-129,282],[-55,128],[-118,229],[-8,62],[-135,261],[-31,29],[-39,57],[-58,126],[-35,61],[-151,332],[-69,139],[-107,225],[-83,169],[-42,65],[-40,137],[-203,91],[-43,42],[-66,8],[-70,56],[-36,-6],[-40,13],[5,22],[-35,22],[-2,71],[-44,23],[63,135],[-3,30],[27,44],[-16,49],[21,79],[31,27],[-145,112],[-9,-20],[-107,102],[-6,84],[19,200],[-13,43],[23,52],[-23,20],[-34,92],[-68,213],[-33,63],[4,33],[-92,144],[-47,66],[-152,232],[-81,134],[-76,110],[-126,195],[-62,83],[-45,97],[-13,12],[-34,89],[-63,124],[-122,255],[-46,88],[-59,130],[-45,88],[-55,96],[-59,137],[-141,304],[-128,283],[-36,91],[-83,172],[75,46],[103,74],[155,52],[105,61],[33,30],[40,53],[166,67],[46,85],[-34,165],[-24,136],[16,43],[30,15],[60,94],[106,75],[62,47],[18,-2],[74,51],[36,13],[92,92],[58,19],[52,45],[79,49],[90,82],[50,21],[160,99],[28,13],[82,12],[34,18],[117,37],[51,31],[-3,14],[36,39],[38,19],[19,44],[-16,14],[-296,170],[-208,114],[37,40],[75,85],[55,63],[71,60],[122,126],[96,107],[20,12],[140,161],[122,157],[56,67],[170,241],[56,95],[50,50],[-42,16],[36,46],[-27,23],[8,28],[90,0],[34,46],[32,21]],[[3182,13640],[38,86],[1,21],[45,81],[-5,36],[45,55],[42,17],[38,64],[37,93],[52,84],[94,206],[36,88],[-16,16],[48,67],[45,130],[22,35]]],"transform":{"scale":[0.00014628114326802093,0.00018402637704761],"translate":[34.2674994,29.493528999999995]},"objects":{"il_slim":{"type":"GeometryCollection","geometries":[{"arcs":[[0,1,2,3,4,5,6]],"type":"Polygon","properties":{"srid":"4326","id":"1400928","name":"Center District","localname":"מחוז המרכז","official_name":"","boundary":"adminstrative","admin_level":"4","note":"","wikidata":"Q188785","wikipedia":"de:Zentralbezirk (Israel)","timestamp":"2018-11-09 05:16:23","rpath":"1400928,1473946,0","alltags":{"name":"מחוז המרכז","name:ar":"المنطقة الوسطى","name:de":"Zentralbezirk","name:en":"Center District","name:es":"Distrito Central","name:fi":"Keski-Israelin hallintoalue","name:fr":"District centre","name:he":"מחוז המרכז","name:hu":"Központi körzet","name:it":"Distretto Centrale","name:pl":"Dystrykt Centralny","name:pt":"Distrito Central","name:ro":"Districtul Central","name:ru":"Центральный округ","boundary":"administrative","wikidata":"Q188785","ISO3166-2":"IL-M","wikipedia":"de:Zentralbezirk (Israel)","admin_level":"4","complete:relation":"yes"}}},{"arcs":[[7,8,-4,9]],"type":"Polygon","properties":{"srid":"4326","id":"1400966","name":"Haifa District","localname":"מחוז חיפה","official_name":"","boundary":"adminstrative","admin_level":"4","note":"","wikidata":"Q185845","wikipedia":"de:Bezirk Haifa","timestamp":"2018-11-09 05:16:23","rpath":"1400966,1473946,0","alltags":{"name":"מחוז חיפה","name:ar":"منطقة حيفا","name:de":"Bezirk Haifa","name:en":"Haifa District","name:es":"Distrito de Haifa","name:fi":"Haifan hallintoalue","name:fr":"District de Haïfa","name:he":"מחוז חיפה","name:hu":"Haifai körzet","name:it":"Distretto di Haifa","name:pt":"Distrito de Haifa","name:ro":"Districtul Haifa","name:ru":"Хайфский округ","boundary":"administrative","wikidata":"Q185845","ISO3166-2":"IL-HA","wikipedia":"de:Bezirk Haifa","admin_level":"4","complete:relation":"yes"}}},{"arcs":[[-6,10,11]],"type":"Polygon","properties":{"srid":"4326","id":"1384720","name":"Jerusalem District","localname":"מחוז ירושלים","official_name":"","boundary":"adminstrative","admin_level":"4","note":"","wikidata":"Q192232","wikipedia":"en:Jerusalem District","timestamp":"2018-11-09 05:16:23","rpath":"1384720,1473946,0","alltags":{"name":"מחוז ירושלים","name:ar":"منطقة القدس","name:de":"Bezirk Jerusalem","name:en":"Jerusalem District","name:es":"Distrito de Jerusalén","name:fi":"Jerusalemin hallintoalue","name:fr":"District de Jérusalem","name:he":"מחוז ירושלים","name:hu":"Jeruzsálemi körzet","name:it":"Distretto di Gerusalemme","name:pt":"Distrito de Jerusalém","name:ro":"Districtul Ierusalim","name:ru":"Иерусалимский округ","boundary":"administrative","int_name":"Jerusalem District","wikidata":"Q192232","ISO3166-2":"IL-JM","wikipedia":"en:Jerusalem District","admin_level":"4"}}},{"arcs":[[12,-8]],"type":"Polygon","properties":{"srid":"4326","id":"1375620","name":"North District","localname":"מחוז הצפון","official_name":"","boundary":"adminstrative","admin_level":"4","note":"","wikidata":"Q189942","wikipedia":"en:Northern District (Israel)","timestamp":"2018-11-09 05:16:23","rpath":"1375620,1473946,0","alltags":{"name":"מחוז הצפון","name:ar":"المنطقة الشمالية","name:de":"Nordbezirk","name:en":"North District","name:es":"Distrito Norte","name:fi":"Pohjoinen hallintoalue","name:fr":"District nord","name:he":"מחוז הצפון","name:hu":"Északi körzet","name:it":"Distretto Nord","name:lt":"Šiaurės apskritis","name:pl":"Dystrykt Północny","name:pt":"Distrito Norte","name:ro":"Districtul de Nord","name:ru":"Северный округ","boundary":"administrative","name:en1":"Mahoz HaZafon","wikidata":"Q189942","ISO3166-2":"IL-Z","wikipedia":"en:Northern District (Israel)","admin_level":"4","complete:relation":"yes"}}},{"arcs":[[-7,-12,13]],"type":"Polygon","properties":{"srid":"4326","id":"1473952","name":"South District","localname":"מחוז הדרום","official_name":"","boundary":"adminstrative","admin_level":"4","note":"","wikidata":"Q188781","wikipedia":"en:Southern District (Israel)","timestamp":"2018-11-09 05:16:23","rpath":"1473952,1473946,0","alltags":{"name":"מחוז הדרום","name:ar":"منطقة الجنوب","name:de":"Südbezirk","name:el":"Νότια Περιοχή","name:en":"South District","name:es":"Distrito Meridional","name:fi":"Eteläinen hallintoalue","name:fr":"District sud","name:he":"מחוז הדרום","name:hu":"Déli körzet","name:it":"Distretto Sud","name:pl":"Dystrykt Południowy","name:pt":"Distrito Sul","name:ro":"Districtul de Sud","name:ru":"Южный округ","name:uk":"Південний округ","boundary":"administrative","name:ar1":"المنطقة الجنوبية","wikidata":"Q188781","ISO3166-2":"IL-D","wikipedia":"en:Southern District (Israel)","admin_level":"4","complete:relation":"yes"}}},{"arcs":[[14,-2]],"type":"Polygon","properties":{"srid":"4326","id":"1400916","name":"Tel Aviv District","localname":"מחוז תל אביב","official_name":"","boundary":"adminstrative","admin_level":"4","note":"","wikidata":"Q192811","wikipedia":"de:Bezirk Tel Aviv","timestamp":"2018-11-09 05:16:23","rpath":"1400916,1473946,0","alltags":{"name":"מחוז תל אביב","name:de":"Bezirk Tel Aviv","name:el":"Περιφέρεια Τελ Αβίβ","name:en":"Tel Aviv District","name:es":"Distrito de Tel Aviv","name:fi":"Tel Avivin hallintoalue","name:fr":"District de Tel Aviv","name:he":"מחוז תל אביב","name:hu":"Tel-Avivi körzet","name:it":"Distretto di Tel Aviv","name:pl":"Dystrykt Tel Awiwu","name:pt":"Distrito de Tel Aviv","name:ro":"Districtul Tel Aviv","name:ru":"Тель-Авивский округ","boundary":"administrative","wikidata":"Q192811","ISO3166-2":"IL-TA","wikipedia":"de:Bezirk Tel Aviv","admin_level":"4","complete:relation":"yes"}}}]}}}