{"type":"Topology","arcs":[[[1101,404],[-23,-51],[-65,-15],[-50,-34],[-34,54],[84,71],[52,19],[36,-44]],[[1259,1032],[-7,-243],[-30,-35],[-372,-42],[-33,19],[-93,476],[46,156],[26,25],[458,-343],[5,-13]],[[1566,6379],[-42,22],[-127,14],[-63,23],[-82,-27],[-45,-79],[42,-28],[-12,-46],[70,0],[-58,-83],[43,-38],[-32,-67],[92,-93]],[[1352,5977],[-175,73],[-15,62],[15,37],[-9,81],[-43,110],[78,98],[48,16],[30,58],[77,-11],[35,14],[34,-45],[62,-25],[33,17],[44,-83]],[[3966,3569],[-131,61],[-47,-115],[-112,40],[-33,-25],[-39,25],[8,74],[-185,-24],[-41,34]],[[3386,3639],[49,38],[-3,66],[-39,36],[7,44],[-28,53],[-131,123]],[[3241,3999],[37,97]],[[3278,4096],[47,-5],[70,24],[60,-25],[27,-37],[48,27],[53,-18],[83,33],[70,13],[20,55],[79,-20],[51,-66],[93,40],[55,1],[22,90],[38,47],[47,24],[52,-25]],[[4193,4254],[38,-68],[-27,-42],[10,-40],[-28,-59],[-90,-62],[-20,-47],[-79,4],[-21,-37],[-71,-12],[-18,-37],[-87,-3],[-25,-43],[81,-62],[62,0],[-18,-47],[73,-48],[18,-41],[-25,-41]],[[3131,3967],[-56,-38],[-116,16],[-40,-13],[-44,-47],[73,-24],[51,-39],[-8,-42],[-45,-42],[-72,-96],[-105,-21],[1,-34],[-43,-40],[-17,-72],[-26,-32],[-11,-76]],[[2673,3367],[-52,25],[-33,41],[-86,-20],[-59,3],[-19,30],[-57,5],[-136,-48],[-60,22],[-77,-45],[-97,-2],[17,35],[-19,54],[-76,-10],[-46,-28],[-111,-119],[-46,2],[-15,65],[-187,9],[-34,35],[-100,22],[-13,56],[-30,26],[-52,-16]],[[1285,3509],[-15,93],[13,36],[53,29],[17,39],[-30,56]],[[1323,3762],[40,6],[22,85],[49,21],[32,109],[-47,55],[-5,74],[93,37],[57,-15],[82,8],[18,-45],[-47,-128],[55,13],[78,52],[62,2],[39,-33],[31,19],[-20,61],[42,13],[-36,116],[112,43],[-43,20],[-92,0],[-54,50],[2,61],[168,125],[44,15],[146,94]],[[2151,4620],[79,-18],[31,11],[59,-28],[16,-70],[-15,-63],[-55,-79],[-97,-85],[27,-45],[-54,-66],[20,-98],[52,-13],[60,-48],[43,54],[-45,39],[-2,61],[-31,24],[-20,78],[16,25],[72,26],[5,-71],[37,-23],[43,25],[32,-33],[55,14],[112,64],[28,-47],[98,-22],[-5,-43],[69,6],[22,47],[51,4],[83,-67],[62,-21],[37,-45],[86,10],[-12,-129],[21,-27]],[[2467,1196],[-2,-2],[-1,4],[2,0],[1,-2]],[[2470,1198],[-3,0],[1,2],[1,0],[1,-2]],[[1020,3159],[-14,-10],[1,20],[13,-10]],[[5618,1567],[-32,-43],[-59,36],[11,40],[50,17],[30,-50]],[[5534,1303],[-46,-48],[-46,39],[7,36],[65,14],[20,-41]],[[5549,102],[-18,-69],[-41,-33],[-39,8],[-46,75],[-124,290],[-78,202],[11,64],[33,21],[58,-37],[-7,-67],[38,-82],[55,-4],[50,36],[34,-30],[11,-58],[-38,-164],[72,-62],[29,-90]],[[5373,1275],[-18,-37],[10,-47],[-27,-43],[-44,-3],[-5,-107],[-31,-67],[-18,-95],[-28,-20],[-64,13],[-56,137],[1,160],[96,205],[6,132],[45,120],[71,46],[43,-25],[16,-77],[-33,-138],[4,-76],[32,-78]],[[2461,1211],[-13,-1],[4,7],[9,-6]],[[2467,1233],[-2,-5],[-4,1],[1,4],[5,0]],[[2490,1217],[-4,-7],[-1,6],[5,1]],[[1855,5500],[-17,3],[-10,14],[14,9],[15,-8]],[[1857,5518],[-2,-18]],[[1938,5083],[-56,-11],[-21,-59],[106,-8]],[[1967,5005],[40,-79],[-3,-54],[-52,-29]],[[1952,4843],[-50,4],[-17,73],[-106,-22],[-22,22],[-84,-63],[19,82],[-106,89],[-38,148],[-58,-9],[-38,32],[-71,-1],[2,89],[-18,44]],[[1365,5331],[60,11],[64,-22],[46,-52],[27,27],[70,9],[43,-22],[41,20],[7,50],[147,92],[-15,56]],[[1857,5518],[-13,32]],[[1844,5550],[82,-49],[11,-48],[79,-22]],[[2016,5431],[-34,-63],[-50,-46],[-20,-85],[8,-97],[18,-57]],[[1938,5083],[29,-78]],[[5148,3912],[-44,-16],[-63,-88],[11,-38],[-53,-27],[-17,47],[-35,12],[-35,88],[47,110],[110,12],[14,49],[43,39]],[[5126,4100],[28,-67]],[[5154,4033],[-6,-121]],[[3632,2808],[-106,56],[-81,-76],[-87,7],[-18,43],[-39,18],[-44,-54],[-83,-49],[12,-55],[-101,-31],[-55,13],[1,-61],[-56,4],[-67,-39]],[[2908,2584],[-78,-20]],[[2830,2564],[29,103],[88,68],[3,29],[60,52],[-40,200],[-43,27],[20,44],[162,-61],[-1,36],[-64,13],[3,81],[-17,100],[32,3],[33,67],[118,-2],[17,53],[65,104],[-4,62],[19,28],[74,33],[2,35]],[[3966,3569],[66,-52],[42,-11],[45,-41],[9,-104]],[[4128,3361],[-45,-15],[8,-46],[41,-41],[-4,-46],[-150,-152],[-24,-47],[-218,-87],[-95,-92],[-9,-27]],[[2014,5436],[2,-5]],[[1844,5550],[-34,22],[4,51],[-53,38],[-48,5],[-55,122],[-61,34],[3,31],[67,43],[-14,35]],[[1653,5931],[1,54],[110,85],[91,4],[21,-39],[86,-48],[83,34],[58,-88],[67,29],[21,-42]],[[2191,5920],[22,-58],[60,-70],[-16,-44],[30,-38],[8,-73]],[[2295,5637],[-88,-19],[-22,19],[-102,-30],[-42,-93],[23,-54],[-50,-24]],[[1227,1868],[-73,108],[-43,87]],[[1111,2063],[132,30],[36,-20]],[[1279,2073],[27,3],[16,-79],[-4,-63],[-91,-66]],[[1321,2106],[-9,-1],[-1,8],[6,1],[4,-8]],[[1653,5931],[-34,-36],[-82,-18]],[[1537,5877],[-52,32],[-79,-1],[-17,66],[-37,3]],[[1566,6379],[61,-6],[69,36],[142,52],[49,8],[23,38],[-68,94],[12,35],[121,-45],[154,3],[-22,-55],[29,-38],[33,-105],[89,-21],[59,-52],[-52,-68],[20,-130],[68,-57],[32,-131],[-72,-61],[-33,22],[-19,55],[-70,-33]],[[2830,2564],[-77,-4],[-19,67],[-52,81],[-90,65]],[[2592,2773],[11,94],[55,59],[35,-25],[29,51],[-49,24],[-42,49],[33,113],[2,64],[-36,129],[43,36]],[[3131,3967],[31,-20],[51,11],[28,41]],[[4397,4692],[-67,-14],[-89,30]],[[4241,4708],[6,61],[34,82],[93,63],[53,-59],[-22,-92],[26,-41],[-34,-30]],[[1087,3092],[-52,20]],[[1035,3112],[32,28],[20,-48]],[[2570,1183],[-87,24],[-15,22],[11,13],[22,-12],[76,-25]],[[2577,1205],[-7,-22]],[[2580,1009],[1,-36]],[[2581,973],[-80,0],[-24,37],[103,-1]],[[5178,4209],[-80,38],[-85,-14],[-78,17],[-177,-13],[-132,46]],[[4626,4283],[15,88],[48,52],[60,12],[116,-15],[30,-27],[77,2],[28,44],[52,20],[74,-35],[1,-68],[51,17],[31,-30],[41,-92],[-72,-42]],[[2547,5079],[-140,4],[-59,62],[-44,6],[-6,69],[-44,12],[-77,65],[-63,-49],[-59,30],[-6,63],[43,59],[-78,36]],[[2295,5637],[41,39],[52,-73],[60,-45],[55,8],[83,-58],[-9,-30],[176,-78],[-92,-66],[-50,-53],[-20,-132],[-44,-70]],[[1365,5331],[-134,6],[18,52]],[[1249,5389],[-20,37],[147,157],[-6,128],[12,62],[56,37],[80,9],[19,58]],[[2156,1415],[-64,28],[-40,-49],[-31,-2],[4,-68],[34,-56],[-60,-41],[-15,-38],[-110,4],[-17,-43],[-85,14]],[[1772,1164],[-48,45],[-71,20],[-93,79],[-58,85],[-65,21],[-46,-23]],[[1391,1391],[-26,76],[-42,189],[-96,212]],[[1279,2073],[37,20],[46,110],[-40,23],[-11,49],[138,57],[17,37],[144,6],[-7,114],[63,-35],[85,33],[33,56],[38,-6],[55,58],[0,46],[95,37],[39,-4]],[[2011,2674],[21,-66],[-44,-95],[20,-32],[-34,-68],[26,-30],[-18,-147],[21,-100]],[[2003,2136],[-93,-4],[-7,-125],[23,-16],[-9,-60],[-50,0],[-23,-98],[37,-81],[48,22],[72,-14],[-69,-94],[54,-6],[7,-35],[107,62],[31,-22],[1,-47],[58,-15],[2,-64],[40,-9],[-25,-67],[-51,-48]],[[1877,350],[-97,114],[-51,83],[-67,248],[-49,117],[-28,110],[-124,206],[-70,163]],[[1772,1164],[-37,-44],[60,-27],[43,-53],[-19,-45],[53,-35],[-15,-105],[34,-20],[40,31],[22,-34],[-24,-135],[50,-27],[-53,-111],[23,-39],[4,-63],[-28,-55],[-48,-52]],[[5783,4588],[-12,81]],[[5771,4669],[84,43],[80,20],[-39,100],[-37,46],[-287,-99],[-55,-43],[-69,-83],[-140,-12],[-77,27],[-116,-33]],[[5115,4635],[-19,62],[21,28],[-23,44],[-78,1],[-2,63],[69,-4],[65,32],[40,-20],[58,42],[-11,39],[52,11],[56,67],[51,39],[60,0],[135,77],[8,35],[80,17],[82,-32],[121,28],[74,39],[97,-100],[23,-76],[113,-59],[46,-37],[7,-39],[-105,-94],[3,-33],[56,-73],[-61,8],[-38,45],[-142,-42],[-21,-31],[-109,-80],[-40,-4]],[[5373,3987],[-70,15],[1,66]],[[5304,4068],[82,192],[19,14]],[[5405,4274],[28,-24],[44,64],[45,25],[59,-22],[81,-9]],[[5662,4308],[-21,-43],[30,-31],[-2,-46],[-55,-82],[-64,-165],[-85,36],[-53,-13],[-39,23]],[[5783,4588],[-38,-48],[10,-86],[-16,-81],[-77,-65]],[[5405,4274],[-28,57],[76,66],[39,0],[64,140],[46,16],[103,91],[66,25]],[[5154,4033],[67,1],[83,34]],[[5373,3987],[23,-83],[-24,-150],[-37,-23],[-12,-49],[23,-100],[-58,-59],[-70,28],[-18,133],[-30,51],[-22,177]],[[4604,4470],[-43,-36],[-77,29],[-14,58],[-82,-13],[-12,22],[-100,-65],[-20,-53],[99,-90],[54,1],[31,-78],[-107,4],[-22,-75],[-38,-2],[-34,-44],[23,-33],[82,-46],[44,-4],[7,-88],[-38,-47],[42,-75],[40,-40],[-19,-57],[46,-173],[-9,-93],[24,-83],[-77,-28],[-86,-10],[-149,19],[-41,-9]],[[4193,4254],[-5,46],[60,61],[-32,18],[-12,63],[82,56],[-27,57]],[[4259,4555],[19,46],[-37,107]],[[4397,4692],[84,-75],[51,11],[103,-36]],[[4635,4592],[-9,-80],[-22,-42]],[[2151,4620],[-68,14],[-92,0],[46,71],[-72,75],[-13,63]],[[2547,5079],[66,-48],[35,14],[78,-51],[65,-24],[23,-37],[124,-79],[34,16],[88,-56],[50,9],[6,-49],[96,-11],[91,4],[52,-27]],[[3355,4740],[42,-105],[36,-4],[-68,-97],[57,-17],[-26,-63],[122,-69],[-63,-14],[-86,-39],[-30,-37],[-80,-34],[-19,-51],[38,-114]],[[1323,3762],[-40,47],[-107,42],[6,39],[-56,37],[3,60],[-71,33],[-45,39],[-69,32],[-17,-22],[-81,56],[-168,-11],[-42,18]],[[636,4132],[-45,106],[-47,56],[2,64],[-87,9],[-36,51],[16,140],[-61,3],[-80,40],[16,100],[94,87],[22,55],[51,47],[65,-20],[42,-50],[70,30],[99,9],[49,20],[7,36],[59,62],[42,89],[116,56],[72,124],[24,85],[87,28],[36,30]],[[1285,3509],[-67,-32],[-2,-48],[32,-48],[-48,-80],[41,-64],[-40,-44],[-54,27],[-14,-109],[-46,-19]],[[1035,3112],[-36,-19],[-56,5]],[[943,3098],[-15,151],[-52,20],[-120,-59],[-161,-45],[-36,2],[-156,75],[-206,213],[-53,69],[-23,59],[13,40],[50,65],[-129,83],[-27,79],[-28,21],[20,69],[39,28],[76,1],[-1,79],[92,-13],[89,9],[30,-28],[63,-1],[16,28],[96,32],[50,-45],[47,50],[19,52]],[[2570,1183],[-7,-53],[17,-121]],[[2581,973],[-40,-167],[-102,-39],[-39,-59],[24,-55],[-24,-100],[-65,9],[-112,-40],[-18,-113],[-21,-44],[-148,-69],[-159,54]],[[2156,1415],[29,-35],[38,17],[33,84],[104,7],[157,57],[31,46],[40,-21],[90,2]],[[2678,1572],[-23,-152],[-30,-104],[-48,-111]],[[2003,2136],[127,-23],[63,56],[80,-12],[49,50],[45,-2],[5,77],[117,35],[55,4],[-1,51],[84,-4],[25,44],[56,-23],[18,37],[58,12],[67,44],[2,33],[55,69]],[[3632,2808],[-251,-246],[-164,-146],[-82,-52],[-131,-173],[-130,-28],[-162,-120],[-62,-21],[-16,-40],[44,-410]],[[3355,4740],[53,38],[40,-31],[70,-11],[5,-66],[68,-19],[79,-50],[85,12],[27,-51],[35,22],[60,-11],[70,-36],[63,13],[82,-34],[62,2],[105,37]],[[2592,2773],[-70,14],[-20,71],[26,67],[-47,49],[-71,-16],[-42,18],[-48,-16],[-37,50],[-108,18],[-5,-85],[-28,-51],[-68,13],[-22,-55],[20,-58],[-21,-57],[-30,-2],[-10,-59]],[[1111,2063],[-72,220],[-59,318],[-37,497]],[[5126,4100],[52,109]],[[4626,4283],[9,67],[-31,120]],[[4635,4592],[70,15],[48,31],[60,-31],[86,13],[133,-3],[36,24],[47,-6]]],"transform":{"scale":[0.004692186666666669,0.004386915039180229],"translate":[68.11500799999999,6.558453]},"objects":{"admin_level_4":{"type":"GeometryCollection","geometries":[{"arcs":[[[0]],[[1]]],"type":"MultiPolygon","properties":{"ref":"LD","name":"Lakshadweep","name:en":"Lakshadweep","name:hi":"लक्षद्वीप","name:ja":"ラクシャディープ","name:kn":"ಲಕ್ಷದ್ವೀಪ","name:ml":"ലക്ഷദ്വീപ്","name:ru":"Лакшадвип","name:uk":"Лакшадвіп","boundary":"administrative","ISO3166-2":"IN-LD","admin_level":"4","wikipedia:en":"Lakshadweep","is_in:country_code":"IN"},"id":2027460},{"arcs":[[2,3]],"type":"Polygon","properties":{"name":"آزاد جموں و کشمیر","name:en":"Pakistan Occupied Kashmir","name:ja":"アザド・カシミール","name:pl":"Azad Dżammu i Kaszmir","name:ru":"Азад Кашмир","name:uk":"Азад Кашмір","name:ur":"آزاد جموں و کشمیر","boundary":"administrative","wikidata":"Q200130","ISO3166-2":"PK-JK","wikipedia":"en:Azad Kashmir","admin_level":"4","border_type":"province"},"id":3780130},{"arcs":[[4,5,6,7,8]],"type":"Polygon","properties":{"ref":"JH","name":"Jharkhand","name:en":"Jharkhand","name:hi":"झारखण्ड","name:ja":"ジャールカンド","name:kn":"ಝಾರ್ಖಂಡ್","name:ru":"Джаркханд","name:ta":"சார்க்கண்ட்","name:uk":"Джхаркханд","boundary":"administrative","ISO3166-2":"IN-JH","wikipedia":"en:Jharkhand","admin_level":"4","is_in:country_code":"IN"},"id":1960191},{"arcs":[[9,10,11,12,13]],"type":"Polygon","properties":{"ref":"MP","name":"Madhya Pradesh","name:en":"Madhya Pradesh","name:hi":"मध्य प्रदेश","name:ja":"マディヤ・プラデーシュ","name:kn":"ಮಧ್ಯ ಪ್ರದೇಶ","name:ru":"Мадхья-Прадеш","name:ta":"மத்தியப் பிரதேசம்","name:uk":"Мадх'я-Прадеш","boundary":"administrative","ISO3166-2":"IN-MP","wikipedia":"en:Madhya_Pradesh","admin_level":"4","is_in:country_code":"IN"},"id":1950071},{"arcs":[[14]],"type":"Polygon","properties":{"name":"Manamedu (Puducherry)","boundary":"administrative","admin_level":"4"},"id":156782329},{"arcs":[[15]],"type":"Polygon","properties":{"name":"Kaduvanur (Puducherry)","boundary":"administrative","admin_level":"4"},"id":156782328},{"arcs":[[16]],"type":"Polygon","properties":{"ref":"DD","name":"Union Territory of Damman & Diu","name:en":"Daman and Diu","name:gu":"દમણ અને દીવ","name:hi":"दमन और दीव","name:ja":"ダマン・ディーウ連邦直轄領","name:kn":"ದಮನ್ ಮತ್ತು ದಿಯು","name:mr":"दमण आणि दीव","name:ru":"Даман и Диу","name:ta":"தமனும் தியூவும்","name:uk":"Даман і Діу","boundary":"administrative","ISO3166-2":"IN-DD","wikipedia":"en:Daman_and_Diu","admin_level":"4","is_in:country_code":"IN"},"id":1953041},{"arcs":[[[17]],[[18]],[[19]],[[20]]],"type":"MultiPolygon","properties":{"ref":"AN","name":"Andaman and Nicobar Islands","name:bn":"আন্দামান ও নিকোবর দ্বীপপুঞ্জ","name:de":"Andamanen und Nikobaren","name:hi":"अण्डमान और निकोबार द्वीपसमूह","name:ja":"アンダマン・ニコバル諸島","name:kn":"ಅಂಡಮಾನ್ ಮತ್ತು ನಿಕೊಬಾರ್ ದ್ವೀಪಗಳು","name:ta":"அந்தமான் நிக்கோபார் தீவுகள்","boundary":"administrative","ISO3166-2":"IN-AN","wikipedia":"de:Andamanen und Nikobaren","admin_level":"4","official_name":"Union Territory of Andaman and Nicobar Islands"},"id":2025855},{"arcs":[[21]],"type":"Polygon","properties":{"name":"Nettapakkam (Puducherry)","boundary":"administrative","admin_level":"4"},"id":156782331},{"arcs":[[22]],"type":"Polygon","properties":{"name":"Sorapattu","boundary":"administrative","admin_level":"4"},"id":156782332},{"arcs":[[23]],"type":"Polygon","properties":{"name":"Cuddalore-Puducherry Administrative Boundary","boundary":"administrative","admin_level":"4"},"id":156782333},{"arcs":[[24,25]],"type":"Polygon","properties":{"ref":"CH","name":"Union Territory of Chandīgarh","name:en":"Chandigarh","name:hi":"चण्डीगढ़","name:ja":"チャンディーガル","name:ru":"Чандигарх","name:ta":"சண்டிகர்","name:uk":"Чандігарх","boundary":"administrative","ISO3166-2":"IN-CH","wikipedia":"en:Chandigarh","admin_level":"4","is_in:country_code":"IN"},"id":1942809},{"arcs":[[26,27,28,29,-26,30,31,32]],"type":"Polygon","properties":{"ref":"HR","name":"Haryana","name:en":"Haryana","name:hi":"हरियाणा","name:ja":"ハリヤーナー","name:kn":"ಹರಿಯಾಣ","name:ru":"Харьяна","name:ta":"அரியானா","name:uk":"Хар'яна","boundary":"administrative","ISO3166-2":"IN-HR","wikipedia":"en:Haryana","admin_level":"4","is_in:country_code":"IN"},"id":1942601},{"arcs":[[-27,33]],"type":"Polygon","properties":{"ref":"DL","name":"Delhi","name:de":"Nationales Hauptstadtterritorium Delhi","name:en":"Delhi","name:hi":"दिल्ली","name:ja":"デリー","name:kn":"ದೆಹಲಿ","name:ru":"Дели","name:ta":"டெல்லி","name:uk":"Делі","alt_name":"National Capital Territory of Delhi","boundary":"administrative","ISO3166-2":"IN-DL","wikipedia":"en:Delhi","admin_level":"4","border_type":"state","official_name:vi":"Lãnh thổ Thủ đô Quốc gia Delhi","is_in:country_code":"IN"},"id":1942586},{"arcs":[[34,35,36]],"type":"Polygon","properties":{"ref":"TR","name":"Tripura","name:en":"Tripura","name:hi":"त्रिपुरा","name:ja":"トリプラ","name:ru":"Трипура","name:ta":"திரிபுரா","name:uk":"Тріпура","boundary":"administrative","ISO3166-2":"IN-TR","wikipedia":"en:Tripura","admin_level":"4","is_in:country_code":"IN"},"id":2026458},{"arcs":[[37,38,39,-5,40,41]],"type":"Polygon","properties":{"ref":"OR","name":"Odisha","name:bn":"ওড়িশা","name:en":"Odisha","name:hi":"ओड़िशा","name:ja":"オリッサ","name:kn":"ಒರಿಸ್ಸಾ","name:or":"ଓଡ଼ିଶା","name:ru":"Орисса","name:ta":"ஒடிசா","name:te":"ఒరిస్సా","name:uk":"Орісса","boundary":"administrative","ISO3166-2":"IN-OR","wikipedia":"en:Odisha","admin_level":"4","is_in:country_code":"IN"},"id":1984022},{"arcs":[[42,-32,43,44,45,46]],"type":"Polygon","properties":{"ref":"HP","name":"Himachal Pradesh","name:bn":"হিমাচল প্রদেশ","name:en":"Himachal Pradesh","name:hi":"हिमाचल प्रदेश","name:ja":"ヒマーチャル・プラデーシュ","name:kn":"ಹಿಮಾಚಲ ಪ್ರದೇಶ","name:ru":"Химачал-Прадеш","name:ta":"இமாசலப் பிரதேசம்","name:uk":"Хімачал-Прадеш","boundary":"administrative","ISO3166-2":"IN-HP","wikipedia":"en:Himachal_Pradesh","admin_level":"4","is_in:country_code":"IN"},"id":364186},{"arcs":[[47,48,49]],"type":"Polygon","properties":{"ref":"GA","name":"Goa","name:en":"Goa","name:hi":"गोवा","name:ja":"ゴア","name:kn":"ಗೋವಾ","name:mr":"गोआ","name:ru":"Гоа","name:ta":"கோவா","name:uk":"Ґоа","boundary":"administrative","ISO3166-2":"IN-GA","wikipedia":"en:Goa","admin_level":"4","is_in:country_code":"IN"},"id":1997192},{"arcs":[[50]],"type":"Polygon","properties":{"name":"Karnataka - Maharashtra border","name:kn":"ಕರ್ನಾಟಕ-ಮಹಾರಾಶ್ಟ್ರ ಗಡಿ","boundary":"administrative","admin_level":"4"},"id":335394994},{"arcs":[[-45,51,52,-3,53]],"type":"Polygon","properties":{"ref":"JK","name":"Jammu and Kashmir","note":"Capital: Jammu (winter) and Srinagar (summer)","name:bn":"জম্মু ও কাশ্মীর","name:de":"Jammu und Kaschmir","name:en":"Jammu and Kashmir","name:he":"ג'אמו וקשמיר","name:hi":"जम्मू और कश्मीर","name:ja":"ジャンムー・カシミール","name:kn":"ಜಮ್ಮು ಮತ್ತು ಕಾಶ್ಮೀರ","name:lt":"Džamu ir Kašmyras","name:pl":"Dżammu i Kaszmir","name:ru":"Джамму и Кашмир","name:ta":"சம்மு காசுமீர்","name:uk":"Джамму й Кашмір","name:ur":"جموں و کشمیر","boundary":"administrative","ISO3166-2":"IN-JK","wikipedia":"en:Jammu_and_Kashmir","admin_level":"4","is_in:country_code":"IN"},"id":1943188},{"arcs":[[-40,54,55,-10,56,-6]],"type":"Polygon","properties":{"ref":"CT","name":"Chhattisgarh","name:bn":"ছত্তীসগঢ়","name:en":"Chhattisgarh","name:hi":"छत्तीसगढ़","name:ja":"チャッティースガル","name:kn":"ಛತ್ತೀಸ್‌ಘಡ್","name:ml":"ഛത്തീസ്‌ഗഢ്","name:ru":"Чхаттисгарх","name:ta":"சத்தீசுகர்","name:uk":"Чхаттісґарх","alt_name":"Chattisgarh","boundary":"administrative","ISO3166-2":"IN-CT","wikipedia":"en:Chhattisgarh","admin_level":"4","is_in:country_code":"IN"},"id":1972004},{"arcs":[[57,58]],"type":"Polygon","properties":{"ref":"SK","name":"Sikkim","name:bh":"सिक्किम","name:bn":"সিক্কিম","name:bo":"འབྲས་ལྗོངས་","name:en":"Sikkim","name:gu":"સિક્કિમ","name:hi":"सिक्किम","name:ja":"シッキム","name:kn":"ಸಿಕ್ಕಿಂ","name:mr":"सिक्किम","name:ne":"सिक्किम","name:nl":"Sikkim","name:ru":"Сикким","name:sa":"सिक्किम्","name:ta":"சிக்கிம்","name:uk":"Сіккім","name:zh":"锡金邦","boundary":"administrative","ISO3166-2":"IN-SK","wikipedia":"en:Sikkim","admin_level":"4","is_in:country":"India","official_name":"State of Sikkim","is_in:country_code":"IN"},"id":1791324},{"arcs":[[59,60]],"type":"Polygon","properties":{"name":"Union Territory of Dadra & Nagar Haveli","name:en":"Dadra and Nagar Haveli","name:hi":"दादरा और नगर हवेली","name:ja":"ダードラー及びナガル・ハヴェーリー連邦直轄領","name:ru":"Дадра и Нагар-Хавели","name:uk":"Дадра і Нагар-Хавелі","boundary":"administrative","ISO3166-2":"IN-DN","wikipedia":"en:Dadra_and_Nagar_Haveli","admin_level":"4","is_in:country_code":"IN"},"id":1952530},{"arcs":[[[15]],[[14]],[[22]],[[21]],[[61,62],[-24]],[[63,64]]],"type":"MultiPolygon","properties":{"ref":"PY","name":"Puducherry","name:hi":"पुदुच्चेरी","name:ja":"ポンディシェリ","name:kn":"ಪುದುಚೆರಿ","name:ru":"Пудучерри","name:ta":"புதுச்சேரி","name:te":"Pondicherry","name:uk":"Пудучеррі","boundary":"administrative","ISO3166-2":"IN-PY","wikipedia":"en:Puducherry","admin_level":"4","is_in:country_code":"IN"},"id":107001},{"arcs":[[65,66]],"type":"Polygon","properties":{"ref":"ML","name":"Meghalaya","name:as":"মেঘালয়","name:bn":"মেঘালয়","name:en":"Meghalaya","name:hi":"मेघालय","name:ja":"メーガーラヤ","name:kn":"ಮೆಘಾಲಯ","name:ru":"Мегхалая","name:ta":"மேகாலயா","name:uk":"Меґхалая","boundary":"administrative","ISO3166-2":"IN-ML","wikipedia":"en:Meghalaya","admin_level":"4","is_in:country_code":"IN"},"id":2027521},{"arcs":[[67,-47,68]],"type":"Polygon","properties":{"ref":"UT","name":"Uttarakhand","name:en":"Uttarakhand","name:hi":"उत्तराखण्ड","name:ja":"ウッタラーカンド","name:kn":"ಉತ್ತರಾಖಂಡ","name:ru":"Уттаракханд","name:ta":"உத்தராகண்டம்","name:uk":"Уттаракханд","boundary":"administrative","ISO3166-2":"IN-UT","wikipedia":"en:Uttarakhand","admin_level":"4","is_in:country_code":"IN"},"id":374810},{"arcs":[[69,70,-52,-44,-31,-25,-30]],"type":"Polygon","properties":{"ref":"PB","name":"Punjab","name:en":"Punjab","name:hi":"पंजाब","name:ja":"パンジャーブ","name:kn":"ಪಂಜಾಬ್","name:ru":"Пенджаб","name:ta":"பஞ்சாப்","name:uk":"Пенджаб","boundary":"administrative","ISO3166-2":"IN-PB","wikipedia":"en:Punjab, India","admin_level":"4","is_in:country_code":"IN"},"id":1942686},{"arcs":[[[50]],[[71,72,73,-50,74,75,76]]],"type":"MultiPolygon","properties":{"ref":"KA","name":"Karnataka","name:en":"Karnataka","name:hi":"कर्नाटक","name:ja":"カルナータカ","name:kn":"ಕರ್ನಾಟಕ","name:ml":"കർണാടക","name:mr":"कर्नाटक","name:ru":"Карнатака","name:ta":"கருநாடகம்","name:te":"కర్ణాటక","name:uk":"Карнатака","boundary":"administrative","ISO3166-2":"IN-KA","wikipedia":"en:Karnataka","admin_level":"4","is_in:country_code":"IN"},"id":2019939},{"arcs":[[77,-73,78]],"type":"Polygon","properties":{"ref":"KL","name":"Kerala","name:en":"Kerala","name:hi":"केरल","name:ja":"ケーララ","name:kn":"ಕೇರಳ","name:ml":"കേരളം","name:ru":"Керала","name:ta":"கேரளம்","name:uk":"Керала","boundary":"administrative","ISO3166-2":"IN-KL","wikipedia":"en:Kerala","admin_level":"4","is_in:country_code":"IN"},"id":2018151},{"arcs":[[79,80,81]],"type":"Polygon","properties":{"ref":"AR","name":"Arunachal Pradesh","note":"control by India but claim by China中国与印度对该地区存在着领土纠纷。","name:as":"অৰুণাচল প্ৰদেশ","name:en":"Arunachal Pradesh","name:hi":"अरुणाचल प्रदेश","name:ja":"アルナーチャル・プラデーシュ","name:kn":"ಅರುಣಾಚಲ ಪ್ರದೇಶ","name:ru":"Аруначал-Прадеш","name:ta":"அருணாசலப் பிரதேசம்","name:uk":"Аруначал-Прадеш","name:vi":"Arunachal Pradesh","name:zh":"藏南地区","boundary":"administrative","ISO3166-2":"IN-AR","wikipedia":"en:Arunachal_Pradesh","admin_level":"4","name:zh-classical":"藏南地區","name:zh-simpified":"藏南地区","is_in:country_code":"IN","name:zh-traditional":"藏南地區"},"id":2027346},{"arcs":[[82,83,84,85]],"type":"Polygon","properties":{"ref":"MN","name":"Manipur","name:as":"মণিপুৰ","name:bn":"মণিপুৰ","name:en":"Manipur","name:hi":"मणिपुर","name:ja":"マニプル","name:kn":"ಮಣಿಪುರ","name:ru":"Манипур","name:ta":"மணிப்பூர்","name:uk":"Маніпур","boundary":"administrative","ISO3166-2":"IN-MN","wikipedia":"en:Manipur","admin_level":"4","is_in:country_code":"IN"},"id":2027869},{"arcs":[[86,-85,87,-80]],"type":"Polygon","properties":{"ref":"NL","name":"Nagaland","name:as":"নাগালেণ্ড","name:bn":"নাগাল্যান্ড","name:en":"Nagaland","name:hi":"नागालैण्ड","name:ja":"ナガランド","name:kn":"ನಾಗಲಾಂಡ್","name:ru":"Нагаленд","name:ta":"நாகாலாந்து","name:uk":"Нагаленд","boundary":"administrative","ISO3166-2":"IN-NL","wikipedia":"en:Nagaland","admin_level":"4","is_in:country_code":"IN"},"id":2027973},{"arcs":[[-37,88,-83,89]],"type":"Polygon","properties":{"ref":"MZ","name":"Mizoram","name:en":"Mizoram","name:hi":"मिज़ोरम","name:ja":"ミゾラム","name:ru":"Мизорам","name:ta":"மிசோரம்","name:uk":"Мізорам","boundary":"administrative","ISO3166-2":"IN-MZ","wikipedia":"en:Mizoram","admin_level":"4","is_in:country_code":"IN"},"id":2029046},{"arcs":[[90,-41,-9,91,92,-58,93,94]],"type":"Polygon","properties":{"ref":"WB","name":"West Bengal","name:af":"Wes-Bengale","name:ar":"بنغال الغربية","name:as":"পশ্চিমবঙ্গ","name:be":"Заходняя Бенгалія","name:bg":"Западна Бенгалия","name:bh":"पश्चिम बंगाल","name:bn":"পশ্চিমবঙ্গ","name:br":"Kornôg Bengal","name:ca":"Bengala Occidental","name:cs":"Západní Bengálsko","name:cy":"Gorllewin Bengal","name:da":"Vestbengalen","name:de":"Westbengalen","name:dv":"ވެސްޓު ބެންގާލް","name:en":"West Bengal","name:eo":"Okcident-Bengalo","name:es":"Bengala Occidental","name:et":"Lääne-Bengali osariik","name:eu":"Mendebaldeko Bengala","name:fa":"بنگال غربی","name:fi":"Länsi-Bengali","name:fr":"Bengale-Occidental","name:gu":"પશ્ચિમ બંગાળ","name:he":"מערב בנגל","name:hi":"पश्चिम बंगाल","name:hr":"Zapadni Bengal","name:hu":"Nyugat-Bengál","name:id":"Benggala Barat","name:is":"Vestur-Bengal","name:it":"Bengala Occidentale","name:ja":"西ベンガル州","name:ka":"დასავლეთი ბენგალი","name:kn":"ಪಶ್ಚಿಮ ಬಂಗಾಳ","name:ko":"서벵골 주","name:ku":"Bengala Rojava","name:la":"Bengala Occidentalis","name:lt":"Vakarų Bengalija","name:lv":"Rietumbengāle","name:mg":"Bengaly andrefana","name:mk":"Западен Бенгал","name:ml":"പശ്ചിമ ബംഗാൾ","name:mr":"पश्चिम बंगाल","name:ms":"Bengal Barat","name:ne":"पश्चिम बङ्गाल","name:nl":"West-Bengalen","name:nn":"Vest-Bengal","name:no":"Vest-Bengal","name:oc":"Bengala Occidental","name:or":"ପଶ୍ଚିମବଙ୍ଗ","name:pa":"ਪੱਛਮੀ ਬੰਗਾਲ","name:pl":"Bengal Zachodni","name:pt":"Bengala Ocidental","name:qu":"Kunti Banla","name:ro":"Bengalul de Vest","name:ru":"Западная Бенгалия","name:sa":"पश्चिमबङ्गालराज्यम्","name:sk":"Západné Bengálsko","name:sr":"Западни Бенгал","name:sv":"Västbengalen","name:ta":"மேற்கு வங்காளம்","name:te":"పశ్చిమ బెంగాల్","name:tg":"Бенголи Ғарбӣ","name:th":"รัฐเบงกอลตะวันตก","name:tl":"Kanlurang Bengal","name:tr":"Batı Bengal","name:uk":"Західний Бенгал","name:ur":"مغربی بنگال","name:vi":"Tây Bengal","name:yo":"Ìwọòrùn Bẹ̀ngál","name:zh":"西孟加拉邦","boundary":"administrative","wikidata":"Q1356","ISO3166-2":"IN-WB","wikipedia":"en:West Bengal","admin_level":"4","is_in:country_code":"IN"},"id":1960177},{"arcs":[[-7,-57,-14,95,-28,-34,-33,-43,-68,96,97]],"type":"Polygon","properties":{"ref":"UP","name":"Uttar Pradesh","name:en":"Uttar Pradesh","name:hi":"उत्तर प्रदेश","name:ja":"ウッタル・プラデーシュ","name:kn":"ಉತ್ತರ ಪ್ರದೇಶ","name:ru":"Уттар-Прадеш","name:ta":"உத்தரப் பிரதேசம்","name:uk":"Уттар-Прадеш","boundary":"administrative","ISO3166-2":"IN-UP","wikipedia":"en:Uttar Pradesh","admin_level":"4","is_in:country_code":"IN"},"id":1942587},{"arcs":[[-13,98,99,-70,-29,-96]],"type":"Polygon","properties":{"ref":"RJ","name":"Rajasthan","name:en":"Rajasthan","name:gu":"રાજસ્થાન","name:hi":"राजस्थान","name:ja":"ラージャスターン","name:kn":"ರಾಜಸ್ಥಾನ","name:ru":"Раджастхан","name:ta":"இராசத்தான்","name:uk":"Раджастхан","boundary":"administrative","ISO3166-2":"IN-RJ","wikipedia":"en:Rajasthan","admin_level":"4","is_in:country_code":"IN"},"id":1942920},{"arcs":[[100,-61,101,102,-99,-12],[-17]],"type":"Polygon","properties":{"ref":"GJ","name":"Gujarat","name:en":"Gujarat","name:gu":"ગુજરાત","name:hi":"गुजरात","name:ja":"グジャラート","name:kn":"ಗುಜರಾತ","name:mr":"गुजरात","name:ru":"Гуджарат","name:ta":"குசராத்து","name:uk":"Гуджарат","boundary":"administrative","wikidata":"Q1061","ISO3166-2":"IN-GJ","wikipedia":"en:Gujarat","admin_level":"4","is_in:country_code":"IN"},"id":1949080},{"arcs":[[[23]],[[-62,103,-65,104,-79,-72,105,106],[-22],[-23],[-15],[-16]]],"type":"MultiPolygon","properties":{"ref":"TN","name":"Tamil Nadu","name:en":"Tamil Nadu","name:hi":"तमिल नाडु","name:ja":"タミル・ナードゥ","name:kn":"ತಮಿಳುನಾಡು","name:ml":"തമിഴ്‌നാട്","name:ru":"Тамилнад","name:ta":"தமிழ்நாடு","name:te":"తమిళనాడు","name:uk":"Таміл-Наду","boundary":"administrative","ISO3166-2":"IN-TN","wikipedia":"en:Tamil Nadu","admin_level":"4","is_in:country_code":"IN"},"id":96905},{"arcs":[[22]],"type":"Polygon","properties":{"name":"Sorapattu","boundary":"administrative","admin_level":"4"},"id":156782332},{"arcs":[[21]],"type":"Polygon","properties":{"name":"Nettapakkam (Puducherry)","boundary":"administrative","admin_level":"4"},"id":156782331},{"arcs":[[14]],"type":"Polygon","properties":{"name":"Manamedu (Puducherry)","boundary":"administrative","admin_level":"4"},"id":156782329},{"arcs":[[15]],"type":"Polygon","properties":{"name":"Kaduvanur (Puducherry)","boundary":"administrative","admin_level":"4"},"id":156782328},{"arcs":[[-106,-77,107,-38,108]],"type":"Polygon","properties":{"ref":"AP","name":"Andhra Pradesh","name:en":"Andhra Pradesh","name:hi":"आन्ध्र प्रदेश","name:ja":"アーンドラ・プラデーシュ","name:kn":"ಆಂಧ್ರ ಪ್ರದೇಶ","name:mr":"आंध्र प्रदेश","name:or":"ଆନ୍ଧ୍ର ପ୍ରଦେଶ","name:ru":"Андхра-Прадеш","name:ta":"ஆந்திரப் பிரதேசம்","name:te":"ఆంధ్ర ప్రదేశ్","name:uk":"Андхра-Прадеш","alt_name":"Seemandhra","boundary":"administrative","ISO3166-2":"IN-AP","wikipedia":"en:Andhra_Pradesh","admin_level":"4","is_in:country_code":"IN"},"id":2022095},{"arcs":[[-8,-98,109,-92]],"type":"Polygon","properties":{"ref":"BR","name":"Bihar","name:en":"Bihar","name:hi":"बिहार","name:ja":"ビハール","name:kn":"ಬಿಹಾರ","name:ru":"Бихар","name:ta":"பீகார்","name:uk":"Біхар","boundary":"administrative","ISO3166-2":"IN-BR","wikipedia":"en:Bihar","admin_level":"4","is_in:country_code":"IN"},"id":1958982},{"arcs":[[110,-75,-49,111,-102,-60,-101,-11,-56],[-51]],"type":"Polygon","properties":{"ref":"MH","name":"Maharashtra","name:en":"Maharashtra","name:hi":"महाराष्ट्र","name:ja":"マハーラーシュトラ","name:kn":"ಮಹಾರಾಷ್ಟ್ರ","name:mr":"महाराष्ट्र","name:ru":"Махараштра","name:ta":"மகாராட்டிரம்","name:uk":"Махараштра","alt_name":"Maharastra","boundary":"administrative","wikidata":"Q1191","ISO3166-2":"IN-MH","wikipedia":"en:Maharashtra","admin_level":"4","is_in:country_code":"IN"},"id":1950884},{"arcs":[[50]],"type":"Polygon","properties":{"name":"Karnataka - Maharashtra border","name:kn":"ಕರ್ನಾಟಕ-ಮಹಾರಾಶ್ಟ್ರ ಗಡಿ","boundary":"administrative","admin_level":"4"},"id":335394994},{"arcs":[[-76,-111,-55,-39,-108]],"type":"Polygon","properties":{"ref":"TG","name":"Telangana","name:bn":"তেলেঙ্গানা","name:en":"Telangana","name:hi":"तेलंगाना","name:ja":"テランガーナ","name:kn":"ತೆಲಂಗಾಣ","name:mr":"तेलंगणा","name:ru":"Телангана","name:ta":"தெலுங்கானா","name:te":"తెలంగాణ","boundary":"administrative","ISO3166-2":"IN-TG","wikipedia":"en:Telangana","admin_level":"4","is_in:country_code":"IN"},"id":3250963},{"arcs":[[-88,-84,-89,-36,112,-67,113,-95,114,-81]],"type":"Polygon","properties":{"ref":"AS","name":"Assam","name:as":"অসম","name:bn":"অসম","name:en":"Assam","name:hi":"असम","name:ja":"アッサム","name:kn":"ಅಸಂ","name:ru":"Ассам","name:ta":"அசாம்","name:uk":"Ассам","boundary":"administrative","ISO3166-2":"IN-AS","wikipedia":"en:Assam","admin_level":"4","is_in:country_code":"IN"},"id":2025886}]}}}