{"type":"Topology","arcs":[[[2334,10358],[-34,-24],[-77,-43],[-52,-50],[-47,-69],[-5,-49],[-5,-126],[-25,-21],[-27,-11],[-47,-12],[-21,-15],[-73,-14],[-19,-12],[-24,-58],[-43,-59]],[[1835,9795],[-82,11],[-42,31],[-28,44]],[[1683,9881],[2,68],[-4,41],[-17,49],[-46,65],[-2,29],[17,81],[16,47],[52,124],[30,50],[21,12],[24,2],[37,-9],[22,-21],[44,-3],[30,6],[17,35],[30,43],[12,4],[134,-2],[40,10],[28,34],[23,44],[30,16],[18,-6],[12,-22],[-21,-69],[15,-15],[38,-8],[6,-48],[25,-25],[8,-36],[10,-19]],[[2278,9516],[90,5],[8,-43],[37,-23],[26,2],[7,-29],[-14,-24],[47,-12],[7,-45],[52,-32],[3,-15],[-10,-31],[21,-19],[47,-24],[15,5],[33,40],[72,28],[33,-180],[95,2],[33,23],[34,45],[22,11],[48,-5],[53,-33],[62,9],[25,9],[40,26],[35,73],[31,34],[27,16],[45,4],[60,-35],[46,-6],[23,3],[32,17],[88,-2],[26,-15],[78,-71],[73,-100],[42,-47],[54,-81],[69,-74],[0,-41],[-75,-38],[-44,-32],[-48,-41],[-15,-18],[-20,-47],[-3,-26],[12,-29],[19,-26],[32,-27],[89,-105],[100,-93],[63,-53],[36,-17],[32,-9],[29,9],[177,133],[718,-862]],[[4995,7600],[81,-104],[156,-210],[218,-288],[116,-127],[46,-76]],[[5612,6795],[-2679,-3]],[[2933,6792],[-747,-2],[-24,5],[-38,33],[11,82],[9,49],[12,19],[14,53],[0,75],[-12,57],[-28,70],[-13,25],[-20,19]],[[2097,7277],[12,20],[54,55],[11,27],[18,76],[11,16],[22,71],[29,44],[25,63],[2,16],[-39,40],[-4,14],[21,42],[3,36],[-14,48],[-49,57],[-61,46],[-16,25],[-8,31],[-10,70],[-17,56],[0,49],[34,39],[45,40],[6,21],[1,57],[-15,66],[-2,23],[10,34],[-1,86],[-5,14],[-26,24],[-12,0],[-28,-30],[-20,-10],[-146,-5],[-38,-29],[-32,1]],[[1858,8510],[3,92],[20,50],[25,24],[8,29],[-26,47],[-27,25],[-83,40],[-16,13],[-11,34],[13,34],[22,27],[52,42],[88,37],[31,107],[30,44],[83,88],[-21,94],[35,22],[86,-8],[50,33],[-1,61],[23,35],[9,26],[27,10]],[[805,5006],[100,-96],[22,-17],[48,-25],[39,-28],[19,-62],[8,-39],[47,-27],[47,-13],[51,-1]],[[1186,4698],[-1,-67],[5,-77],[-3,-73],[-22,-31],[-37,-84],[-10,-39],[15,-108],[-1,-35],[-23,-36],[-36,-74],[-45,-86],[-64,-148],[4,-36],[17,-95],[19,-88],[20,-60],[5,-61],[-1,-49],[-10,-62],[-45,-69],[-12,-25],[-41,-57],[-88,-102],[-9,-33],[-7,-70],[-20,-99],[-11,-29],[-2,-37],[6,-77],[10,-44],[29,-69],[44,-73],[49,-45],[68,-25],[23,-2],[56,27],[42,6],[105,2],[70,-10],[52,-40],[32,-9],[73,-81],[38,-59],[16,-32],[35,-132],[9,-82],[27,-50],[76,-115],[25,-104],[33,-126],[20,-94],[23,-142],[9,-29],[16,-76],[12,-157],[35,-232],[8,-108],[13,-106],[18,-179],[11,-78],[4,-62],[8,-67],[10,-50],[8,-134],[0,-35]],[[1896,179],[-1234,257],[-349,75],[-36,16],[-66,1],[-160,30],[-51,13],[11,14],[-11,23],[13,12],[-9,17],[15,34],[-11,17],[14,32],[18,14],[1,15],[-13,35],[5,33],[-16,48],[21,37],[-1,44],[23,46],[17,48],[19,92],[-55,47],[2,113],[55,146],[34,57],[12,55],[3,54],[-22,80],[3,46],[41,200],[6,17],[28,36],[4,47],[13,28],[-2,27],[30,97],[17,48],[23,28],[0,19],[14,26],[-6,120],[-10,26],[16,32],[-2,24],[-20,10],[7,23],[26,20],[-2,31],[26,61],[43,13],[1,19],[-16,7],[1,20],[-24,10],[29,88],[44,73],[37,4],[14,65],[15,104],[11,27],[-11,20],[8,19],[-24,30],[9,38],[-25,25],[5,70],[12,61],[-1,39],[-14,88],[12,38],[-10,95],[21,81],[25,28],[66,101],[-9,32],[-55,147],[-10,59],[0,75],[48,99],[12,53],[17,37],[4,115],[22,47],[0,110],[37,85],[8,37],[28,40],[67,83],[12,37],[-9,15],[20,25],[-6,14],[14,19],[7,37],[12,29],[21,-2]],[[1344,8191],[41,134],[41,56],[26,43],[7,45],[-13,5],[-14,54],[11,43],[-21,27],[-4,35],[14,38],[-5,47],[4,11],[-16,42],[21,26],[-11,33],[-25,20],[-10,30],[12,12],[-25,41],[9,54],[39,34],[-2,62],[-4,22],[7,34],[-11,32],[-17,20],[14,34],[-27,35],[-11,72],[-11,22],[29,65],[-1,42],[12,6],[13,37],[12,2],[-24,60],[-7,26],[21,14],[19,34],[-5,40],[-9,15],[37,23],[-2,43],[-13,53],[16,13],[28,40],[-1,15]],[[1488,9882],[17,2],[178,-3]],[[1835,9795],[-34,-45],[10,-17],[40,2],[43,36],[15,-2],[12,-19],[67,-8],[38,2],[36,22],[29,0],[44,-19],[33,-40],[21,-50],[58,-63],[53,-18]],[[2300,9576],[0,-38],[-22,-22]],[[1858,8510],[-104,-4],[-29,-5],[-39,-29],[-18,-35],[-2,-17],[-1,-125],[-8,-25],[-28,-23],[-100,-38],[-185,-18]],[[2774,10939],[16,-32],[3,-25],[-1,-234],[-15,-41],[-18,-13],[-16,5],[-59,50],[-14,8],[-37,4],[-23,-8],[-32,-45],[10,-44],[40,-52],[15,-36],[-3,-16],[-38,-68]],[[2602,10392],[-36,0],[-31,-9],[-26,15],[-9,35],[-22,17],[-24,-2],[-98,-76],[-22,-14]],[[1488,9882],[-17,29],[16,22],[-5,45],[-14,19],[2,16],[19,34],[-19,14],[2,41],[-15,32],[15,9],[10,25],[-13,38],[-16,8],[20,38],[-18,40],[2,33],[-9,38],[14,15],[-11,24],[-1,30],[17,-1],[6,18],[-1,48],[-20,14],[-21,43],[34,0],[-10,46],[-12,15],[14,51],[13,-5],[14,23],[-4,40],[17,20],[-29,19],[18,46],[27,30],[-10,27],[-21,5],[-7,30],[-27,20],[4,27],[23,0],[6,12],[-18,21],[3,23],[21,1],[2,18],[16,28],[-4,43],[6,47],[-5,18],[6,37],[-27,-1],[-1,24],[13,5],[2,27],[-13,28],[1,70],[8,12],[35,-13],[7,26],[40,1],[4,28],[-19,19],[17,30],[25,19],[23,-7],[24,26],[28,-27],[23,22],[23,-15],[24,19],[-10,22],[13,20],[-1,22],[38,9],[37,21],[44,35],[20,-5],[11,28],[19,-6],[25,46],[75,9],[23,26],[11,-23],[-16,-11],[25,-30],[53,-7],[23,-24],[23,17],[23,-9],[37,12],[19,-11],[13,-48],[43,10],[32,16],[17,-14],[13,13],[27,-14],[6,-45],[-4,-14],[20,-12],[2,-36],[52,-75],[35,-7],[51,3],[39,-11],[21,-15],[3,-45],[-11,-84],[5,-39],[9,-16],[32,-22],[49,-47],[15,-26],[15,-68],[11,-12],[-9,-34],[7,-66],[44,17]],[[2602,10392],[-21,-46],[-14,-56],[-15,-30],[-34,-35],[-72,-52],[-11,-15],[-2,-38],[16,-46],[58,-87],[14,-34],[-2,-38]],[[2519,9915],[4,-61],[-1,-38],[-18,-59],[-54,-6],[-21,-7],[-77,-78],[-50,-69],[-2,-21]],[[1002,5718],[56,-1],[20,22],[35,58],[4,57],[0,118],[23,151],[37,74],[19,55],[10,49],[4,78],[-6,51],[-11,44],[-57,117],[-8,22],[-28,35],[-17,51],[-10,44],[-2,45],[5,44],[13,49],[60,132],[31,64],[31,70],[27,103],[5,57],[6,27],[6,86]],[[1255,7420],[232,-21],[24,-15],[63,-55],[26,-8],[76,-4],[51,-28],[40,0],[24,8],[28,20],[34,14],[123,0],[69,-31],[27,-8],[25,-15]],[[2933,6792],[-5,-300],[199,-226],[-502,-1043]],[[2625,5223],[-12,12],[-49,30],[-47,50],[-23,18],[-44,42],[-67,39],[-6,18],[-34,14],[-31,62],[7,63],[-63,7],[-15,41],[-26,4],[-13,-22],[-13,3],[8,27],[-27,18],[-33,31],[-6,15],[8,35],[-17,16],[-34,-11],[-40,11],[-24,23],[-52,24],[-20,22],[-38,22],[-40,14],[-40,2],[-23,31],[-24,7],[-32,-23],[-27,12],[-11,27],[-23,16],[-60,-2],[-29,21],[-17,-1],[-10,-25],[-15,-5],[-37,13],[-39,26],[-13,15],[-38,2],[-28,25],[-38,13],[-19,-7],[-22,-20],[-44,-9],[-30,-16],[-11,-31],[15,-42],[-2,-33],[-13,-13],[-27,-46],[-16,-50],[17,-45],[-4,-61],[-35,-14],[-24,-30],[-39,0],[-21,31],[-37,11],[-29,40],[-27,48]],[[1186,4698],[24,22],[24,-2],[41,-32],[20,0],[23,-13],[44,1],[38,-12],[81,2],[17,8],[58,4],[43,25],[82,-55],[38,-6],[17,9],[48,45],[45,-7],[27,1],[14,9],[62,15],[25,0],[51,14],[15,8],[77,22],[45,6],[20,36],[22,25],[38,10],[26,-2],[52,-14],[48,-25],[33,-30],[11,-16],[40,85],[34,66],[63,128],[31,68],[47,96],[15,34]],[[5612,6795],[20,-34],[25,-30],[14,-26],[66,-89],[86,-119],[112,-140],[27,-41],[47,-60],[92,-134],[24,-28],[120,-158],[63,-91],[6,-14],[91,-110],[31,-47],[36,-43],[49,-67],[6,-6],[173,-235],[238,-320],[249,-336],[71,-99],[70,-126],[87,-122],[-810,-551],[-71,-183],[-68,-188],[-78,-209],[-136,-371],[-37,-137],[-24,-8],[-688,-163],[-17,-3],[-120,-34],[-77,-20],[-63,-8],[-106,-31],[-19,-8],[-30,0],[-56,-16],[-34,-5],[-331,-82],[-166,-48],[-29,-10],[-22,-52],[-27,-47],[-12,-57],[-58,-103],[-112,-111],[-23,-19],[-32,-70],[-50,-92],[-9,-41],[-44,-158],[-24,-24],[-120,-164],[-45,-70],[-2,-47],[-49,-105],[-86,-95],[-29,-40],[-15,-29],[-34,-39],[-27,-72],[-29,-32],[-68,-49],[-30,-14],[-25,5],[-39,-18],[-97,-80],[-51,-69],[-55,-45],[-93,-84],[-91,-87],[-89,-110],[-59,-68],[-131,-96],[-38,-45],[-24,-18],[-172,38],[-80,11],[-150,38],[-95,13],[-113,19],[-210,60]],[[1255,7420],[6,126],[-5,41],[15,83],[9,180],[16,145],[27,131],[21,65]],[[2774,10939],[63,20],[83,-3],[17,-30],[21,12],[44,14],[24,24],[12,-7],[5,-27],[-3,-39],[15,-42],[33,-2],[29,19],[40,-34],[127,-100],[70,-88],[12,-6],[83,-104],[20,-11],[8,-18],[33,-18],[22,-24],[45,-6],[32,-13],[24,6],[63,-6],[40,-16],[24,-21],[28,-9],[83,-6],[82,-21],[35,1],[128,-22],[105,-27],[11,-28],[39,-31],[29,-9],[6,9],[41,17],[48,-3],[64,1],[74,-17],[52,-15],[50,25],[54,49],[27,68],[172,280],[34,-15],[14,19],[16,-4],[11,-30],[39,-20],[29,0],[40,11],[67,1],[32,23],[66,63],[40,48],[30,50],[69,103],[53,45],[25,44],[32,47],[51,16],[68,32],[31,-23],[22,-3],[59,5],[31,-25],[23,2],[18,20],[29,2],[42,-17],[18,50],[29,55],[111,49],[26,51],[22,67],[50,49],[23,34],[28,70],[54,32],[31,59],[37,14],[65,9],[11,29],[37,1],[160,35],[25,-2],[71,12],[51,35],[81,13],[31,41],[21,44],[24,153],[11,55],[-2,55],[-15,35],[39,48],[80,40],[120,-6],[52,-32],[32,14],[106,81],[164,118],[67,47],[47,36],[84,58],[161,120],[126,90],[51,41],[78,49],[133,97],[79,61],[30,70],[33,13],[52,9],[60,26],[23,17],[301,203],[170,129],[165,115],[22,18],[77,52],[60,50],[31,9],[58,55],[516,-2061],[8,-40],[190,-762],[-58,-18],[-187,-62],[141,-571],[529,169],[101,-409],[-246,-251],[-52,-61],[-166,-173],[-28,-26],[-46,-51],[-182,-192],[-64,-21],[-38,-9],[-46,-18],[-337,-109],[-344,-110],[-236,-78],[-31,-12],[-193,-65],[-107,-34],[-255,-85],[-168,-55],[-236,-80],[-200,-66],[-58,-22],[-48,-14],[-83,-40],[-53,-22],[-59,-3],[-51,-19],[-165,-53],[-180,-61]],[[6928,8264],[-1149,449],[-695,269],[-1345,514],[-79,144],[-247,-6],[-30,-32],[-37,-15],[-34,6],[-46,30],[-99,74],[-21,6],[-56,3],[-69,-19],[-44,-6],[-35,-14],[-54,-5],[-38,12],[-70,75],[-38,-38],[-16,-23],[-22,-7],[-31,6],[-22,18],[-60,71],[4,27],[12,20],[14,44],[-10,18],[-38,29],[-54,1]],[[805,5006],[9,30],[-19,13],[20,40],[3,89],[31,0],[13,25],[5,67],[16,22],[36,6],[10,55],[-9,11],[-19,74],[8,85],[52,134],[41,61]],[[6928,8264],[-211,-72],[-79,-29],[-95,-29],[-60,-22],[-518,-180],[-53,-23],[-99,-31],[-392,-130],[-181,-65],[-95,-33],[-150,-50]]],"transform":{"scale":[0.0004094894716981127,0.0003048923988943849],"translate":[34.9607097,29.183401]},"objects":{"jo_slim":{"type":"GeometryCollection","geometries":[{"arcs":[[0,1,2]],"type":"Polygon","properties":{"srid":"4326","id":"2925616","name":"Ajlun","localname":"عجلون","official_name":"","boundary":"adminstrative","admin_level":"4","note":"","wikidata":"Q506658","wikipedia":"ar:عجلون (محافظة)","timestamp":"2018-11-09 05:25:18","rpath":"2925616,184818,0","alltags":{"name":"عجلون","name:ar":"عجلون","name:de":"Adschlun","name:en":"Ajlun","name:es":"Gobernación de Ajlun","name:fr":"Gouvernorat d'Ajlun","name:ru":"Аджлун","boundary":"administrative","wikidata":"Q506658","ISO3166-2":"JO-AJ","wikipedia":"ar:عجلون (محافظة)","admin_level":"4"}}},{"arcs":[[3,4,5,6,7,8]],"type":"Polygon","properties":{"srid":"4326","id":"2926344","name":"Amman","localname":"عمان","official_name":"","boundary":"adminstrative","admin_level":"4","note":"","wikidata":"Q472788","wikipedia":"ar:محافظة العاصمة (الأردن)","timestamp":"2018-11-09 05:25:18","rpath":"2926344,184818,0","alltags":{"name":"عمان","name:am":"አማን","name:ar":"‏محافظة العاصمة‎","name:de":"Amman","name:en":"Amman","name:es":"Gobernación de Ammán","name:fr":"Gouvernorat d'Amman","name:he":"עמאן","name:ja":"アンマン","name:ko":"암만","name:ru":"Амман","boundary":"administrative","wikidata":"Q472788","ISO3166-2":"JO-AM","wikipedia":"ar:محافظة العاصمة (الأردن)","admin_level":"4"}}},{"arcs":[[9,10,11]],"type":"Polygon","properties":{"srid":"4326","id":"2926345","name":"Aqaba","localname":"العقبة","official_name":"","boundary":"adminstrative","admin_level":"4","note":"","wikidata":"Q260796","wikipedia":"ar:العقبة (محافظة)","timestamp":"2018-11-09 05:25:18","rpath":"2926345,184818,0","alltags":{"name":"العقبة","name:ar":"العقبة","name:cs":"Akaba","name:de":"Aqaba","name:en":"Aqaba","name:es":"Gobernación de Aqaba","name:fr":"Gouvernorat d'Aqaba","name:ru":"Акаба","boundary":"administrative","wikidata":"Q260796","ISO3166-2":"JO-AQ","wikipedia":"ar:العقبة (محافظة)","admin_level":"4"}}},{"arcs":[[12,13,-2,14,15,-9,16]],"type":"Polygon","properties":{"srid":"4326","id":"2925596","name":"Balqa","localname":"البلقاء","official_name":"","boundary":"adminstrative","admin_level":"4","note":"","wikidata":"Q721431","wikipedia":"ar:البلقاء (محافظة)","timestamp":"2018-11-09 05:25:18","rpath":"2925596,184818,0","alltags":{"name":"البلقاء","name:ar":"البلقاء","name:de":"al-Balqa","name:el":"Μπάλγκα","name:en":"Balqa","name:es":"Gobernación de Balqa'","name:fr":"Gouvernorat de Balqa","name:ru":"Эль-Балка","boundary":"administrative","wikidata":"Q721431","ISO3166-2":"JO-BA","wikipedia":"ar:البلقاء (محافظة)","admin_level":"4"}}},{"arcs":[[17,18,-3,-14,19]],"type":"Polygon","properties":{"srid":"4326","id":"2925617","name":"Irbid","localname":"إربد","official_name":"","boundary":"adminstrative","admin_level":"4","note":"","wikidata":"Q721441","wikipedia":"ar:إربد (محافظة)","timestamp":"2018-11-09 05:25:18","rpath":"2925617,184818,0","alltags":{"name":"إربد","name:ar":"إربد","name:de":"Irbid","name:en":"Irbid","name:es":"Gobernación de Irbid","name:fr":"Gouvernorat d'Irbid","name:he":"אירביד","name:lt":"Irbidas","name:ru":"Ирбид","boundary":"administrative","wikidata":"Q721441","ISO3166-2":"JO-IR","wikipedia":"ar:إربد (محافظة)","admin_level":"4"}}},{"arcs":[[-1,-19,20,21,-15]],"type":"Polygon","properties":{"srid":"4326","id":"2925599","name":"Jarash","localname":"جرش","official_name":"","boundary":"adminstrative","admin_level":"4","note":"","wikidata":"Q750270","wikipedia":"ar:جرش (محافظة)","timestamp":"2018-11-09 05:25:18","rpath":"2925599,184818,0","alltags":{"name":"جرش","name:ar":"محافظة جرش","name:de":"Dscharasch","name:en":"Jarash","name:es":"Gobernación de Gerasa","name:fr":"Gouvernorat de Jerash","name:ru":"Джараш","boundary":"administrative","wikidata":"Q750270","ISO3166-2":"JO-JA","wikipedia":"ar:جرش (محافظة)","admin_level":"4"}}},{"arcs":[[22,23,-7,24,25]],"type":"Polygon","properties":{"srid":"4326","id":"2926346","name":"Karak","localname":"الكرك","official_name":"","boundary":"adminstrative","admin_level":"4","note":"","wikidata":"Q735245","wikipedia":"ar:الكرك (محافظة)","timestamp":"2018-11-09 05:25:18","rpath":"2926346,184818,0","alltags":{"name":"الكرك","name:ar":"الكرك","name:de":"Karak","name:en":"Karak","name:es":"Gobernación de Karak","name:fr":"Gouvernorat de Karak","name:he":"כרכ","name:ru":"Эль-Карак","boundary":"administrative","wikidata":"Q735245","ISO3166-2":"JO-KA","wikipedia":"ar:الكرك (محافظة)","admin_level":"4"}}},{"arcs":[[26,-25,-6,27,-11]],"type":"Polygon","properties":{"srid":"4326","id":"2926347","name":"Ma’an","localname":"معان","official_name":"","boundary":"adminstrative","admin_level":"4","note":"","wikidata":"Q606340","wikipedia":"ar:معان (محافظة)","timestamp":"2018-11-09 05:25:18","rpath":"2926347,184818,0","alltags":{"name":"معان","name:ar":"معان","name:de":"Ma'an","name:en":"Ma’an","name:es":"Gobernación de Ma'an","name:fr":"Gouvernorat de Ma'an","name:he":"מעאן","name:ru":"Маан","boundary":"administrative","wikidata":"Q606340","ISO3166-2":"JO-MN","wikipedia":"ar:معان (محافظة)","admin_level":"4"}}},{"arcs":[[28,-17,-8,-24]],"type":"Polygon","properties":{"srid":"4326","id":"2926348","name":"Madaba","localname":"مادبا","official_name":"","boundary":"adminstrative","admin_level":"4","note":"","wikidata":"Q750447","wikipedia":"ar:مادبا","timestamp":"2018-11-09 05:25:18","rpath":"2926348,184818,0","alltags":{"name":"مادبا","name:ar":"مادبا","name:de":"Madaba","name:el":"Μάνταμπα","name:en":"Madaba","name:es":"Gobernación de Madaba","name:fr":"Gouvernorat de Madaba","name:he":"מידבא","name:ru":"Мадаба","boundary":"administrative","wikidata":"Q750447","ISO3166-2":"JO-MD","wikipedia":"ar:مادبا","admin_level":"4"}}},{"arcs":[[-18,29,30,-21]],"type":"Polygon","properties":{"srid":"4326","id":"2925608","name":"Mafraq","localname":"المفرق‎","official_name":"","boundary":"adminstrative","admin_level":"4","note":"","wikidata":"Q854871","wikipedia":"ar:المفرق (محافظة)","timestamp":"2018-11-09 05:25:18","rpath":"2925608,184818,0","alltags":{"name":"المفرق‎","name:ar":"المفرق‎","name:de":"Mafraq","name:en":"Mafraq","name:es":"Gobernación de Mafraq","name:fr":"Gouvernorat de Mafraq","name:ru":"Эль-Мафрак","boundary":"administrative","wikidata":"Q854871","ISO3166-2":"JO-MA","wikipedia":"ar:المفرق (محافظة)","admin_level":"4"}}},{"arcs":[[-26,-27,-10,31]],"type":"Polygon","properties":{"srid":"4326","id":"2926349","name":"Tafilah","localname":"الطفيلة","official_name":"","boundary":"adminstrative","admin_level":"4","note":"","wikidata":"Q750259","wikipedia":"ar:الطفيلة (محافظة)","timestamp":"2018-11-09 05:25:18","rpath":"2926349,184818,0","alltags":{"name":"الطفيلة","name:ar":"الطفيلة‎","name:de":"Tafila","name:en":"Tafilah","name:es":"Gobernación de Tafila","name:fr":"Gouvernorat de Tafilah","name:ru":"Эт-Тафила","boundary":"administrative","wikidata":"Q750259","ISO3166-2":"JO-AT","wikipedia":"ar:الطفيلة (محافظة)","admin_level":"4"}}},{"arcs":[[-16,-22,-31,32,-4]],"type":"Polygon","properties":{"srid":"4326","id":"2925597","name":"Zarqa","localname":"الزرقاء","official_name":"","boundary":"adminstrative","admin_level":"4","note":"","wikidata":"Q721445","wikipedia":"ar:الزرقاء (محافظة)","timestamp":"2018-11-09 05:25:18","rpath":"2925597,184818,0","alltags":{"name":"الزرقاء","name:ar":"الزرقاء","name:de":"Zarqa","name:en":"Zarqa","name:es":"Gobernación de Zarká","name:fr":"Gouvernorat de Zarqa","name:ru":"Эз-Зарка","boundary":"administrative","wikidata":"Q721445","ISO3166-2":"JO-AZ","wikipedia":"ar:الزرقاء (محافظة)","admin_level":"4"}}}]}}}