{"type":"Topology","arcs":[[[1839,1933],[-76,-13],[-44,6],[-15,-24],[-105,-12],[-18,61],[7,59],[41,26],[17,91],[19,32],[-25,26],[-66,28],[-58,-20],[-26,-33],[-27,3],[-6,-44],[-60,-57],[-41,-7],[-74,-31]],[[1282,2024],[-19,7],[-4,52],[-22,65],[-39,17],[-8,76],[-56,16],[-61,53],[-57,3],[-16,16],[-160,53],[-37,35],[-48,14],[-43,-9],[-20,47],[-9,57],[-25,32],[43,52],[29,16],[31,51],[-12,33]],[[749,2710],[20,-1],[6,107],[205,41],[2,-49],[40,-15],[19,-51],[55,-14],[49,37],[-1,27],[35,45],[46,32],[64,-32],[73,40],[55,50],[37,49],[-64,64],[83,2],[54,27],[43,6]],[[1570,3075],[66,10],[87,-45],[28,-32],[-33,-47],[-5,-33],[38,-62],[-20,-67],[56,-64],[4,-44],[48,-35],[-30,-17],[-41,-81],[63,-58],[8,-35],[52,5],[83,-22],[38,4],[21,-20],[50,-10],[-2,-31],[41,-6],[58,68],[29,-20],[-9,-204],[39,-70],[-58,-9],[-60,-26],[-11,-132],[16,-41],[-3,-61],[-46,-16],[-89,27],[-29,35],[-120,-3]],[[1635,1035],[-76,-32],[-102,-7],[-143,16],[-37,14],[-5,36],[22,25],[-22,46],[-67,20],[13,59],[27,44],[-14,98],[50,5],[52,50],[-37,33],[11,21],[-46,48],[-63,46],[-5,22]],[[1193,1579],[26,2],[31,35],[39,-7],[12,26],[68,64],[-27,69],[28,52],[-26,29],[-10,71],[-52,104]],[[1839,1933],[6,-59],[-19,-35]],[[1826,1839],[-7,-56],[4,-191],[47,-133],[-49,-33],[-12,-38],[-7,-91],[-30,-24],[-12,-47],[-64,-11],[-33,-24],[-27,-49],[31,-55],[-32,-52]],[[2544,831],[-143,-81],[-10,-84],[-53,8],[-67,-25],[-106,-24],[-25,-25],[-37,8],[-42,54],[-45,-7],[-10,23],[-74,-1],[-72,-48],[13,-24],[-111,-48]],[[1762,557],[-26,50],[-31,8],[-37,44],[5,52],[-17,35],[41,57],[14,58],[40,57],[-63,-12],[-31,11],[-18,35],[48,14],[0,25],[-49,9],[-3,35]],[[1826,1839],[41,-29],[2,-40],[29,-45],[40,5],[63,43],[66,17],[17,-21],[-5,-74],[-19,-27],[24,-79],[70,-59],[13,-46],[53,7],[-5,67],[40,4],[36,31],[-14,27],[94,59],[40,-117],[-12,-15],[46,-36],[26,-68],[-50,-62],[21,-48],[89,-30],[24,-85],[22,-20],[-9,-46],[-24,-321]],[[1193,1579],[-34,40],[-40,-10],[-8,-46],[-81,-20],[-95,-58]],[[935,1485],[-81,70],[-69,-43],[-66,33],[-31,-25],[-61,-17],[-95,-3],[-243,0]],[[289,1500],[7,15],[-50,210],[-6,93],[13,70],[-12,57],[-41,141],[-49,135],[-8,112],[-11,68],[6,48],[33,62],[41,40],[26,69],[-9,48],[7,62],[28,60],[38,45],[45,31]],[[347,2866],[274,-117],[128,-39]],[[1996,3273],[-184,-116],[-86,-9],[-23,-21],[-107,-12],[-26,-40]],[[347,2866],[66,23],[-25,66],[0,71],[-26,18],[-133,0],[-100,27],[-62,24],[-67,56],[86,157],[42,267],[-104,121],[63,30],[22,56],[35,43],[86,53],[59,79],[154,112],[80,24],[67,29],[121,25],[90,-1],[126,18],[53,0],[119,-27],[58,-34],[43,-43],[28,-48],[58,-66],[197,-135],[138,-89],[94,-76],[63,-42],[56,-54],[51,-82],[24,-65],[87,-130]],[[2840,642],[-168,116],[-91,36],[-37,37]],[[1996,3273],[60,-66],[48,-30],[44,-48],[22,-41],[82,-56],[53,-72],[28,-85],[96,-70],[39,-55],[32,-108],[27,-66],[13,-91],[64,-127],[75,-67],[46,-87],[18,-54],[104,-90],[70,-95],[42,-73],[23,-58],[26,-104],[51,-125],[11,-75],[-10,-174],[19,-60],[1,-68],[-57,-218],[-9,-54],[-49,-93],[-27,-77],[-98,-144]],[[476,633],[220,63],[30,-3],[116,-49],[9,-15],[77,-16],[59,22],[60,-49],[-5,62],[105,34]],[[1147,682],[47,-33],[20,3],[105,-20],[1,13],[98,8],[-9,-49],[57,8],[14,-46],[28,2],[103,-37],[75,3],[31,-25],[80,-6],[-35,54]],[[2840,642],[-131,-113],[-74,-51],[-58,-29],[-150,-101],[-87,-49],[-189,-58],[-101,-41],[-126,-18],[-182,-57],[-57,-39],[-72,-35],[-81,-12],[-101,-35],[-42,-4],[-101,16],[-110,10],[-222,57],[-89,30],[-141,94],[-86,78],[-61,84],[-43,92],[-16,77],[-44,95]],[[476,633],[-19,54],[-2,56],[-16,46],[-56,105],[-31,75],[-47,168],[-4,40],[19,83],[-37,114],[-8,54],[14,72]],[[935,1485],[-16,-62],[-31,-2],[10,-62],[56,6],[-56,-72],[21,-75],[42,-8],[5,-30],[-39,-42],[-10,-81],[25,-85],[128,-149],[-22,-9],[99,-132]]],"transform":{"scale":[0.0008777823376623405,0.0010362632084534099],"translate":[79.37485229999999,5.719]},"objects":{"admin_level_4":{"type":"GeometryCollection","geometries":[{"arcs":[[0,1,2,3]],"type":"Polygon","properties":{"name":"North Central","name:en":"North Central","name:ja":"北中部州","name:si":"උතුරු මැද පළාත","name:ta":"வட மத்திய மாகாணம்","boundary":"administrative","ISO3166-2":"LK-7","wikipedia":"en:North Central Province, Sri Lanka","admin_level":"4"},"id":4630836},{"arcs":[[4,5,-1,6,7]],"type":"Polygon","properties":{"name":"Central Province","name:en":"Central Province","name:ja":"中部州","name:si":"මධ්‍යම පළාත","name:ta":"மத்திய மாகாணம்","boundary":"administrative","ISO3166-2":"LK-2","wikipedia":"en:Central Province, Sri Lanka","admin_level":"4"},"id":4630835},{"arcs":[[8,9,-8,10]],"type":"Polygon","properties":{"name":"Uva Province","name:en":"Uva","name:ja":"ウバ州","name:si":"ඌව පළාත","name:ta":"ஊவா மாகாணம்","boundary":"administrative","ISO3166-2":"LK-8","wikipedia":"en:Uva Province","admin_level":"4"},"id":4630840},{"arcs":[[11,12,13,14,-2,-6]],"type":"Polygon","properties":{"name":"North Western Province","name:en":"North Western Province","name:ja":"北西部州","name:si":"වයඹ පළාත","name:ta":"வட மேல் மாகாணம்","boundary":"administrative","ISO3166-2":"LK-6","wikipedia":"en:North Western Province, Sri Lanka","admin_level":"4"},"id":4630837},{"arcs":[[15,-3,-15,16]],"type":"Polygon","properties":{"name":"Northern Province","source":"wikimedia commons","name:en":"Northern Province","name:ja":"北部州","name:si":"උතුරු පළාත","name:ta":"வட மாகாணம்","boundary":"administrative","wikidata":"Q598745","ISO3166-2":"LK-4","wikipedia":"en:Northern Province, Sri Lanka","admin_level":"4"},"id":3237344},{"arcs":[[17,-11,-7,-4,-16,18]],"type":"Polygon","properties":{"name":"Eastern Province","name:en":"Eastern","name:ja":"東部州","name:si":"නැගෙනහිර පළාත","name:ta":"கிழக்கு மாகாணம்","boundary":"administrative","ISO3166-2":"LK-5","wikipedia":"en:Eastern Province, Sri Lanka","admin_level":"4"},"id":4630810},{"arcs":[[19,20,-9,-18,21]],"type":"Polygon","properties":{"name":"Southern Province","name:en":"Southern Province","name:ja":"南部州","name:si":"දකුණු පළාත","name:ta":"தென் மாகாணம்","boundary":"administrative","ISO3166-2":"LK-3","wikipedia":"en:Southern Province, Sri Lanka","admin_level":"4"},"id":4630839},{"arcs":[[22,-13,23,-20]],"type":"Polygon","properties":{"name":"Western Province","name:en":"Western Province","name:ja":"西部州","name:si":"බස්නාහිර පළාත","name:ta":"மேல் மாகாணம்","boundary":"administrative","ISO3166-2":"LK-1","wikipedia":"en:Western Province, Sri Lanka","admin_level":"4"},"id":4630841},{"arcs":[[-24,-12,-5,-10,-21]],"type":"Polygon","properties":{"name":"Sabaragamuwa Province","name:en":"Sabaragamuwa Province","name:ja":"サバラガムワ州","name:si":"සබරගමුව පළාත","name:ta":"சபரகமுவ மாகாணம்","boundary":"administrative","ISO3166-2":"LK-9","wikipedia":"en:Sabaragamuwa Province","admin_level":"4"},"id":4630838}]}}}