{"type":"Topology","arcs":[[[6055,7693],[-89,-35],[-59,-44],[-48,34],[-43,-53],[-105,-16],[-25,23],[-44,-2],[-25,17],[-6,41],[-43,5],[-64,-19],[-71,-33],[-8,-101],[-54,-24]],[[5371,7486],[-54,24],[-5,36],[-38,9],[-28,45],[-85,8],[-3,108],[-63,7],[-82,42],[-66,-8]],[[4947,7757],[75,220],[32,75],[37,144],[67,-7],[42,34],[63,4],[32,34],[38,4],[26,-24],[7,-99],[20,-15],[18,-62],[32,-13],[53,-70],[19,-1],[41,-48],[114,-63],[147,-32],[48,23],[61,9],[87,32],[9,-27],[38,-8]],[[6053,7867],[8,-119],[-6,-55]],[[5964,6424],[-90,3],[-32,56],[-88,94],[-66,-2],[-67,18],[-2,59],[-33,32],[-69,4],[-34,-33],[7,-24],[-91,-62]],[[5399,6569],[6,31],[-29,34],[-11,54],[23,44],[-77,2],[-30,51],[3,38],[-32,31],[-78,20],[-18,30]],[[5156,6904],[-8,76],[41,100],[-43,49],[25,35],[-27,60],[-32,32],[12,22],[71,18],[-2,-30],[108,15],[-2,36],[23,25],[-37,37],[4,27],[46,23],[36,57]],[[6055,7693],[31,-24],[73,-7],[-13,-50],[13,-22],[-22,-38],[-60,-11],[12,-37],[-45,-51],[4,-66],[-37,-20],[17,-44],[29,-7],[-14,-105],[-21,-27],[-4,-48],[-34,-58],[7,-27],[-66,-29],[-2,-67],[23,-20],[51,-6],[66,79],[69,47],[62,94],[85,-69],[44,-13],[86,1],[6,-19],[-40,-54],[-63,-65],[147,-146],[13,-44],[-55,-35],[-143,-30],[-43,-2],[-64,29],[-49,-45],[-21,-44],[-64,-69],[-68,-102],[-1,-18]],[[4690,6773],[-29,-19],[-16,-69],[-30,-70],[-39,-141],[31,-35],[-6,-92],[-18,-54],[-43,-30]],[[4540,6263],[-93,55],[-16,24],[-79,-9],[-44,18],[-38,59],[-84,60],[-24,50],[-35,5],[-17,-63],[9,-58],[-29,-40],[-90,-46],[-29,-29],[-47,-21],[-31,2],[-37,82],[-27,25],[-75,-17],[-36,16],[-39,52],[17,32],[-36,26]],[[3660,6486],[142,142],[93,150],[49,6],[58,58],[38,13],[196,82],[63,41],[57,10],[61,51],[28,5],[47,41],[52,20]],[[4544,7105],[37,-34],[18,-86],[31,-20],[55,-5],[-3,-48],[8,-139]],[[4853,4728],[-36,-24],[-42,5],[-46,-14],[-26,-24],[-60,18],[-52,-1],[-58,17],[-49,-27],[-39,-44],[-64,-17],[-51,7],[-32,-42],[-56,-26],[-66,-48],[-19,-26],[-92,-60],[-68,-54],[-65,-68],[-94,-46],[0,-224]],[[3838,4030],[-138,186],[-14,38],[-61,7],[-32,38],[-20,106],[7,23],[44,31],[24,45],[-25,58],[-10,69],[-53,60],[-115,-35],[-59,-2],[-36,19],[-50,-25],[-31,34],[-36,14],[-8,69]],[[3225,4765],[20,35],[62,64],[75,156],[13,55],[15,127],[-25,17],[-20,54],[-37,37],[-48,12],[39,104],[-6,67]],[[3313,5493],[47,-82],[35,5],[16,32],[42,7],[31,-17],[27,15],[63,-35],[36,14],[78,-2],[5,36],[66,44],[37,-44],[42,5],[101,-19],[91,14],[52,28],[55,-17],[31,28],[28,82],[47,31],[24,-15]],[[4267,5603],[8,-54],[-9,-99],[30,0],[-9,-60],[53,-13],[7,-74],[15,-28],[-75,-54],[27,-25],[9,-49],[54,-66],[55,-5],[34,13],[62,91],[63,-23],[76,15],[21,34],[70,22],[67,-96],[-36,-34],[46,-56],[-9,-30],[35,-57],[19,-126],[-27,-101]],[[5156,6904],[-14,-28],[2,-62],[-69,13],[-49,-15],[-65,25],[0,54],[-67,18],[0,-34],[-24,-53],[14,-27],[-65,-66],[-65,31],[-64,13]],[[4544,7105],[44,26],[90,89],[59,92],[11,32],[83,141],[49,103],[67,169]],[[4517,5767],[-31,-45],[-46,-30],[-38,-2],[-29,-23],[-39,-3],[-67,-61]],[[3313,5493],[4,41],[-15,51],[19,98],[-1,49],[-18,13],[69,117],[7,55],[151,186],[10,44],[29,35],[7,70],[-21,35],[27,65],[-21,38],[100,96]],[[4540,6263],[15,-8],[-14,-98],[10,-61],[24,-21],[-5,-42],[25,-34],[-16,-48],[-55,-9],[-44,10],[-24,-27],[25,-51],[32,-35],[27,-1],[-23,-71]],[[5399,6569],[-26,-36],[-5,-104],[-15,-57],[-25,-28],[-57,-6],[0,-52],[35,-82],[-48,14],[-52,-14],[-32,-39],[-44,-7],[-21,-82],[41,-31],[-8,-40],[-47,-20],[-21,-39],[-209,-96],[-96,-65],[-31,4],[-8,-62],[-42,-8],[-145,13],[-26,35]],[[3839,3375],[-95,26],[-44,53],[-41,20],[-51,53],[-53,35],[-54,-27],[-63,-12],[-100,75],[-45,70],[-48,-15],[-42,42],[-36,2],[-34,47],[-29,9],[-203,-26],[-31,10],[-64,-14],[-120,-13],[-78,33],[-57,6],[-46,33],[-52,107],[-6,36],[-32,48]],[[2415,3973],[116,50],[29,21],[66,101],[103,104],[25,32],[177,100],[67,50],[57,83],[76,73],[63,104],[31,74]],[[3838,4030],[1,-440],[0,-215]],[[2315,1842],[-120,30],[-126,-31],[-33,0],[-126,55],[-107,25],[-80,-8],[-99,-44],[-81,-24],[-56,21],[-121,31],[-104,-6],[-92,-31],[-26,9],[-46,52],[-56,16],[-55,71]],[[987,2008],[35,126],[5,74],[-13,47],[9,95],[24,79],[35,60],[30,127],[31,43],[30,75],[11,108],[34,47],[38,10],[32,30],[31,50],[65,11],[165,111],[51,54],[30,75],[37,117],[5,44],[47,89],[65,207],[41,22],[29,39],[13,49],[29,34],[118,16],[264,58],[137,68]],[[3839,3375],[0,-206],[0,-427],[-350,0],[-427,0],[-336,0],[-411,0],[0,-427],[0,-473]],[[2315,1842],[0,-518],[-71,-21],[-96,-55],[-94,-15],[-195,-149],[-49,-73],[-20,-76],[30,-123],[15,-251],[23,-416],[-415,2],[-431,-3],[-347,1],[-279,0],[-335,0],[-19,-117],[-32,-28],[33,235],[12,165],[32,65],[41,139],[57,74],[21,-15],[65,32],[24,96],[33,36],[12,88],[25,62],[0,36],[35,13],[32,52],[-28,46],[36,53],[99,208],[58,103],[32,41],[-20,41],[3,35],[69,46],[11,29],[59,68],[54,52],[74,100],[71,38],[10,40],[37,30]],[[6315,5925],[-189,-44],[2,-143],[-48,-24],[3,-88],[36,-6],[3,-38],[63,-47],[-10,-45],[-43,-50],[3,-85],[-79,-56],[-31,12],[-119,-14],[-80,-32],[-131,-137],[-151,-79],[-85,-77],[-54,-38],[-37,-49],[-6,-44],[-105,-162],[-39,15],[-33,46],[-35,16],[-124,-29],[-43,11],[-38,-10],[-92,0]],[[5964,6424],[45,-42],[2,-46],[28,-27],[46,-79],[0,-33],[70,2],[-7,-53],[61,19],[68,-21],[30,23],[-1,-98],[32,-81],[20,-16],[-43,-47]],[[6053,7867],[34,42],[30,5],[42,-31],[118,-23],[122,61],[19,31],[56,-81],[11,-42],[31,-16],[39,9],[74,-21],[63,37],[98,-34],[-2,-22],[148,-114],[2,-20],[68,-35],[-34,-46],[-1,-31],[34,-54],[25,-10],[-43,-53],[35,-49],[-3,-25],[29,-87],[-23,-132],[12,-53],[-30,-41],[42,-14],[21,-33],[5,-48],[-34,-84],[-3,-53],[43,-75],[52,-60],[-11,-37],[-26,-10],[73,-121],[51,-25],[124,-98],[-56,-58],[-35,-6],[-19,-111],[40,-53],[-31,-17],[-163,7],[-78,16],[-122,34],[-75,-22],[-45,15],[-123,-13],[-24,-18],[-125,-1],[-27,-43],[41,-86],[10,-48],[-197,-45]]],"transform":{"scale":[0.0021874444716775596,0.0017949153297035687],"translate":[-17.064849199999998,21.0783944]},"objects":{"admin_level_4":{"type":"GeometryCollection","geometries":[{"arcs":[[0,1,2,3]],"type":"Polygon","properties":{"ref":"1","name":"Tanger-Tétouan-Al Hoceima ⵟⴰⵏⵊ-ⵟⵉⵜⴰⵡⵉⵏ-ⵍⵃⵓⵙⵉⵎⴰ طنجة-تطوان-الحسيمة","name:ar":"طنجة - تطوان - الحسيمة","name:en":"Tangier-Tetouan-Al Hoceima","name:fr":"Tanger-Tétouan-Al Hoceima","name:pl":"Tanger-Tetuan-Al Husajma","name:ru":"Танжер-Тетуан-Эль-Хосейма","name:uk":"Танжер-Тетуан-Эль-Хосейма","boundary":"administrative","name:ber":"ⵟⴰⵏⵊ-ⵟⵉⵜⴰⵡⵉⵏ-ⵍⵃⵓⵙⵉⵎⴰ","wikidata":"Q19951300","wikipedia":"fr:Tanger-Tétouan-Al Hoceima","population":"3556729","ref:MA:HCP":"01.","admin_level":"4","border_type":"region","population:date":"2014"},"id":1592819},{"arcs":[[4,5,6,-1,7]],"type":"Polygon","properties":{"ref":"3","name":"Fès-Meknès ⴼⴰⵙ-ⵎⴽⵏⴰⵙ فاس-مكناس","name:ar":"فاس - مكناس","name:en":"Fez-Meknes","name:es":"Fez-Mequinez","name:fr":"Fès-Meknès","name:pl":"Fez-Meknes","name:ru":"Фес-Мекне́с","name:uk":"Фес-Мекне́с","boundary":"administrative","name:ber":"ⴼⴰⵙ-ⵎⴽⵏⴰⵙ","wikipedia":"fr:Fès-Meknès","population":"4236892","ref:MA:HCP":"03.","admin_level":"4","border_type":"region","population:date":"2014"},"id":4730909},{"arcs":[[8,9,10,11]],"type":"Polygon","properties":{"name":"Casablanca-Settat ⵜⵉⴳⵎⵉ ⵜⵓⵎⵍⵉⵍⵜ-ⵙⵟⵟⴰⵜ الدار البيضاء-سطات","name:ar":"الدار البيضاء سطات","name:en":"Casablanca-Settat","name:fr":"Casablanca-Settat","name:pl":"Casablanca-Settat","name:ru":"Касабланка -Сеттат","name:uk":"Касабланка -Сеттат","boundary":"administrative","int_name":"Casablanca-Settat","name:ber":"ⵜⵉⴳⵎⵉ ⵜⵓⵎⵍⵉⵍⵜ-ⵙⵟⵟⴰⵜ","wikidata":"Q19843788","population":"6861739","ref:MA:HCP":"06.","admin_level":"4","border_type":"region","population:date":"2014"},"id":2424085},{"arcs":[[12,13,14,15,16]],"type":"Polygon","properties":{"ref":"9","name":"Souss-Massa ⵙⵓⵙⵙ-ⵎⴰⵙⵙⴰ سوس-ماسة","name:ar":"سوس-ماسة","name:es":"Sus-Masa","name:fr":"Souss-Massa","name:lt":"Suso-Masa","name:pl":"Sus-Massa","name:ru":"Сус-Масса","name:uk":"Сус-Масса","boundary":"administrative","name:ber":"ⵙⵓⵙⵙ-ⵎⴰⵙⵙⴰ","wikidata":"Q264529","wikipedia":"fr:Souss-Massa","population":"2676847","ref:MA:HCP":"09.","admin_level":"4","border_type":"region","population:date":"2014"},"id":2424036},{"arcs":[[17,-12,18,-2,-7]],"type":"Polygon","properties":{"ref":"4","name":"Rabat-Salé-Kénitra ⴻⵔⵔⴱⴰⵟ-ⵙⵍⴰ-ⵇⵏⵉⵟⵔⴰ الرباط-سلا-القنيطرة","name:ar":"الرباط سلا القنيطرة","name:en":"Rabat-Salé-Kenitra","name:fr":"Rabat-Salé-Kénitra","name:pl":"Rabat-Sala-Kenitra","name:ru":"Рабат-Сале-Кенитра","name:uk":"Рабат-Сале-Кенитра","boundary":"administrative","name:ber":"ⴻⵔⵔⴱⴰⵟ-ⵙⵍⴰ-ⵇⵏⵉⵟⵔⴰ","wikidata":"Q19951239","wikipedia":"fr:Rabat-Salé-Kénitra","population":"1061435","ref:MA:HCP":"04.","admin_level":"4","border_type":"region","population:date":"2014"},"id":4730737},{"arcs":[[19,-16,20,-10,21]],"type":"Polygon","properties":{"ref":"7","name":"Marrakech-Safi ⵎⵕⵕⴰⴽⵛ-ⴰⵙⴼⵉ مراكش-أسفي","name:ar":"مراكش أسفي","name:en":"Marrakech-Safi","name:pl":"Marrakesz-Safi","name:ru":"Марракеш-Сафи","name:uk":"Марракеш-Сафи","boundary":"administrative","name:ber":"ⵎⵕⵕⴰⴽⵛ-ⴰⵙⴼⵉ","wikidata":"Q19951125","wikipedia":"en:Marrakech-Safi","population":"4520569","ref:MA:HCP":"07.","admin_level":"4","border_type":"region","population:date":"2014"},"id":2424086},{"arcs":[[22,-22,-9,-18,-6]],"type":"Polygon","properties":{"ref":"5","name":"Béni Mellal-Khénifra ⴰⵢⵜ ⵎⵍⵍⴰⵍ-ⵅⵏⵉⴼⵕⴰ بني ملال-خنيفرة","name:ar":"بني ملال-خنيفرة","name:en":"Béni Mellal-Khénifra","name:es":"Beni Melal-Jenifra","name:fr":"Béni Mellal-Khénifra","name:pl":"Bani Mallal-Chunajfira","name:ru":"Бени-Меллаль--Хенифра","name:uk":"Бени-Меллаль--Хенифра","boundary":"administrative","name:ber":"ⴰⵢⵜ ⵎⵍⵍⴰⵍ-ⵅⵏⵉⴼⵕⴰ","wikipedia":"fr:Béni Mellal-Khénifra","population":"2520776","ref:MA:HCP":"05.","admin_level":"4","border_type":"region","population:date":"2014"},"id":4734547},{"arcs":[[23,24,-14,25]],"type":"Polygon","properties":{"ref":"10","name":"Guelmim-Oued Noun ⴳⵍⵎⵉⵎ-ⵡⴰⴷ ⵏⵓⵏ گلميم - واد نون","name:ar":"گلميم - واد نون","name:en":"Guelmim-Oued Noun","name:fr":"Guelmim-Oued Noun","name:lt":"Gelimimo-","name:pl":"Kulmim-","name:ru":"Гулимим-","name:uk":"Гельмім-","boundary":"administrative","name:ber":"ⴳⵍⵎⵉⵎ-ⵡⴰⴷ ⵏⵓⵏ","wikidata":"Q529796","wikipedia":"en:Guelmim-Oued Noun","population":"433757","ref:MA:HCP":"10.","admin_level":"4","border_type":"region","population:date":"2014"},"id":2424040},{"arcs":[[26,27,-24,28]],"type":"Polygon","properties":{"ref":"11","name":"Laâyoune-Sakia El Hamra ⵍⵄⵢⵓⵏ-ⵙⴰⵇⵢⴰ ⵍⵃⴰⵎⵔⴰ العيون-الساقية الحمراء","name:ar":"العيون-الساقية الحمراء","name:fr":"Laâyoune-Sakia El Hamra","name:lt":"Alujuno-Sakija Alhamro","name:pl":"Al-Ujun-Sakija al-Hamra","name:ru":"Эль-Аюн — Сегиет-эль-Хамра","name:uk":"Ель-Аюн — Сегієт-ель-Хамра","boundary":"administrative","name:ber":"ⵍⵄⵢⵓⵏ-ⵙⴰⵇⵢⴰ ⵍⵃⴰⵎⵔⴰ","wikidata":"Q19951088","wikipedia":"en:Laâyoune-Boujdour-Sakia El Hamra","population":"367758","ref:MA:HCP":"11.","admin_level":"4","border_type":"region","population:date":"2014"},"id":2424260},{"arcs":[[29,-27]],"type":"Polygon","properties":{"ref":"12","name":"Dakhla-Oued Ed-Dahab ⴷⴰⵅⵍⴰ-ⵡⴰⴷ ⴷⴰⵀⴰⴱ الداخلة-وادي الذهب","name:ar":"الداخلة-وادي الذهب","name:fr":"Dakhla-Oued Ed-Dahab","name:pl":"Wadi az-Zahab-","name:ru":"Вади-эд-Дахаб-","name:uk":"Ваді-ед-Дахаб-","boundary":"administrative","name:ber":"ⴷⴰⵅⵍⴰ-ⵡⴰⴷ ⴷⴰⵀⴰⴱ","wikidata":"Q693528","wikipedia":"en:Dakhla-Oued Ed-Dahab","population":"142955","ref:MA:HCP":"12.","admin_level":"4","border_type":"region","population:date":"2014"},"id":3406823},{"arcs":[[30,-17,-20,-23,-5,31]],"type":"Polygon","properties":{"ref":"8","name":"Drâa-Tafilalet ⴷⴰⵔⵄⴰ-ⵜⴰⴼⵉⵍⴰⵍⵜ درعة-تافيلالت","name:ar":"درعة-تافيلالت","name:fr":"Drâa-Tafilalet","name:pl":"Daraa-Tafilalet","name:ru":"Драа-Тафилалет","name:uk":"Драа-Тафілалет","boundary":"administrative","name:ber":"ⴷⴰⵔⵄⴰ-ⵜⴰⴼⵉⵍⴰⵍⵜ","wikidata":"Q19950954","wikipedia":"fr:Drâa-Tafilalet","population":"1635008","ref:MA:HCP":"08.","admin_level":"4","border_type":"region","population:date":"2014"},"id":2424034},{"arcs":[[-32,-8,-4,32]],"type":"Polygon","properties":{"ref":"2","name":"Oriental ⵜⴰⵏⴳⵎⵓⴹⵜ الشرقية","name:ar":"الشرقية","name:fr":"Oriental","name:pl":"Region Wschodni","name:ru":"Восточная область","name:uk":"Східна область","boundary":"administrative","name:ber":"ⵜⴰⵏⴳⵎⵓⴹⵜ","name:zgh":"ⵜⴰⵏⴳⵎⵓⴹⵜ","wikidata":"Q19952604","wikipedia":"fr:Oriental (Maroc)","population":"2314346","ref:MA:HCP":"02.","admin_level":"4","border_type":"region","alt_name:ber":"ⵉⵎⵉⵏⴳ","alt_name:zgh":"ⵉⵎⵉⵏⴳ","population:date":"2014"},"id":1719443}]}}}