{"type":"Topology","arcs":[[[5315,6086],[46,-52],[51,-127],[39,-5],[98,20],[98,-113],[103,-2],[128,-46],[118,-34],[57,-63],[86,60],[73,-66],[-90,-161],[33,-67],[-1,-67],[99,-87],[45,-8],[100,-69],[70,-82]],[[6468,5117],[-135,-99],[-82,-162],[-67,-39],[-42,-84]],[[6142,4733],[20,-25],[7,-66],[19,-14],[57,-122],[-43,9],[-36,-33],[-67,37],[-85,15],[-79,-5],[-18,-24]],[[5917,4505],[-37,41],[-28,69],[-38,19],[-3,105],[10,51],[-68,21],[-23,85],[-42,25],[-77,-38],[-24,-59],[-62,-55],[-30,-48],[-72,5]],[[5423,4726],[7,35],[-29,149],[5,41],[-29,82]],[[5377,5033],[-29,88],[54,96],[26,141],[-59,195],[-3,158],[-137,78],[54,265],[32,32]],[[2226,2654],[131,11],[27,-86],[173,-132],[109,135],[-5,106],[123,34],[73,4]],[[2857,2726],[-1,-4],[85,-61],[2,-70],[57,-51],[-52,-53],[21,-104],[38,-79],[35,-14],[55,31],[83,-2],[95,-38],[35,-50],[-12,-58],[44,-22],[16,-83],[51,-55],[11,-71],[68,-38],[19,-58],[49,-40],[-1,-24],[52,-44],[127,-71],[42,-51],[74,-15],[66,-76],[102,-45],[96,-10],[18,-32],[63,-39],[-28,-39],[-2,-100]],[[4165,1260],[-208,-10],[-122,-68],[-37,0],[-254,142],[5,-169],[-88,-33],[146,-127],[64,-153],[-6,-44],[-81,-102],[-39,5],[-258,127],[-157,42]],[[3130,870],[23,139],[2,73],[-38,21],[9,51],[-1,2],[-21,47],[-56,32],[-100,78],[-30,36],[-91,76],[46,13],[28,56],[-36,113],[-67,50],[-27,68],[-51,31],[-24,-14],[-120,28],[-31,-38],[0,2],[-1,8],[-1,2],[-3,6],[-2,4],[0,6],[-4,5],[-27,60],[-2,60],[-70,33]],[[2435,1918],[142,105],[-49,99],[-57,46],[-207,294],[-31,92],[-7,100]],[[3016,2554],[1,-2]],[[3017,2552],[-10,-6],[-1,2],[10,6]],[[5287,6351],[69,58],[10,44]],[[5366,6453],[164,26],[79,5],[56,-26],[38,4],[84,74],[72,6],[70,22],[54,45],[1,91],[63,68],[60,-3],[-2,-105],[130,-98],[118,-45]],[[6353,6517],[229,-73],[181,-130],[157,-92],[77,-34],[59,-40]],[[7056,6148],[-107,-61],[66,-36],[-68,-110],[68,-25],[17,-27],[-46,-71],[5,-26],[99,-87],[67,-76]],[[7157,5629],[-57,-21],[-86,-68],[0,-61],[-43,-76],[2,-68],[17,-29],[57,-25],[-69,-65]],[[6978,5216],[-108,-42],[-98,27],[-33,-25],[-76,-24],[-40,20],[-92,-46],[-63,-9]],[[5315,6086],[49,48],[-2,24],[-128,62],[-12,72],[65,59]],[[4926,8452],[95,-28],[85,-10],[36,-25],[86,-28],[32,-44],[52,-113],[18,-90],[101,-14],[56,-33],[37,-77],[81,15],[134,3],[31,-73],[63,7],[20,24],[46,-8],[36,-37],[11,-78],[-10,-48],[60,-78],[66,-13],[17,-33],[63,16],[52,-17],[-18,-50],[27,-77],[130,113],[38,-19],[45,-76],[63,10],[19,-48],[42,-35],[30,64],[96,29],[50,42],[62,22],[15,-29],[-16,-111],[28,-93],[34,-42],[35,-85],[86,-55],[71,-30],[86,-66],[38,-53],[-9,-80]],[[7146,7001],[-265,-183],[-35,-9],[-49,39],[-133,-113],[-112,5],[-134,-159],[-65,-64]],[[5366,6453],[-4,165],[-75,10],[-124,115],[22,36],[50,132],[-4,93],[-16,48],[-34,32],[-117,6],[-55,63],[-139,-3],[-73,80],[-97,76],[-59,16],[-87,-9],[-63,-19],[-66,44],[-74,67]],[[4351,7405],[-41,51],[62,97],[-28,71],[102,3],[83,92],[2,59],[122,174],[69,47],[14,33],[-30,85],[66,186],[90,2],[64,147]],[[1577,2611],[4,84],[26,80],[45,90],[-26,61],[-24,97],[36,45]],[[1638,3068],[74,-88],[15,-34],[145,-13],[81,-75],[96,-17],[124,-113],[53,-74]],[[2435,1918],[-84,59],[20,57],[-19,49],[-66,27],[-45,53],[-54,8],[-26,36],[-79,55],[-7,67],[-1,1],[-31,26],[5,47],[-3,2],[-1,-1],[-2,4],[1,0],[0,3],[-19,61],[-1,78],[-60,68],[-92,-9],[-10,33],[-61,-3],[-57,-63],[-1,0],[0,1],[-1,0],[-67,64],[-97,-30]],[[1147,4659],[144,95],[7,56],[-68,125],[46,51],[8,80],[85,-13],[28,80],[38,7],[130,-76],[105,2],[83,23],[88,-1],[81,-49],[35,-102],[41,-55],[77,-64],[64,-82],[20,-64],[62,-69]],[[2221,4603],[18,-86],[163,-149],[179,-121],[-36,-35],[-3,-61],[-45,-36],[-2,-61],[-53,-40],[83,-148]],[[2525,3866],[-73,-67],[116,-84],[37,-57],[51,-27],[17,-99],[21,-66],[80,34],[48,-42],[55,-172],[332,-227],[28,-263],[-85,-51],[-137,-81]],[[3015,2664],[-2,2],[-78,61],[-53,67],[-49,-27],[25,-35],[-1,-6]],[[1638,3068],[-45,171],[-91,54],[-10,44],[53,87],[8,85],[57,112],[-5,68],[-48,152],[-127,261],[-56,88],[-85,49],[36,114],[-19,30],[-75,33],[-84,243]],[[2221,4603],[52,43],[149,49],[47,-24],[63,-8],[51,30],[0,64],[-23,44],[-70,78],[-3,84],[161,188],[78,-32],[63,20],[93,0],[193,-40],[63,8],[76,65],[42,-1],[78,-59],[81,-8],[60,27],[-4,31],[-88,24],[-23,23],[33,49],[-30,93],[39,64],[25,107]],[[3427,5522],[58,-60],[31,-106],[68,-128],[58,-81],[25,-112],[20,-49],[60,-46],[13,-52]],[[3760,4888],[-51,-25],[-106,-368],[-69,-137],[-68,-89],[-46,-190],[15,-38],[65,-12],[-80,-208],[-22,-25],[-107,-10],[-62,46],[-259,-87],[-367,2],[-23,72],[-55,47]],[[6142,4733],[137,-130],[136,-33],[130,-106],[-35,-46],[-62,6],[-16,-54],[37,-42],[13,-80],[-29,-54],[27,-53],[-21,-45],[52,-110]],[[6511,3986],[-28,-38],[-3,-60],[-30,-33],[-45,54],[-41,9],[-19,-64],[-33,-22],[-45,19],[-25,-42],[-34,15],[-44,-81],[-106,43],[-64,48],[-52,93],[-63,29],[-25,50],[-6,66],[-71,148],[28,33],[17,72],[-25,66],[61,59],[58,-8],[1,63]],[[487,4390],[1,-50],[79,-115],[63,-25],[127,-25],[1,-70],[40,-30],[33,18],[99,13],[61,-7],[20,-64],[-125,-108],[-73,10],[-97,-32],[-68,-5],[15,-70],[58,-3],[31,-39],[76,-5],[56,11],[97,-5],[113,30],[18,-7]],[[1112,3812],[-34,-46],[-1,-1],[-4,-6],[-4,-9],[0,0],[0,-1],[-10,-10],[0,-4],[1,0],[-1,-3],[1,-6],[-1,-2],[0,0],[-1,-1],[0,0],[0,-1],[0,0],[0,0],[-1,-3],[0,-1],[1,-1],[-76,-72],[-30,-3],[-77,-53],[-128,-37],[-3,-1],[-56,13],[-76,85],[-45,21],[-44,-30],[-66,-2],[-88,60],[-57,-60],[59,-96],[38,-28],[5,-4],[-14,-45],[-81,67],[-99,124],[-39,73],[-57,44],[-51,20],[-70,56],[48,157],[-51,68],[16,39],[9,96],[-4,74],[25,39],[103,16],[64,41],[80,101],[129,-33],[16,-31],[49,-26]],[[860,3447],[-22,-58],[80,-53],[-6,-127],[36,-25],[-1,-67]],[[947,3117],[-21,37],[-40,5],[-2,-19],[-12,-29],[-84,24],[-85,56],[-8,37],[-54,34],[5,83],[-3,0],[-48,11],[-24,4],[-19,13],[-16,42],[-18,0],[-7,4],[-5,0],[1,22],[1,5],[-1,4],[-6,25],[7,7],[2,3],[0,0],[1,0],[0,1],[8,8],[10,7],[6,1],[3,-1],[1,1],[0,0],[1,1],[1,0],[0,1],[1,3],[1,2],[1,2],[-2,1],[1,-1],[-1,1],[-2,2],[0,1],[9,2],[-1,-1],[5,1],[0,3],[0,1],[73,14],[13,-3],[8,-4],[5,-4],[28,-10],[11,-6],[0,0],[1,2],[47,-13],[1,-1],[1,1],[1,-2],[1,1],[0,0],[8,-3],[1,0],[34,-11],[9,-4],[10,-3],[31,-16],[24,-12]],[[3377,6125],[-10,127],[71,90],[-15,72],[136,40],[82,-5],[50,-18],[132,-3],[85,50],[71,26],[52,-46],[20,30],[12,104]],[[4063,6592],[112,-68],[56,-63],[112,-22],[269,-61],[151,58],[63,11],[51,-41],[28,11],[65,78],[67,-50],[144,-19],[106,-75]],[[5377,5033],[-114,0],[-66,-10],[-2,57],[-146,96],[-49,-25],[-53,35],[-282,0],[-91,25],[-37,-29],[-86,-5],[10,-97],[-86,-82],[-108,32],[6,-49],[37,-50],[-58,-30],[-32,-50],[-40,-22],[-56,35],[-30,50],[-71,7],[-263,-33]],[[3427,5522],[-64,52],[29,196],[36,75],[92,88],[19,45],[-33,57],[-129,90]],[[487,4390],[242,106],[1,76],[130,60],[73,5],[106,91],[75,-23],[33,-46]],[[1577,2611],[-19,-58],[-34,-16],[-106,109],[-12,12],[-69,79],[-24,44],[-32,9],[-58,71],[16,47],[-25,65],[-88,83],[55,13],[1,50],[-40,33]],[[1142,3152],[129,90],[68,31],[-2,110],[-26,59],[32,77],[-103,173],[-95,77],[-8,30],[7,1],[2,6]],[[1146,3806],[6,-2],[13,-4],[5,-2],[36,-22],[120,-37],[83,-98],[0,0],[1,0],[0,-1],[0,0],[6,-12],[-4,-8],[0,0],[-2,-2],[-1,-1],[-1,-11],[2,-1],[0,0],[0,0],[0,-1],[6,-2],[1,-11],[10,-37],[0,-4],[1,3],[1,-4],[26,-75],[1,-1],[9,1],[0,0],[4,1],[2,3],[21,-3],[0,2],[-28,81],[-3,0],[-1,0],[-3,3],[2,10],[-1,1],[-2,-1],[0,1],[2,0],[-2,3],[-2,1],[-5,18],[6,7],[11,81],[-14,67],[11,126],[-51,11],[-63,-34],[-109,-5],[-51,9],[1,0],[-47,32],[-8,33],[24,86],[-28,43],[-5,0],[-30,-22],[-2,-12],[-22,-38],[-37,-4],[-82,-89],[108,-32],[51,-41]],[[3871,6952],[41,195],[116,33],[25,48],[82,34],[5,61],[-27,93]],[[4113,7416],[92,-42],[100,-2],[46,33]],[[4063,6592],[-37,22],[-1,59],[-73,107],[-10,115],[-71,57]],[[982,7589],[82,-15],[63,-67],[32,-10],[89,43],[65,-63],[58,-118],[105,-255],[33,-91],[31,-57],[45,-27],[25,-53],[138,-100],[90,-83],[93,-55],[79,-10],[175,11],[127,-18],[115,-52],[25,0]],[[2452,6569],[113,-101],[101,-22],[80,-62],[129,-115],[148,-92],[57,-7],[129,-167],[108,101],[60,21]],[[487,4390],[48,42],[-22,80],[-70,59],[-12,46],[-48,46],[36,75],[41,36],[61,27],[103,11],[-26,79],[-89,96],[8,22],[-19,79],[64,80],[0,48],[40,60],[-55,13],[-130,12],[-62,66],[-69,8],[12,43],[-39,40],[-86,44],[20,88],[-27,36],[-2,58],[-23,18],[17,77],[-14,63],[-35,75],[83,37],[-43,36],[9,101],[32,45],[66,18],[-11,92],[89,40],[-22,37],[-42,137],[-53,78],[19,229],[26,71],[24,108],[54,22],[36,125],[111,75],[213,3],[95,-23],[41,2],[134,51],[32,-3],[-20,391]],[[7146,7001],[25,-61],[73,-20],[49,-32],[14,-63],[29,-26]],[[7336,6799],[-175,-520],[-105,-131]],[[6978,5216],[52,-1],[26,-72],[42,-10],[46,-66],[66,-29],[66,-2],[24,-68],[101,-81],[-14,-45],[-63,-47],[-19,-56],[-62,-61],[-14,-80],[59,-123],[10,-77],[-47,-113],[-91,19],[-32,-56],[-97,-38],[-44,0],[-6,-77],[-36,-109],[-21,-20],[-92,17],[-79,-17],[-54,9],[-39,40],[-51,-15],[-65,-46],[-33,-6]],[[4113,7416],[-3,54],[-47,34],[-6,60],[-25,35],[-135,108],[-99,2],[-23,24],[-13,100],[-86,49],[-67,68],[-23,41],[-53,35],[-59,17],[-66,69],[-131,82],[-81,88],[-143,-6],[-88,-53],[-76,29],[-117,-34],[-108,21],[-29,95],[-138,75],[-1,98]],[[2496,8507],[42,-17],[48,53],[27,87],[32,41],[12,53],[111,28],[84,34],[-13,31],[27,86],[-36,53],[0,48],[-61,53],[1,46],[-59,36],[-36,44],[12,188],[-32,10],[-66,63],[-9,134],[-62,74],[-97,66],[-115,-8],[21,49],[-21,93],[10,72],[-31,35],[-7,61],[-60,-7],[-29,-59],[-37,-15],[-39,71],[50,17],[16,39],[65,23],[49,46],[98,18],[44,33],[-25,29],[37,117],[75,19],[29,-87],[31,-6],[76,-61],[33,-52],[-6,-127],[41,-9],[45,20],[18,37],[41,1],[52,32],[45,-21],[27,53],[70,-17],[78,46],[71,60],[80,-24],[16,11],[110,-11],[114,-26],[11,-107],[-18,-44],[14,-101],[-17,-30],[119,-93],[18,-33],[102,-45],[65,-59],[71,-25],[63,5],[52,-27],[69,-125],[48,-29],[99,8],[47,-67],[82,-55],[33,8],[102,-17],[27,-18],[6,-125],[48,-55],[-3,-79],[92,-71],[19,-40],[186,-62],[43,-82],[-47,-115],[11,-73],[53,-76],[15,-75],[23,-11]],[[2433,8561],[-58,-84],[0,-170],[37,-212],[19,-139],[45,-98],[88,-84],[26,-39],[12,-64]],[[2602,7671],[-52,-47],[-88,73],[-78,-60],[7,-85],[-24,-108],[-48,-133],[-106,-187],[-17,-58],[10,-55],[58,-27],[122,-73],[84,-20],[110,-95],[-35,-78],[-37,-35],[-3,-62],[-53,-52]],[[982,7589],[-34,273],[14,43],[71,301],[65,41],[22,65],[72,32],[8,57],[-77,112],[199,160],[160,82],[84,56],[78,21],[59,45],[42,-4],[36,36],[65,24],[-10,71],[-46,48],[44,34],[127,42],[87,-11],[58,38],[75,-67],[10,-27],[76,-89],[45,4],[10,-82],[-35,-38],[-14,-60],[29,-83],[54,-7],[63,-35],[22,-43],[-8,-67]],[[5423,4726],[-115,-169],[-119,-154],[-1,-70],[22,-87],[-8,-59],[-34,-11],[-11,-42],[-180,-103],[4,-76],[-46,-88],[-19,-2],[-75,-170],[-56,-61],[5,-34],[-71,-33],[-48,-80],[-23,-80],[-37,-44],[-16,-51],[-33,-35],[-137,-52],[-51,-55],[-13,-99],[-37,-25],[12,-99],[15,-31],[-109,-82],[-29,-54],[-72,-58],[24,-84],[-66,-30],[-55,29],[-58,-81],[-67,-28],[33,-38],[13,-81],[-45,29],[-85,-31],[-95,33],[-34,42],[-76,23],[-9,18],[-151,5],[-139,-5],[-49,-70],[-48,60],[-40,14],[-48,-43],[-4,66],[-47,-13],[-55,30],[-23,-15]],[[3016,2554],[8,6],[50,51],[-58,51],[-1,2]],[[7336,6799],[65,-3],[36,-31],[52,22],[27,64],[57,54],[14,-85],[80,-16],[107,-83],[60,5],[69,-66],[69,-47],[51,-1],[77,-48],[64,-5],[65,-60],[41,2],[126,-88],[43,16],[18,-86],[-23,-48],[4,-72],[-16,-34],[30,-99],[-4,-48],[20,-74],[-60,13],[-53,-17],[-34,-43],[-21,59],[-77,0],[-25,-65],[-52,31],[-29,-64],[-84,-33],[1,-42],[34,-19],[14,-150],[-47,-58],[-22,-65],[-60,-14],[-104,-49],[-77,9],[-96,32],[-26,39],[-58,40],[-27,-32],[-9,-54],[-89,48],[-51,9],[-50,38],[-24,40],[-59,-14],[-68,3],[-58,19]],[[2602,7671],[54,-79],[-36,-69],[95,-94],[110,-5],[61,27],[165,7],[-16,-106],[9,-27],[127,-86],[41,5],[116,91],[47,6],[179,-142],[-57,-45],[-12,-29],[70,-50],[172,-16],[144,-107]],[[860,3447],[41,-22],[26,-10],[31,-17],[119,-28],[0,1],[1,1],[4,-2],[2,-1],[59,-14],[33,-43],[0,0],[1,-1],[1,-1],[14,-10],[1,2],[0,1],[29,59],[-3,7],[-11,3],[24,10],[2,55],[-77,81],[-3,7],[-61,177],[17,37],[4,1],[3,27],[1,1],[-2,15],[14,23],[2,4],[14,-4],[0,0]],[[1142,3152],[-6,48],[-31,30],[-3,3],[-24,5],[-2,1],[-61,22],[-50,-31],[19,-60],[-37,-53]],[[4165,1260],[8,-23],[-40,-92],[-4,-78],[19,-117],[37,-52],[-2,-64],[-22,-72],[51,-42],[-17,-27],[-113,-13],[-29,-14],[-2,-112],[79,-68],[8,-29],[-36,-36],[-74,-23],[-22,-35],[41,-42],[63,-17],[14,-55],[57,-32],[-30,-48],[-9,-145],[-16,-24],[-138,107],[-33,46],[-65,58],[-101,62],[-140,68],[-19,6],[-92,26],[1,-22],[-69,66],[-77,38],[-5,-5],[-74,44],[-49,45],[-52,22],[-60,76],[70,-17],[-13,47],[-75,61],[-5,21],[0,2],[-21,26],[54,66],[-33,27]],[[2433,8561],[63,-54]]],"transform":{"scale":[0.0002267480160604632,0.00016525695101922473],"translate":[18.4334249,41.8478264]},"objects":{"me_slim":{"type":"GeometryCollection","geometries":[{"arcs":[[0,1,2,3,4,5]],"type":"Polygon","properties":{"srid":"4326","id":"2319358","name":"Andrijevica Municipality","localname":"Opština Andrijevica","official_name":"","boundary":"adminstrative","admin_level":"6","note":"","wikidata":"Q2384773","wikipedia":"","timestamp":"2019-01-24 06:45:10","rpath":"2319358,53296,0","alltags":{"name":"Opština Andrijevica","capital":"6","name:bg":"Община Андриевица","name:bs":"Općina Andrijevica","name:cs":"Občina Andrijevica","name:de":"Gemeinde Andrijevica","name:en":"Andrijevica Municipality","name:es":"Municipio de Andrijevica","name:fr":"Municipalité d'Andrijevica","name:hr":"Općina Andrijevica","name:mk":"Општина Андриевица","name:ro":"Comuna Andrijevica","name:ru":"Община Андриевица","name:sh":"Opština Andrijevica","name:sk":"Obec Andrijevica","name:sl":"Občina Andrijevica","name:sq":"Komuna e Andrijevica","name:sr":"Општина Андријевица","boundary":"administrative","wikidata":"Q2384773","ISO3166-2":"ME-01","admin_level":"6","name:sr-Latn":"Opština Andrijevica"}}},{"arcs":[[[6,7,8,9,10]],[[11,12]]],"type":"MultiPolygon","properties":{"srid":"4326","id":"2319526","name":"Bar Municipality","localname":"Opština Bar","official_name":"","boundary":"adminstrative","admin_level":"6","note":"","wikidata":"Q2604068","wikipedia":"","timestamp":"2019-01-24 06:45:10","rpath":"2319526,53296,0","alltags":{"name":"Opština Bar","capital":"6","name:bg":"Община Бар","name:bs":"Općina Bar","name:cs":"Občina Bar","name:de":"Gemeinde Bar","name:en":"Bar Municipality","name:es":"Municipio de Bar","name:fr":"Municipalité de Bar","name:hr":"Općina Bar","name:it":"Antivari","name:mk":"Општина Бар","name:ro":"Comuna Bar","name:ru":"Община Бар","name:sh":"Opština Bar","name:sk":"Obec Bar","name:sl":"Občina Bar","name:sq":"Komuna e Tivari","name:sr":"Општина Бар","boundary":"administrative","wikidata":"Q2604068","ISO3166-2":"ME-02","admin_level":"6","alt_name:it":"Antibari","name:sr-Latn":"Opština Bar"}}},{"arcs":[[13,14,15,16,17,18,-1,19]],"type":"Polygon","properties":{"srid":"4326","id":"2319359","name":"Berane Municipality","localname":"Opština Berane","official_name":"","boundary":"adminstrative","admin_level":"6","note":"","wikidata":"Q4853794","wikipedia":"","timestamp":"2019-01-24 06:45:10","rpath":"2319359,53296,0","alltags":{"name":"Opština Berane","capital":"6","name:bg":"Община Беране","name:bs":"Općina Berane","name:cs":"Občina Berane","name:de":"Gemeinde Berane","name:en":"Berane Municipality","name:es":"Municipio de Berane","name:fr":"Municipalité de Berane","name:hr":"Općina Berane","name:mk":"Општина Беране","name:ro":"Comuna Berane","name:ru":"Община Беране","name:sh":"Opština Berane","name:sk":"Obec Berane","name:sl":"Občina Berane","name:sq":"Komuna e Berane","name:sr":"Општина Беране","boundary":"administrative","wikidata":"Q4853794","ISO3166-2":"ME-03","admin_level":"6","name:sr-Latn":"Opština Berane"}}},{"arcs":[[20,21,-15,22,23]],"type":"Polygon","properties":{"srid":"4326","id":"2319527","name":"Bijelo Polje Municipality","localname":"Opština Bijelo Polje","official_name":"","boundary":"adminstrative","admin_level":"6","note":"","wikidata":"Q4086488","wikipedia":"","timestamp":"2019-01-24 06:45:10","rpath":"2319527,53296,0","alltags":{"name":"Opština Bijelo Polje","capital":"6","name:bg":"Община Бијело Поље","name:bs":"Općina Bijelo Polje","name:cs":"Občina Bijelo Polje","name:de":"Gemeinde Bijelo Polje","name:en":"Bijelo Polje Municipality","name:es":"Municipio de Bijelo Polje","name:fr":"Municipalité de Bijelo Polje","name:hr":"Općina Bijelo Polje","name:mk":"Општина Бијело Поље","name:ro":"Comuna Bijelo Polje","name:ru":"Община Биело-Поле","name:sh":"Opština Bijelo Polje","name:sk":"Obec Bijelo Polje","name:sl":"Občina Bijelo Polje","name:sq":"Komuna e Bijelo Polje","name:sr":"Општина Бијело Поље","boundary":"administrative","wikidata":"Q4086488","ISO3166-2":"ME-04","admin_level":"6","name:sr-Latn":"Opština Bijelo Polje"}}},{"arcs":[[24,25,-11,26]],"type":"Polygon","properties":{"srid":"4326","id":"2319528","name":"Budva Municipality","localname":"Opština Budva","official_name":"","boundary":"adminstrative","admin_level":"6","note":"","wikidata":"Q3739214","wikipedia":"","timestamp":"2019-01-24 06:45:10","rpath":"2319528,53296,0","alltags":{"name":"Opština Budva","capital":"6","name:bg":"Община Будва","name:bs":"Općina Budva","name:cs":"Občina Budva","name:de":"Gemeinde Budva","name:en":"Budva Municipality","name:es":"Municipio de Budva","name:fr":"Municipalité de Budva","name:hr":"Općina Budva","name:it":"Budua","name:mk":"Општина Будва","name:ro":"Comuna Budva","name:ru":"Община Будва","name:sh":"Opština Budva","name:sk":"Obec Budva","name:sl":"Občina Budva","name:sq":"Komuna e Budva","name:sr":"Општина Будва","boundary":"administrative","wikidata":"Q3739214","ISO3166-2":"ME-05","admin_level":"6","name:sr-Latn":"Opština Budva"}}},{"arcs":[[27,28,29,30,-7,-26,31]],"type":"Polygon","properties":{"srid":"4326","id":"2319529","name":"Cetinje Municipality","localname":"Opština Cetinje","official_name":"","boundary":"adminstrative","admin_level":"6","note":"","wikidata":"Q3305075","wikipedia":"","timestamp":"2019-01-24 06:45:10","rpath":"2319529,53296,0","alltags":{"name":"Opština Cetinje","capital":"6","name:bg":"Община Цетине","name:bs":"Općina Cetinje","name:cs":"Občina Cetinje","name:de":"Gemeinde Cetinje","name:en":"Cetinje Municipality","name:es":"Municipio de Cetinje","name:fr":"Municipalité de Cetinje","name:hr":"Općina Cetinje","name:it":"Cettigne","name:mk":"Општина Цетине","name:ro":"Comuna Cetinje","name:ru":"Община Цетине","name:sh":"Opština Cetinje","name:sk":"Obec Cetinje","name:sl":"Občina Cetinje","name:sq":"Komuna e Cetinje","name:sr":"Општина Цетине","boundary":"administrative","wikidata":"Q3305075","ISO3166-2":"ME-06","admin_level":"6","name:sr-Latn":"Opština Cetinje"}}},{"arcs":[[32,33,34,-29]],"type":"Polygon","properties":{"srid":"4326","id":"2319530","name":"Danilovgrad Municipality","localname":"Opština Danilovgrad","official_name":"","boundary":"adminstrative","admin_level":"6","note":"","wikidata":"Q3741507","wikipedia":"","timestamp":"2019-01-24 06:45:10","rpath":"2319530,53296,0","alltags":{"name":"Opština Danilovgrad","capital":"6","name:bg":"Община Даниловград","name:bs":"Općina Danilovgrad","name:cs":"Občina Danilovgrad","name:de":"Gemeinde Danilovgrad","name:en":"Danilovgrad Municipality","name:es":"Municipio de Danilovgrad","name:fr":"Municipalité de Danilovgrad","name:hr":"Općina Danilovgrad","name:lt":"Danilovgrado savivaldybė","name:mk":"Општина Даниловград","name:ro":"Comuna Danilovgrad","name:ru":"Община Даниловград","name:sh":"Opština Danilovgrad","name:sk":"Obec Danilovgrad","name:sl":"Občina Danilovgrad","name:sq":"Komuna e Danilovgrad","name:sr":"Општина Даниловград","boundary":"administrative","wikidata":"Q3741507","ISO3166-2":"ME-07","admin_level":"6","name:sr-Latn":"Opština Danilovgrad"}}},{"arcs":[[-3,35,36]],"type":"Polygon","properties":{"srid":"4326","id":"7460668","name":"Gusinje Municipality","localname":"Opština Gusinje","official_name":"","boundary":"adminstrative","admin_level":"6","note":"","wikidata":"Q16085370","wikipedia":"","timestamp":"2019-01-24 06:45:10","rpath":"7460668,53296,0","alltags":{"name":"Opština Gusinje","capital":"6","name:bg":"Община Гусине","name:bs":"Općina Gusinje","name:cs":"Občina Gusinje","name:de":"Gemeinde Gusinje","name:en":"Gusinje Municipality","name:es":"Municipio de Gusinje","name:fr":"Municipalité de Gusinje","name:hr":"Općina Gusinje","name:mk":"Општина Гусине","name:ro":"Comuna Gusinje","name:ru":"Община Гусине","name:sh":"Opština Gusinje","name:sk":"Obec Gusinje","name:sl":"Občina Gusinje","name:sq":"Komuna e Gucisë","name:sr":"Општина Гусиње","boundary":"administrative","wikidata":"Q16085370","ISO3166-2":"ME-22","admin_level":"6","name:sr-Latn":"Opština Gusinje"}}},{"arcs":[[[37,38]],[[39,40]]],"type":"MultiPolygon","properties":{"srid":"4326","id":"2187901","name":"Herceg Novi Municipality","localname":"Opština Herceg Novi","official_name":"","boundary":"adminstrative","admin_level":"6","note":"includes contested District Sutorina (de jure in BH, de facto in ME)","wikidata":"Q193103","wikipedia":"","timestamp":"2019-01-24 06:45:10","rpath":"2187901,53296,0","alltags":{"name":"Opština Herceg Novi","note":"includes contested District Sutorina (de jure in BH, de facto in ME)","capital":"6","name:bg":"Община Херцег Нови","name:bs":"Općina Herceg Novi","name:cs":"Občina Herceg Novi","name:de":"Gemeinde Herceg Novi","name:en":"Herceg Novi Municipality","name:es":"Municipio de Herceg Novi","name:fr":"Municipalité de Herceg Novi","name:hr":"Općina Herceg Novi","name:it":"Castelnuovo di Cattaro","name:lt":"Herceg Novio savivaldybė","name:mk":"Општина Херцег Нови","name:ro":"Comuna Herceg Novi","name:ru":"Община Херцег-Нови","name:sh":"Opština Herceg Novi","name:sk":"Obec Herceg Novi","name:sl":"Občina Herceg Novi","name:sq":"Komuna e Herceg Novit","name:sr":"Општина Херцег Нови","boundary":"administrative","wikidata":"Q193103","ISO3166-2":"ME-08","admin_level":"6","alt_name:it":"Castelnuovo in Dalmazia","name:sr-Latn":"Opština Herceg-Novi","short_name:it":"Castelnuovo"}}},{"arcs":[[41,42,-20,-6,43,-34,44]],"type":"Polygon","properties":{"srid":"4326","id":"2319531","name":"Kolašin Municipality","localname":"Opština Kolašin","official_name":"","boundary":"adminstrative","admin_level":"6","note":"","wikidata":"Q3303233","wikipedia":"","timestamp":"2019-01-24 06:45:10","rpath":"2319531,53296,0","alltags":{"name":"Opština Kolašin","capital":"6","name:bg":"Община Колашин","name:bs":"Općina Kolašin","name:cs":"Občina Kolašin","name:de":"Gemeinde Kolašin","name:en":"Kolašin Municipality","name:es":"Municipio de Kolašin","name:fr":"Municipalité de Kolašin","name:hr":"Općina Kolašin","name:mk":"Општина Колашин","name:ro":"Comuna Kolašin","name:ru":"Община Колашин","name:sh":"Opština Kolašin","name:sk":"Obec Kolašin","name:sl":"Občina Kolašin","name:sq":"Komuna e Kolašin","name:sr":"Општина Колашин","boundary":"administrative","wikidata":"Q3303233","ISO3166-2":"ME-09","admin_level":"6","name:sr-Latn":"Opština Kolašin"}}},{"arcs":[[45,-32,-25,46,47,48,-38]],"type":"Polygon","properties":{"srid":"4326","id":"2319532","name":"Kotor Municipality","localname":"Opština Kotor","official_name":"","boundary":"adminstrative","admin_level":"6","note":"","wikidata":"Q4856305","wikipedia":"","timestamp":"2019-01-24 06:45:10","rpath":"2319532,53296,0","alltags":{"name":"Opština Kotor","capital":"6","name:bg":"Община Котор","name:bs":"Općina Kotor","name:cs":"Občina Kotor","name:de":"Gemeinde Kotor","name:en":"Kotor Municipality","name:es":"Municipio de Kotor","name:fr":"Municipalité de Kotor","name:hr":"Općina Kotor","name:it":"Cattaro","name:mk":"Општина Котор","name:ro":"Comuna Kotor","name:ru":"Община Котор","name:sh":"Opština Kotor","name:sk":"Obec Kotor","name:sl":"Občina Kotor","name:sq":"Komuna e Kotor","name:sr":"Општина Котор","boundary":"administrative","wikidata":"Q4856305","ISO3166-2":"ME-10","admin_level":"6","name:sr-Latn":"Opština Kotor"}}},{"arcs":[[49,50,-23,-14,-43,51]],"type":"Polygon","properties":{"srid":"4326","id":"2319533","name":"Mojkovac Municipality","localname":"Opština Mojkovac","official_name":"","boundary":"adminstrative","admin_level":"6","note":"","wikidata":"Q3299782","wikipedia":"","timestamp":"2019-01-24 06:45:10","rpath":"2319533,53296,0","alltags":{"name":"Opština Mojkovac","capital":"6","name:bg":"Община Мойковац","name:bs":"Općina Mojkovac","name:cs":"Občina Mojkovac","name:de":"Gemeinde Mojkovac","name:en":"Mojkovac Municipality","name:es":"Municipio de Mojkovac","name:fr":"Municipalité de Mojkovac","name:hr":"Općina Mojkovac","name:mk":"Општина Мойковац","name:ro":"Comuna Mojkovac","name:ru":"Община Мойковац","name:sh":"Opština Mojkovac","name:sk":"Obec Mojkovac","name:sl":"Občina Mojkovac","name:sq":"Komuna e Mojkovac","name:sr":"Општина Мојковац","boundary":"administrative","wikidata":"Q3299782","ISO3166-2":"ME-11","admin_level":"6","name:sr-Latn":"Opština Mojkovac"}}},{"arcs":[[52,53,-45,-33,-28,-46,54]],"type":"Polygon","properties":{"srid":"4326","id":"2319534","name":"Nikšić Municipality","localname":"Opština Nikšić","official_name":"","boundary":"adminstrative","admin_level":"6","note":"","wikidata":"Q4865016","wikipedia":"","timestamp":"2019-01-24 06:45:10","rpath":"2319534,53296,0","alltags":{"name":"Opština Nikšić","capital":"6","name:bg":"Община Никшич","name:bs":"Općina Nikšić","name:cs":"Občina Nikšić","name:de":"Gemeinde Nikšić","name:en":"Nikšić Municipality","name:es":"Municipio de Nikšić","name:fr":"Municipalité de Nikšić","name:hr":"Općina Nikšić","name:lt":"Nikšičiaus savivaldybė","name:mk":"Општина Никшич","name:ro":"Comuna Nikšić","name:ru":"Община Никшич","name:sh":"Opština Nikšić","name:sk":"Obec Nikšić","name:sl":"Občina Nikšić","name:sq":"Komuna e Nikšić","name:sr":"Општина Никшић","boundary":"administrative","wikidata":"Q4865016","ISO3166-2":"ME-12","admin_level":"6","name:sr-Latn":"Opština Nikšić"}}},{"arcs":[[-22,55,56,-16]],"type":"Polygon","properties":{"srid":"4326","id":"7463938","name":"Petnjica Municipality","localname":"Opština Petnjica","official_name":"","boundary":"adminstrative","admin_level":"6","note":"","wikidata":"Q15630696","wikipedia":"","timestamp":"2019-01-24 06:45:10","rpath":"7463938,53296,0","alltags":{"name":"Opština Petnjica","capital":"6","name:bg":"Община Петница","name:bs":"Općina Petnjica","name:cs":"Občina Petnjica","name:de":"Gemeinde Petnjica","name:en":"Petnjica Municipality","name:es":"Municipio de Petnjica","name:fr":"Municipalité de Petnjica","name:hr":"Općina Petnjica","name:mk":"Општина Петница","name:ro":"Comuna Petnjica","name:ru":"Община Петница","name:sh":"Opština Petnjica","name:sk":"Obec Petnjica","name:sl":"Občina Petnjica","name:sq":"Komuna e Petnjica","name:sr":"Општина Петњица","boundary":"administrative","wikidata":"Q15630696","ISO3166-2":"ME-23","admin_level":"6","name:sr-Latn":"Opština Petnjica"}}},{"arcs":[[-2,-19,57,-36]],"type":"Polygon","properties":{"srid":"4326","id":"2317882","name":"Plav Municipality","localname":"Opština Plav","official_name":"","boundary":"adminstrative","admin_level":"6","note":"","wikidata":"Q4859821","wikipedia":"","timestamp":"2019-01-24 06:45:10","rpath":"2317882,53296,0","alltags":{"name":"Opština Plav","capital":"6","name:bg":"Община Плав","name:bs":"Općina Plav","name:cs":"Občina Plav","name:de":"Gemeinde Plav","name:en":"Plav Municipality","name:es":"Municipio de Plav","name:fr":"Municipalité de Plav","name:hr":"Općina Plav","name:lt":"Plavo opština","name:mk":"Општина Плав","name:ro":"Comuna Plav","name:ru":"Община Плав","name:sh":"Opština Plav","name:sk":"Obec Plav","name:sl":"Občina Plav","name:sq":"Komuna e Plav","name:sr":"Општина Плав","boundary":"administrative","wikidata":"Q4859821","ISO3166-2":"ME-13","admin_level":"6","name:sr-Latn":"Opština Plav"}}},{"arcs":[[-24,-51,58,59]],"type":"Polygon","properties":{"srid":"4326","id":"2319535","name":"Pljevlja Municipality","localname":"Opština Pljevlja","official_name":"","boundary":"adminstrative","admin_level":"6","note":"","wikidata":"Q3299950","wikipedia":"","timestamp":"2019-01-24 06:45:10","rpath":"2319535,53296,0","alltags":{"name":"Opština Pljevlja","capital":"6","name:bg":"Община Плевля","name:bs":"Općina Pljevlja","name:cs":"Občina Pljevlja","name:de":"Gemeinde Pljevlja","name:en":"Pljevlja Municipality","name:es":"Municipio de Pljevlja","name:fr":"Municipalité de Pljevlja","name:hr":"Općina Pljevlja","name:mk":"Општина Плевля","name:ro":"Comuna Pljevlja","name:ru":"Община Плевля","name:sh":"Opština Pljevlja","name:sk":"Obec Pljevlja","name:sl":"Občina Pljevlja","name:sq":"Komuna e Pljevlja","name:sr":"Општина Пљевља","boundary":"administrative","wikidata":"Q3299950","ISO3166-2":"ME-14","admin_level":"6","name:sr-Latn":"Opština Pljevlja"}}},{"arcs":[[60,61,-53,62]],"type":"Polygon","properties":{"srid":"4326","id":"2319536","name":"Plužine Municipality","localname":"Opština Plužine","official_name":"","boundary":"adminstrative","admin_level":"6","note":"","wikidata":"Q4864476","wikipedia":"","timestamp":"2019-01-24 06:45:10","rpath":"2319536,53296,0","alltags":{"name":"Opština Plužine","capital":"6","name:bg":"Община Плужине","name:bs":"Općina Plužine","name:cs":"Občina Plužine","name:de":"Gemeinde Plužine","name:en":"Plužine Municipality","name:es":"Municipio de Plužine","name:fr":"Municipalité de Plužine","name:hr":"Općina Plužine","name:mk":"Општина Плужине","name:ro":"Comuna Plužine","name:ru":"Община Плужине","name:sh":"Opština Plužine","name:sk":"Obec Plužine","name:sl":"Občina Plužine","name:sq":"Komuna e Plužine","name:sr":"Општина Плужине","boundary":"administrative","wikidata":"Q4864476","ISO3166-2":"ME-15","admin_level":"6","name:sr-Latn":"Opština Plužine"}}},{"arcs":[[-35,-44,-5,63,-12,64,-30]],"type":"Polygon","properties":{"srid":"4326","id":"2319360","name":"Podgorica Municipality","localname":"Opština Podgorica","official_name":"","boundary":"adminstrative","admin_level":"6","note":"","wikidata":"Q3305250","wikipedia":"","timestamp":"2019-01-24 06:45:10","rpath":"2319360,53296,0","alltags":{"name":"Opština Podgorica","name:bg":"Община Подгорица","name:bs":"Općina Podgorica","name:cs":"Občina Podgorica","name:de":"Gemeinde Podgorica","name:en":"Podgorica Municipality","name:es":"Municipio de Podgorica","name:fr":"Municipalité de Podgorica","name:hr":"Općina Podgorica","name:it":"Podgodizza","name:mk":"Општина Подгорица","name:ro":"Comuna Podgorica","name:ru":"Община Подгорица","name:sh":"Opština Podgorica","name:sk":"Obec Podgorica","name:sl":"Občina Podgorica","name:sq":"Komuna e Podgorica","name:sr":"Општина Подгорица","boundary":"administrative","wikidata":"Q3305250","ISO3166-2":"ME-16","admin_level":"6","name:sr-Latn":"Opština Podgorica"}}},{"arcs":[[-57,65,-17]],"type":"Polygon","properties":{"srid":"4326","id":"2317936","name":"Rožaje Municipality","localname":"Opština Rožaje","official_name":"","boundary":"adminstrative","admin_level":"6","note":"","wikidata":"Q3296677","wikipedia":"","timestamp":"2019-01-24 06:45:10","rpath":"2317936,53296,0","alltags":{"name":"Opština Rožaje","capital":"6","name:bg":"Община Рожае","name:bs":"Općina Rožaje","name:cs":"Občina Rožaje","name:de":"Gemeinde Rožaje","name:en":"Rožaje Municipality","name:es":"Municipio de Rožaje","name:fr":"Municipalité de Rožaje","name:hr":"Općina Rožaje","name:mk":"Општина Рожае","name:ro":"Comuna Rožaje","name:ru":"Община Рожае","name:sh":"Opština Rožaje","name:sk":"Obec Rožaje","name:sl":"Občina Rožaje","name:sq":"Komuna e Rožaje","name:sr":"Општина Рожаје","boundary":"administrative","wikidata":"Q3296677","ISO3166-2":"ME-17","admin_level":"6","name:sr-Latn":"Opština Rožaje"}}},{"arcs":[[66,-52,-42,-54,-62]],"type":"Polygon","properties":{"srid":"4326","id":"2319539","name":"Šavnik Municipality","localname":"Opština Šavnik","official_name":"","boundary":"adminstrative","admin_level":"6","note":"","wikidata":"Q13365880","wikipedia":"","timestamp":"2019-01-24 06:45:10","rpath":"2319539,53296,0","alltags":{"name":"Opština Šavnik","capital":"6","name:bg":"Община Шавник","name:bs":"Općina Šavnik","name:cs":"Občina Šavnik","name:de":"Gemeinde Šavnik","name:en":"Šavnik Municipality","name:es":"Municipio de Šavnik","name:fr":"Municipalité de Šavnik","name:hr":"Općina Šavnik","name:mk":"Општина Шавник","name:ro":"Comuna Šavnik","name:ru":"Община Шавник","name:sh":"Opština Šavnik","name:sk":"Obec Šavnik","name:sl":"Občina Šavnik","name:sq":"Komuna e Šavnik","name:sr":"Општина Шавник","boundary":"administrative","wikidata":"Q13365880","ISO3166-2":"ME-18","admin_level":"6","name:sr-Latn":"Opština Šavnik"}}},{"arcs":[[67,-48,68,-40]],"type":"Polygon","properties":{"srid":"4326","id":"2319537","name":"Tivat Municipality","localname":"Opština Tivat","official_name":"","boundary":"adminstrative","admin_level":"6","note":"","wikidata":"Q3738564","wikipedia":"","timestamp":"2019-01-24 06:45:10","rpath":"2319537,53296,0","alltags":{"name":"Opština Tivat","capital":"6","name:bg":"Община Тиват","name:bs":"Općina Tivat","name:cs":"Občina Tivat","name:de":"Gemeinde Tivat","name:en":"Tivat Municipality","name:es":"Municipio de Tivat","name:fr":"Municipalité de Tivat","name:hr":"Općina Tivat","name:it":"Teodo","name:mk":"Општина Тиват","name:ro":"Comuna Tivat","name:ru":"Община Тиват","name:sh":"Opština Tivat","name:sk":"Obec Tivat","name:sl":"Občina Tivat","name:sq":"Komuna e Tivat","name:sr":"Општина Тиват","boundary":"administrative","wikidata":"Q3738564","ISO3166-2":"ME-19","admin_level":"6","name:sr-Latn":"Opština Tivat"}}},{"arcs":[[-9,69]],"type":"Polygon","properties":{"srid":"4326","id":"2319538","name":"Ulcinj Municipality","localname":"Opština Ulcinj - Komuna e Ulqinit","official_name":"","boundary":"adminstrative","admin_level":"6","note":"","wikidata":"Q3305169","wikipedia":"","timestamp":"2019-01-24 06:45:10","rpath":"2319538,53296,0","alltags":{"name":"Opština Ulcinj - Komuna e Ulqinit","capital":"6","name:bg":"Община Ульцинь","name:bs":"Općina Ulcinj","name:cs":"Občina Ulcinj","name:de":"Gemeinde Ulcinj","name:en":"Ulcinj Municipality","name:es":"Municipio de Ulcinj","name:fr":"Municipalité d'Ulcinj","name:hr":"Općina Ulcinj","name:it":"Dulcigno","name:lt":"Ulcinio savivaldybė","name:mk":"Општина Ульцинь","name:ro":"Comuna Ulcinj","name:ru":"Община Ульцинь","name:sh":"Opština Ulcinj","name:sk":"Obec Ulcinj","name:sl":"Občina Ulcinj","name:sq":"Komuna e Ulqinit","name:sr":"Општина Улцињ","boundary":"administrative","wikidata":"Q3305169","ISO3166-2":"ME-20","admin_level":"6","name:sr-Latn":"Opština Ulcinj"}}},{"arcs":[[70,-59,-50,-67,-61]],"type":"Polygon","properties":{"srid":"4326","id":"2319540","name":"Žabljak Municipality","localname":"Opština Žabljak","official_name":"","boundary":"adminstrative","admin_level":"6","note":"","wikidata":"Q3304454","wikipedia":"","timestamp":"2019-01-24 06:45:10","rpath":"2319540,53296,0","alltags":{"name":"Opština Žabljak","capital":"6","name:bg":"Община Жабляк","name:bs":"Općina Žabljak","name:cs":"Občina Žabljak","name:de":"Gemeinde Žabljak","name:en":"Žabljak Municipality","name:es":"Municipio de Žabljak","name:fr":"Municipalité de Žabljak","name:hr":"Općina Žabljak","name:mk":"Општина Жабляк","name:ro":"Comuna Žabljak","name:ru":"Община Жабляк","name:sh":"Opština Žabljak","name:sk":"Obec Žabljak","name:sl":"Občina Žabljak","name:sq":"Komuna e Zhabljakut","name:sr":"Општина Жабљак","boundary":"administrative","wikidata":"Q3304454","ISO3166-2":"ME-21","admin_level":"6","name:sr-Latn":"Opština Žabljak"}}}]}}}