{"transform":{"scale":[0.0012236388638863882,0.001259554145414542],"translate":[-17.068499399999997,14.720660099999998]},"objects":{"admin_level_4":{"geocoding":{"license":"ODbL (see http://www.openstreetmap.org/copyright)","generator":{"package":"fences-builder","author":{"name":"Mapzen"},"version":"0.1.2"},"creation_date":"2016-01-09"},"geometries":[{"properties":{"admin_level":"4","name:ru":"Ход-эш-Шарки","name":"الحوض الشرقي","name:fr":"Hodh Ech Chargui","name:de":"Hodh Ech Chargui","wikipedia":"en:Hodh Ech Chargui Region","name:en":"Hodh Ech Chargui","ISO3166-2":"MR-01","name:ar":"الحوض الشرقي","boundary":"administrative","wikidata":"Q12621","name:pl":"Haud asz-Szarki"},"id":3394987,"arcs":[[-1,-2,-3,-4]],"osm_type":"relation","name":"الحوض الشرقي","type":"Polygon"},{"properties":{"admin_level":"4","name:ru":"Адрар","long_name:en":"Adrar Province","ref":"01","long_name:ar":"ولاية أدرار","name":"أدرار","name:fr":"Adrar","name:de":"Adrar","wikipedia":"fr:Wilaya d'Adrar","name:en":"Adrar","ISO3166-2":"MR-07","long_name:fr":"Wilaya d'Adrar","name:ar":"أدرار","name:ber":"ⴰⴷⵔⴰⵔ","boundary":"administrative","wikidata":"Q366626","name:pl":"Adrar"},"id":3394986,"arcs":[[3,4,5,6,7,8,9,10]],"osm_type":"relation","name":"أدرار","type":"Polygon"},{"properties":{"admin_level":"4","name:ru":"Ход-эль-Гарби","name":"ولاية الحوض الغربي","name:fr":"Hodh El Gharbi","name:de":"Hodh El Gharbi","wikipedia":"en:Hodh El Gharbi Region","name:en":"Hodh El Gharbi","ISO3166-2":"MR-02","name:ar":"ولاية الحوض الغربي","boundary":"administrative","wikidata":"Q850435","name:pl":"Haud al-Gharbi"},"id":3395036,"arcs":[[1,-12,-13,-14]],"osm_type":"relation","name":"ولاية الحوض الغربي","type":"Polygon"},{"properties":{"admin_level":"4","name:ru":"Иншири","name":"إينشيري","name:fr":"Inchiri","name:de":"Inchiri","wikipedia":"en:Inchiri Region","name:en":"Inchiri","ISO3166-2":"MR-12","name:ar":"إينشيري","boundary":"administrative","wikidata":"Q850022","name:pl":"Insziri"},"id":3395037,"arcs":[[-7,-15,-16,-17]],"osm_type":"relation","name":"إينشيري","type":"Polygon"},{"properties":{"border_type":"region","name:ta":"நவாக்சோட்","name:lt":"Nuakšotas","name:el":"Νουακσότ","name:es":"Nuakchot","name:eo":"Nuakŝoto","name:mr":"नवाकसुत","name":"نواكشوط","name:ru":"Нуакшот","alt_name:de":"Nouakchott","name:en":"Nouakchott","ISO3166-2":"MR-NKC","name:be-tarask":"Нуакшот","name:tr":"Nuakşot","name:lv":"Nuakšota","name:udm":"Нуакшот","name:ast":"Nuakxot","name:pl":"Nawakszut","admin_level":"4","name:zh":"努瓦克肖特","name:is":"Núaksjott","name:cs":"Nuakšott","name:bn":"নুওয়াকশুত","name:uk":"Нуакшот","name:so":"Nawakshot","name:hr":"Nouakchott","name:de":"Nuakschott","name:sr":"Нуакшот","name:th":"นูแอกชอต","name:mrj":"Нуакшот","name:tg":"Нуакшот","boundary":"administrative","name:vo":"Nävakjut","name:ku":"Nûakşot","name:da":"Nouakchott","name:pnb":"نوواکوٹ","name:bg":"Нуакшот","name:az":"Nuakşot","wikidata":"Q3688","name:mk":"Нуакшот","name:vi":"Nouakchott","name:he":"נואקשוט","name:eu":"Nuakchot","name:ar":"نواكشوط","name:ckb":"نۆئاکشۆت","name:fa":"نوآکشوت","name:nov":"Nouakchot","name:fr":"Nouakchott","name:hy":"Նուակշոտ","name:kk":"Нуакшот қаласы","name:ur":"نواکشوط","name:bo":"ནའུ་ཀ་ཅོ་ཊི།","name:yue":"或索","name:am":"ኑዋክሾት","name:ht":"Nouakchot","name:ja":"ヌアクショット","wikipedia":"ar:نواكشوط","name:ky":"Нуакшот","name:ko":"누악쇼트","name:sv":"Nouakchott","name:ka":"ნუაქშოტი","name:be":"Нуакшот"},"id":3395130,"arcs":[[-18,-19]],"osm_type":"relation","name":"نواكشوط","type":"Polygon"},{"properties":{"admin_level":"4","name:ru":"Тагант","name":"ولاية تكانت","name:fr":"Tagant","name:de":"Tagant","wikipedia":"en:Tagant Region","name:en":"Tagant","ISO3166-2":"MR-09","name:ar":"ولاية تكانت‎","boundary":"administrative","wikidata":"Q843903","name:pl":"Takant"},"id":3394988,"arcs":[[2,13,-20,-21,-5]],"osm_type":"relation","name":"ولاية تكانت","type":"Polygon"},{"properties":{"admin_level":"4","name:ru":"Ассаба","name":"الحوض الشرقي","name:fr":"Assaba","name:de":"Assaba","wikipedia":"en:Assaba Region","name:en":"Assaba","ISO3166-2":"MR-03","name:ar":"الحوض الشرقي","boundary":"administrative","wikidata":"Q738546","name:pl":"Al-Asaba"},"id":3395241,"arcs":[[21,22,23,19,12,24]],"osm_type":"relation","name":"الحوض الشرقي","type":"Polygon"},{"properties":{"admin_level":"4","name:ru":"Трарза","name":"ولاية الترارزة","name:fr":"Trarza","name:de":"Trarza","wikipedia":"en:Trarza Region","name:en":"Trarza","ISO3166-2":"MR-06","name:ar":"ولاية الترارزة","boundary":"administrative","wikidata":"Q859581","name:pl":"At-Tarariza"},"id":3395245,"arcs":[[-6,-26,-27,17,-28,14]],"osm_type":"relation","name":"ولاية الترارزة","type":"Polygon"},{"properties":{"admin_level":"4","name:ru":"Горголь","name":"كوركول","name:fr":"Gorgol","name:de":"Gorgol","wikipedia":"en:Gorgol Region","name:en":"Gorgol","ISO3166-2":"MR-04","name:ar":"كوركول","boundary":"administrative","wikidata":"Q859831","name:pl":"Kurkul"},"id":3395243,"arcs":[[28,29,30,-23]],"osm_type":"relation","name":"كوركول","type":"Polygon"},{"properties":{"admin_level":"4","name:ru":"Бракна","name":"ولاية البراكنة","name:fr":"Brakna","name:de":"Brakna","wikipedia":"en:Brakna Region","name:en":"Brakna","ISO3166-2":"MR-05","name:ar":"ولاية البراكنة","boundary":"administrative","wikidata":"Q12632","name:pl":"Al-Barakina"},"id":3395242,"arcs":[[-24,-31,-32,25,20]],"osm_type":"relation","name":"ولاية البراكنة","type":"Polygon"},{"properties":{"admin_level":"4","name:ru":"Кудимага","name":"غيديماغا","name:fr":"Guidimaka","name:de":"Guidimaka","wikipedia":"en:Guidimaka Region","name:en":"Guidimaka","ISO3166-2":"MR-10","name:ar":"غيديماغا","boundary":"administrative","wikidata":"Q768119","name:pl":"Ghidimagha"},"id":3395244,"arcs":[[-22,-33,-29]],"osm_type":"relation","name":"غيديماغا","type":"Polygon"},{"properties":{"admin_level":"4","name:ru":"Тирис-Земмур","name":"تيرس زمور","name:fr":"Tiris Zemmour","name:de":"Tiris Zemmour","wikipedia":"en:Tiris Zemmour Region","name:en":"Tiris Zemmour","ISO3166-2":"MR-11","name:ar":"تيرس زمور","boundary":"administrative","wikidata":"Q859567","name:pl":"Tiris Zammur"},"id":3394989,"arcs":[[-10,33]],"osm_type":"relation","name":"تيرس زمور","type":"Polygon"},{"properties":{"admin_level":"4","name:ru":"Дахлет-Нуадибу","name":"داخلة نواذيبو","name:fr":"Dakhlet Nouadhibou","name:de":"Dakhlet Nouadhibou","wikipedia":"en:Dakhlet Nouadhibou Region","name:en":"Dakhlet Nouadhibou","ISO3166-2":"MR-08","name:ar":"داخلة نواذيبو","boundary":"administrative","wikidata":"Q859573","name:pl":"Dachlat Nawazibu"},"id":3395035,"arcs":[[-8,16,-35]],"osm_type":"relation","name":"داخلة نواذيبو","type":"Polygon"}],"type":"GeometryCollection"}},"arcs":[[[6595,619],[2859,0],[16,76],[11,56],[13,60],[16,79],[15,71],[20,100],[15,73],[11,53],[11,52],[8,41],[-25,15],[-61,35],[-61,37],[-60,35],[-18,11],[-5,42],[-4,39],[-5,47],[-5,51],[-4,33],[-8,73],[-5,52],[-7,60],[-6,52],[-5,45],[-6,55],[-10,89],[-8,74],[-8,61],[-10,90],[-7,64],[-3,25],[-4,38],[-8,67],[-7,64],[-8,70],[-3,28],[-6,51],[-6,53],[-7,59],[-7,61],[-5,48],[-5,44],[-5,42],[-4,33],[-7,53],[-10,86],[-10,84],[-11,84],[-8,68],[-5,50],[-6,47],[-6,51],[-7,61],[-8,73],[-6,56],[-8,67],[-7,66],[-6,48],[-7,64],[-7,65],[-7,57],[-5,49],[-5,40],[-3,32],[-5,42],[-8,69],[-7,60],[-4,42],[-8,67],[-6,53],[-4,38],[-6,48],[-9,78],[-8,71],[-5,46],[-8,69],[-7,54],[-5,45],[-8,64],[-11,95],[-7,64],[-3,20],[-8,71],[-4,38],[-6,52],[-8,66],[-7,62],[-10,84],[-6,46],[-4,40],[-5,41],[-4,30],[-3,27],[-7,54],[-5,42],[-8,74],[-7,53],[-1,11],[-4,34],[-6,45],[-7,57],[-4,35],[-4,38],[-6,48],[-5,37],[-4,39],[-2,17],[-4,34],[-6,43],[-5,43],[-4,34],[-3,29],[-3,26],[-4,43],[-4,39],[-2,18]],[[6472,2034],[450,54],[253,-260],[-377,-390],[-117,-111],[20,-56],[-162,-206],[80,-163],[8,-252],[-30,-28],[-2,-3]],[[7421,3973],[-949,-1939]],[[8756,6699],[-4,-6],[-16,-34],[-1315,-2686]],[[7421,3973],[-2490,-11],[-317,-240],[-23,-163],[-186,92],[-174,-111],[-368,-222],[-268,-272]],[[3595,3046],[-470,352],[-799,0]],[[2326,3398],[1,219],[1,121],[53,1341],[-15,21]],[[2366,5100],[-104,157]],[[2262,5257],[485,0],[15,-1],[240,0],[15,-1],[15,1],[60,0],[15,-1],[141,0],[9,-1],[68,0],[-2,27],[-1,13],[-1,14],[0,13],[-1,14],[-1,14],[-2,13],[-1,14],[0,13],[-1,14],[-1,13],[-1,14],[-1,13]],[[3312,5443],[20,-6],[513,-176],[1299,134],[3501,2186]],[[8645,7581],[5,-38],[7,-63],[7,-58],[3,-26],[3,-29],[2,-22],[8,-60],[5,-34],[4,-33],[6,-43],[6,-49],[3,-26],[5,-36],[5,-40],[1,-6],[5,-37],[5,-42],[4,-29],[6,-44],[6,-43],[4,-36],[4,-30],[3,-24],[4,-34]],[[5299,562],[3,0],[0,-1],[1,-2],[1,1],[1,-1],[1,-2],[1,0],[1,1],[1,1],[1,2],[1,2],[2,1],[1,2],[0,3],[3,0],[3,-2],[2,0],[1,2],[4,0],[2,1],[4,0],[3,1],[2,1],[0,2],[1,1],[2,0],[1,1],[0,-1],[4,0],[2,1],[2,1],[1,1],[0,1],[2,1],[1,0],[1,-1],[0,-1],[2,0],[1,-1],[1,-1],[1,0],[2,1],[5,0],[1,-1],[2,0],[2,-2],[2,0],[1,-1],[2,0],[1,1],[4,-2],[3,-1],[1,0],[0,-1],[8,0],[1,1],[1,0],[2,-1],[2,0],[1,1],[4,0],[1,1],[2,0],[0,-1],[1,0],[0,2],[2,0],[1,1],[2,1],[5,0],[2,-1],[1,-1],[1,-1],[2,-4],[2,-1],[4,0],[2,-1],[1,-1],[1,1],[1,1],[1,0],[2,1],[0,-1],[1,0],[0,2],[2,0],[1,1],[1,1],[2,-1],[3,0],[2,1],[1,1],[4,0],[4,-1],[1,0],[1,-1],[3,-1],[4,0],[1,-1],[4,-1],[2,1],[1,1],[1,0],[1,-1],[1,0],[2,1],[4,0],[2,1],[5,0],[2,-1],[2,-1],[2,0],[4,-1],[2,0],[2,1],[2,1],[2,2],[2,1],[0,1],[2,1],[10,0],[2,-1],[1,-1],[1,-1],[1,0],[0,-1],[1,-1],[1,0],[1,1],[4,0],[0,-1],[1,-1],[1,0],[3,-2],[2,0],[2,-1],[2,0],[1,-1],[1,1],[1,-1],[1,0],[2,-3],[-1,-3],[7,0],[2,1],[3,-1],[2,-1],[1,-1],[11,0],[3,-2],[2,-1],[2,0],[1,-1],[1,-1],[10,0],[2,1],[1,1],[1,-1],[2,0],[1,-1],[-1,-1],[0,-1],[4,0],[0,-1],[2,1],[1,0],[0,-1],[1,-2],[1,-1],[2,-2],[0,-1],[1,-1],[1,0],[0,1],[2,0],[0,-1],[1,-1],[3,0],[1,-2],[1,-2],[4,0],[2,3],[3,2],[2,1],[2,0],[1,-2],[2,-1],[1,-2],[1,-2],[1,-1],[3,0],[0,-2],[5,0],[0,-2],[1,0],[0,-1],[1,0],[0,-1],[1,0],[0,-1],[-1,0],[0,-2],[4,0],[0,-1],[1,-1],[1,0],[2,-1],[2,-1],[1,-1],[1,1],[2,0],[1,-1],[1,0],[0,-1],[1,-1],[1,1],[0,1],[1,0],[0,-1],[1,-1],[5,0],[2,-1],[0,1],[1,0],[2,-1],[1,0],[1,1],[1,-1],[1,-1],[2,-1],[8,0],[2,-1],[2,1],[1,-1],[7,0],[2,-1],[3,0],[1,-2],[1,-1],[4,-1],[3,0],[12,2],[3,0],[1,1],[2,-1],[3,0],[4,1],[2,1],[4,1],[3,1],[5,0],[2,2],[2,1],[5,0],[2,-1],[10,0],[1,1],[1,1],[1,2],[2,1],[2,0],[1,1],[2,2],[3,1],[3,1],[4,0],[2,-1],[2,1],[1,1],[1,1],[6,1],[5,0],[3,1],[4,0],[4,2],[1,-1],[4,0],[1,2],[1,2],[1,1],[0,2],[7,0],[5,-1],[10,0],[5,-1],[2,0],[2,-1],[3,-1],[8,-1],[6,0],[4,-1],[11,0],[4,-1],[9,-1],[9,0],[3,1],[5,0],[3,-1],[2,1],[1,0],[1,-1],[3,0],[0,4],[-1,1],[0,2],[1,1],[1,1],[0,2],[1,1],[3,3],[4,2],[2,2],[2,1],[2,0],[1,-1],[3,0],[1,-1],[5,0],[2,1],[1,0],[1,2],[3,2],[1,1],[5,0],[2,-1],[0,-2],[1,-2],[1,-1],[1,0],[3,-1],[1,0],[2,-1],[2,0],[2,1],[4,0],[1,-1],[2,-2],[1,0],[1,1],[5,3],[2,0],[3,1],[1,-1],[1,-1],[1,1],[1,1],[1,0],[0,1],[1,1],[1,1],[1,1],[1,-1],[1,0],[1,1],[3,0],[0,1],[-1,1],[0,1],[1,1],[3,0],[0,1],[1,0],[0,1],[1,1],[61,2],[116,5],[55,2],[-6,20],[-26,94],[-5,19],[5,4],[70,57],[19,16],[18,-8],[-2,-7],[-5,-27],[-8,-51],[-3,-16],[0,-51],[208,0],[63,-1],[1,0]],[[4894,2383],[-5,-16],[-8,-21],[0,-10],[4,-9],[9,-12],[5,-5],[-1,-10],[4,-13],[-1,-19],[0,-18],[23,-52],[8,-12],[13,-23],[9,-25],[14,-20],[5,-8],[0,-12],[-6,-22],[-3,-12],[7,-15],[4,-14],[-4,-13],[-8,-20],[-3,-10],[-1,-10],[-1,-14],[-1,-4],[-3,-9],[-3,-6],[-2,-5],[1,-7],[1,-7],[3,-5],[4,-4],[9,-4],[5,-2],[3,-6],[1,-6],[0,-14],[-1,-16],[-2,-14],[-3,-17],[-3,-11],[-2,-10],[-2,-6],[0,-2],[-1,-3],[1,-11],[0,-33],[1,-7],[2,-6],[3,-7],[3,-4],[0,-3],[-2,-3],[-4,-4],[-1,-10],[2,-7],[10,-10],[-2,-5],[-11,-10],[-4,-11],[1,-12],[3,-5],[6,1],[10,1],[3,-2],[-1,-3],[-4,-7],[4,-6],[9,-1],[8,-6],[3,-4],[3,-5],[2,-6],[0,-11],[5,-2],[19,3],[6,-4],[4,-4],[4,-5],[5,-2],[0,-9],[4,-3],[7,-3],[3,-2],[1,-4],[-1,-3],[-2,-5],[-2,-8],[0,-8],[2,-7],[2,-5],[1,-3],[6,-10],[6,-6],[8,-12],[6,-7],[5,-5],[5,-4],[7,-3],[6,0],[3,1],[6,-1],[7,-3],[8,-2],[7,0],[6,4],[4,4],[5,3],[6,1],[3,-2],[3,-7],[3,-1],[4,-1],[5,2],[8,4],[7,2],[3,-1],[0,-4],[2,0],[2,-3],[-2,-13],[-3,-8],[-19,1],[-7,-3],[3,-3],[-1,-10],[2,-3],[-11,-13],[-10,-1],[-2,-1],[-2,-2],[-1,-1],[0,-3],[-3,-6],[-1,-2],[-26,-14],[-4,0],[-3,-1],[-2,0],[-4,-1],[-6,-10],[-2,1],[-3,0],[-13,4],[-5,0],[-3,-3],[-3,-5],[-2,-2],[-4,0],[-5,-4],[-2,-6],[2,-5],[6,-7],[9,-6],[7,-4],[2,1],[4,-1],[5,-1],[2,-1],[-1,-5],[-1,-4],[0,-3],[5,-1],[11,-1],[4,-1],[4,-3],[-2,-3],[-3,-2],[-2,-2],[-1,-2],[-1,-2],[1,-5],[1,-4],[1,-2],[0,-3],[-4,-3],[-2,1],[-2,0],[-4,2],[-3,-1],[-2,-2],[-1,-3],[-2,-3],[-1,-4],[0,-1],[2,-3],[1,-6],[2,-8],[0,-1],[-4,-2],[-4,-5],[-5,-11],[-1,-3],[0,-5],[3,-6],[5,-6],[4,-3],[0,-4],[-2,-1],[-2,-2],[-4,-3],[-1,-4],[-1,-4],[2,-5],[4,-3],[4,-1],[5,-1],[6,-2],[7,-3],[2,1],[6,-2],[2,-1],[5,-4],[3,-1],[5,-2],[2,-3],[2,-3],[1,-7],[0,-2],[2,-4],[3,-1],[1,-2],[2,-2],[1,-1],[4,-3],[0,-15],[1,-8],[1,-5],[1,-3],[-2,-3],[-1,-2],[-1,-2],[-2,-4],[0,-11],[2,-15],[0,-5],[-2,-4],[-4,-3],[-2,-1],[-2,-1],[-1,-3],[-1,-9],[0,-4],[-1,-1],[-2,-3],[1,-3],[4,-3],[0,-2],[-5,-8],[90,-76],[69,-413]],[[6472,2034],[-463,213],[-6,4],[-498,-30],[-611,162]],[[693,3398],[1633,0]],[[596,3762],[-12,-19],[-45,-31],[-25,-10],[-24,-6],[-25,14],[-24,0],[-17,-5],[6,-13],[20,-15],[16,-36],[15,-24],[5,-18],[23,-15],[16,-5],[32,-18],[24,-14],[23,-21],[18,-16],[12,-18],[14,-16],[16,-21],[10,-21],[10,-22],[9,-14]],[[2366,5100],[-1362,5],[214,-328],[-531,-910],[-45,-76],[-30,-34],[-16,5]],[[841,2513],[4,0],[207,1],[0,402],[-222,-3]],[[830,2913],[0,-2],[1,-19],[-1,-15],[3,-27],[6,-25],[1,-23],[2,-34],[6,-22],[-1,-22],[2,-26],[2,-32],[0,-33],[-1,-13],[-4,-18],[-4,-8],[13,-6],[-5,-21],[-6,-33],[-3,-21]],[[3889,2028],[19,-41],[5,-6],[11,-7],[10,-7],[9,-4],[30,-6],[237,-84],[3,4],[24,7],[107,36],[152,-12],[33,42],[7,163],[21,44],[-13,44],[32,13],[-4,31],[-33,7],[50,30],[26,6],[5,24],[-12,22],[4,5],[0,7],[-8,13],[-16,20],[-30,30],[-5,10],[-26,39],[18,-1],[-31,55],[-20,33],[-4,8],[-17,15],[12,24],[25,13],[2,39],[45,-3],[5,24],[24,2],[52,-2],[22,-3],[9,2],[7,-7],[19,-2],[21,13],[47,14],[23,-2],[7,16],[28,36],[-20,19],[22,15],[25,29],[26,18],[60,23],[24,-2],[25,16],[-89,-467]],[[3595,3046],[156,-225],[-23,-219],[-32,-402],[111,-108],[82,-64]],[[4384,650],[-1,6],[0,3],[7,14],[4,6],[4,10],[6,8],[6,13],[1,4],[3,9],[0,19],[1,13],[4,6],[0,21],[4,10],[6,9],[5,7],[7,5],[6,3],[6,5],[6,10],[2,10],[5,4],[6,11],[-3,10],[3,8],[-2,5],[3,10],[12,9],[5,0],[2,-1],[1,3],[0,3],[2,5],[0,6],[1,2],[3,1],[4,0],[-1,13],[-1,5],[0,4],[3,6],[7,7],[1,1],[4,9],[1,2],[6,3],[6,1],[6,2],[7,4],[3,3],[3,6],[3,8],[-132,24],[-5,11],[-2,0],[-4,-1],[-3,1],[-1,5],[0,6],[2,3],[-6,3],[-4,0],[-6,-1],[-2,0],[-5,-2],[-5,-1],[-6,0],[-6,2],[-5,4],[-3,5],[-1,1],[-5,2],[-4,0],[-4,2],[-2,1],[-2,0],[-4,-4],[-4,-6],[-1,-3],[-4,-4],[-4,-1],[-5,0],[-3,2],[3,4],[-3,1],[-5,1],[-8,3],[-6,4],[-5,7],[-2,0],[-1,-4],[0,-2],[3,-4],[0,-8],[4,-3],[0,-2],[-1,-3],[-1,-3],[-1,-4],[-1,-5],[2,-4],[6,-8],[6,-4],[2,-3],[1,-3],[1,-6],[1,-4],[-2,-6],[-4,0],[-4,-2],[0,-7],[-5,-2],[-2,0],[-5,2],[-3,-1],[-3,-2],[-5,0],[0,-2],[-3,-5],[1,-5],[0,-3],[6,-8],[1,-4],[-1,-3],[-11,0],[-6,1],[-7,1],[-7,3],[-4,0],[-5,2],[-5,-1],[-6,-1],[-8,-2],[-7,-2],[-7,0],[-7,-2],[-9,-3],[-4,-1],[-3,0],[-6,8],[0,3],[-3,5],[-5,5],[-4,6],[-6,2],[-14,0],[-9,2]],[[4138,968],[-4,2],[-5,3],[1,3],[-1,4],[0,12],[1,9],[-1,6],[-2,7],[-1,5],[1,4],[2,6],[3,12],[5,15],[-3,5],[-3,0],[-5,-2],[-8,-3],[-6,0],[-6,2],[-3,1],[-4,0],[-4,2],[-5,11],[-8,12],[-8,5],[-5,4],[-10,5],[-5,4],[-2,2],[-6,1],[-9,2],[-5,2],[-4,1],[-3,0],[-3,-1],[-1,-3],[-2,-4],[-1,-1],[-3,-1],[-3,1],[-6,4],[-23,8],[-4,0],[-4,1],[-2,-1],[-3,0],[-3,-1],[-3,-1],[-3,1],[-3,5],[-3,5],[-3,3],[-2,2],[-2,6],[-1,4],[-1,2],[0,2],[1,3],[3,1],[0,5],[-1,12],[-1,8],[-3,5],[2,10],[-1,6],[-3,6],[-1,3],[-5,5],[-9,2],[-9,0],[-5,1],[-2,1],[-3,3],[-7,6],[-6,3],[-5,0],[-8,-3],[-5,-1],[-5,-2],[-7,-2],[-5,-1],[-6,-5],[-5,-5],[-4,-4],[-5,-4],[-3,-4],[-5,-4],[-4,-1],[-4,-1],[-2,-1],[-7,-5],[-4,-3],[-7,-3],[-7,0],[-7,9],[-2,13],[4,11],[-1,3],[-2,2],[-2,3],[0,6],[1,2],[3,3],[4,1],[4,2],[1,4],[0,6],[1,2],[1,3],[-2,3],[0,2],[3,5],[2,7],[1,5],[0,6],[-1,6],[-1,10],[-3,7],[-2,4],[-4,5],[1,3],[1,2],[0,7],[1,4],[-1,3],[0,2],[3,6],[-8,7],[-7,15],[0,5],[1,4],[2,2],[2,2],[0,3],[-179,35],[-3,-2],[-3,0],[-3,2],[-1,1],[-2,1],[-3,0],[-3,-2],[-4,-3],[-1,-1],[-3,-2],[-1,-2],[-1,-3],[-2,-2],[-2,0],[-4,-1],[-4,-1],[-4,-6],[-2,-3],[-3,-1],[-3,0],[-3,-1],[-1,-2],[-4,1],[-2,2],[-3,1],[-2,1],[-2,2],[-2,2],[-3,1],[-2,0],[-2,-1],[-4,0],[-5,-2],[-4,0],[-2,-1],[-2,2],[-3,8],[1,4],[3,3],[0,4],[-4,5],[0,1],[2,1],[7,2],[7,6],[4,11],[1,1],[4,10],[3,3],[2,5],[-1,8],[-2,4],[-5,2],[-3,1],[-5,4],[-1,1],[0,4],[2,2],[0,1],[-3,9],[-6,9],[-2,7],[1,7],[-7,9],[-2,7],[-8,11],[-7,4],[-14,2],[-5,1],[-18,15],[-2,4],[1,2],[2,10],[-1,5],[-1,5],[0,3],[2,2],[2,1],[3,12],[1,5],[1,4],[0,7],[-2,8],[0,5],[1,3],[2,2],[3,2],[1,2],[1,1],[-2,14],[1,4],[1,2],[2,3],[3,0],[5,16],[-1,3],[-1,4],[-7,13],[-3,1]],[[3470,1697],[0,2],[-1,3],[2,3],[4,10],[0,11],[1,5],[-1,12],[-2,2],[-1,2],[0,4],[1,2],[2,2],[3,15],[2,5],[5,4],[3,3],[1,3],[2,6],[2,2],[2,2],[7,7],[7,6],[2,0],[4,11],[6,1],[5,1],[2,4],[1,3],[1,4],[5,4],[2,5],[0,2],[2,3],[3,2],[3,1],[5,1],[3,-1],[13,3],[3,2],[3,-1],[2,-2],[10,6],[0,2],[-1,2],[-1,3],[2,3],[4,0],[4,-2],[1,3],[10,4],[17,1],[3,3],[3,2],[7,1],[13,-4],[2,0],[14,7],[3,3],[3,5],[7,5],[5,1],[17,1],[26,9],[2,5],[1,6],[0,3],[3,3],[3,9],[6,5],[3,7],[4,5],[14,8],[7,3],[8,1],[6,-2],[8,2],[3,7],[5,6],[6,2],[4,1],[9,5],[5,1],[4,1],[3,1],[8,5],[5,2],[4,-1],[3,-2],[17,2],[3,25],[22,12]],[[5299,562],[-5,0],[-1,-1],[-2,0],[-10,-2],[-1,-1],[-9,1],[-2,0],[-11,-3],[-2,-1],[-2,0],[-4,1],[-8,3],[-3,1],[-3,1],[-4,3],[-1,1],[-2,1],[-3,0],[-1,-1],[-2,0],[-2,1],[-4,3],[-2,1],[-12,0],[-1,3],[-1,0],[-1,1],[-1,0],[-2,-1],[-5,0],[-1,-1],[0,1],[-4,0],[-1,-1],[-1,-2],[-1,-1],[-1,-1],[-1,0],[0,-2],[-1,-3],[0,-2],[1,-1],[1,-2],[0,-6],[2,-2],[0,-9],[1,-3],[1,-5],[1,-6],[1,-3],[1,-2],[1,-1],[1,-2],[0,-3],[-1,0],[-1,-1],[-1,0],[-1,-1],[-1,-1],[0,-1],[-1,-1],[-2,-2],[-2,-3],[-1,-2],[-1,-2],[0,-4],[-1,-1],[-1,-2],[-2,-3],[-2,-3],[-3,-1],[-1,-1],[-3,2],[-2,1],[-2,0],[-2,-1],[-2,0],[-1,-1],[-1,-1],[-1,-1],[-2,-1],[-1,-1],[-1,-1],[-1,-2],[-1,-1],[-4,0],[-2,-1],[-1,-1],[0,-1],[-1,-2],[-1,-1],[0,-3],[-1,-2],[0,-2],[1,-1],[-1,-1],[-7,0],[-1,1],[-2,1],[-5,0],[-2,-1],[-3,-5],[0,-3],[-1,-2],[-3,-2],[-2,-2],[-2,-2],[-6,0],[-2,-2],[-2,-2],[0,-4],[-2,-1],[-1,-2],[-1,-2],[0,-1],[1,-3],[1,-1],[0,-2],[1,-2],[1,-1],[0,-1],[1,-1],[0,-1],[1,-3],[0,-2],[-1,-3],[-1,-2],[-1,0],[-3,-5],[0,-3],[-2,-4],[-1,-3],[0,-5],[-1,-2],[-2,-1],[-3,-1],[-3,-1],[-3,-1],[-2,1],[-3,0],[0,-1],[-2,-2],[-1,0],[-2,-1],[-1,-2],[-1,-1],[-1,0],[-1,-1],[-1,-2],[-1,-2],[-2,-4],[-1,-2],[0,-5],[-1,-2],[-1,-8],[-1,-2],[0,-9],[-1,-3],[0,-2],[-3,-3],[0,-2],[1,-3],[0,-5],[-2,-1],[-2,-1],[0,-3],[-1,-1],[-1,-1],[-2,-1],[-2,0],[0,-1],[-1,-1],[1,-1],[0,-1],[-1,-1],[-2,-2],[-1,-1],[0,-2],[-2,-2],[-1,0],[-2,2],[-1,1],[-1,0],[-2,2],[-1,2],[-2,1],[-2,3],[0,4],[-2,2],[-2,0],[0,1],[-1,2],[-2,1],[-1,1],[-1,1],[1,1],[1,2],[-1,3],[-1,0],[0,1],[-1,0],[-2,2],[-1,0],[-2,2],[-6,2],[-1,1],[-3,2],[-2,2],[-5,0],[-2,2],[0,2],[-1,1],[-1,0],[0,1],[-1,2],[-1,1],[-1,2],[-2,2],[-1,1],[0,1],[-1,1],[-1,0],[-1,2],[0,1],[1,1],[0,1],[-1,1],[-2,1],[-1,2],[0,2],[-1,2],[-6,6],[-1,0],[0,3],[-1,3],[-1,5],[-1,1],[-3,2],[-1,2],[0,4],[-1,1],[-1,2],[-2,1],[-2,2],[-2,1],[-4,2],[-2,2],[-2,2],[-3,1],[-5,1],[-3,1],[-3,2],[-2,2],[-3,1],[-3,2],[-1,2],[-2,2],[-3,2],[-1,3],[-2,2],[-2,5],[-3,2],[-2,1],[-1,2],[-1,1],[-1,1],[-2,0],[-2,1],[-4,3],[-1,1],[-1,2],[-32,25],[-21,17],[-3,3],[-4,2],[-7,3],[-2,1],[-2,1],[-1,2],[-5,5],[-19,10],[-1,1],[-1,1],[-1,4],[-1,1],[-2,2],[-4,3],[-2,2],[-10,3],[-11,5],[-13,5],[-2,1],[-2,2],[-1,1],[-1,3],[-2,4],[-4,4],[-3,4],[-1,1],[-3,2],[-3,1],[-11,11],[-9,9],[-2,3],[-4,5],[-1,1],[0,2],[-1,1],[0,2],[-2,3],[-9,10],[-1,1],[-1,1],[-5,0],[-1,2],[-2,2],[-1,2],[-1,0],[-1,1],[-1,4],[-1,1],[-1,1],[-2,1],[-1,1],[-1,2],[-2,1],[-1,0],[-2,1],[-1,0],[-2,1],[-1,0],[-2,1],[-1,4],[1,5],[1,3],[-1,5],[0,2],[-1,2],[-2,3],[-2,2],[-2,5],[-2,3],[-2,2],[-6,5],[-3,4],[-5,9],[-2,2],[-2,1],[-4,4],[-2,2],[-1,1],[-1,4],[-3,9],[-1,3],[0,2],[-1,0],[-3,1],[-8,0],[-2,1],[-4,3],[-1,1],[0,-2],[-1,-1],[-2,1],[-1,0],[-2,1],[-2,0],[-5,1],[-2,0],[-2,-1],[-4,-3],[-2,0],[-1,1],[-2,0],[0,-1],[-1,-1],[-2,1],[-6,0],[-4,1],[-5,1],[-20,0],[-4,-1],[-1,0],[0,-1],[4,-2],[4,-1],[3,-1],[2,-2],[1,-2],[1,-3],[2,-2],[2,-4],[1,-1],[0,-1],[-1,-1],[-2,-3],[-2,-1],[-2,0],[-3,-1],[-2,0],[-2,-2],[-3,-5],[-3,-4],[-1,-1],[-2,0],[0,1],[-2,2],[-6,0],[-1,1],[-2,1],[-2,0],[-2,-2],[-1,-3],[-1,0],[-1,1],[-3,0],[-1,-2],[-1,-3],[-1,-1],[-2,-1],[-2,-1],[-5,0],[-3,-3],[0,-4],[-4,-5],[-1,-5],[-2,-2],[-6,-8],[-2,0],[-1,-1],[-3,0],[-3,-1],[-9,-4],[-1,-1],[-2,-3],[-2,0],[-1,-1],[-4,-2],[-6,-4],[-3,0],[-3,-2],[-2,0],[-7,-1],[-3,0],[-3,3],[-1,3],[-1,1],[-1,1],[-3,0],[-1,-2],[-2,-2],[-3,0],[-2,1],[-1,0],[1,2],[1,1],[0,1],[-4,2],[-15,0],[-4,1],[-10,0]],[[1729,1541],[3,0],[2,4],[1,1],[2,2],[2,3],[1,1],[3,2],[2,2],[3,2],[4,2],[2,2],[10,12],[2,2],[2,1],[3,1],[3,3],[2,3],[4,5],[3,3],[4,3],[24,9],[4,0],[3,2],[8,7],[9,4],[11,5],[20,12],[38,15],[4,1],[8,3],[6,5],[7,6],[7,4],[24,10],[4,3],[11,4],[3,0],[3,2],[1,2],[2,1],[2,0],[17,9],[19,7],[21,32],[203,142],[295,409],[184,156],[870,601]],[[841,2513],[-1,-9],[-3,-33],[-2,-40],[0,-35],[-4,-38],[-5,-38],[-6,-28],[-5,-26],[-11,-45],[-9,-31],[-6,-21],[-19,-50],[-11,-30],[-12,-33],[-16,-35],[-13,-31],[-10,-22],[-17,-39],[-13,-29],[-13,-26],[-9,-22],[-13,-27],[-11,-23],[-13,-31],[-15,-35],[-11,-26],[-10,-23],[-9,-26],[-12,-30],[-11,-24],[-26,-65],[-11,-25],[-8,-38],[-4,-46],[-1,-18],[-16,-65],[-27,-68],[-11,-40],[0,-17],[3,-20],[2,-24],[-1,-50],[4,-34],[2,-7],[3,0],[3,-1],[2,-4],[1,-4],[1,-5],[1,-2],[0,-3],[1,-5],[1,-5],[1,-2],[2,-1],[2,1],[1,2],[2,1],[2,3],[2,2],[1,1],[2,2],[1,2],[3,5],[1,1],[1,0],[1,1],[2,0],[4,1],[1,0],[1,1],[1,0],[1,1],[1,1],[1,1],[0,1],[2,5],[1,3],[1,1],[1,2],[1,1],[1,1],[0,4],[-1,1],[-1,1],[0,1],[-1,0],[-4,3],[-3,3],[-1,1],[0,2],[1,2],[3,5],[0,4],[-1,2],[0,17],[-1,5],[-1,4],[0,2],[1,3],[0,3],[1,1],[0,1],[1,2],[1,2],[1,2],[2,2],[2,4],[1,1],[0,1],[2,2],[1,1],[4,4],[2,1],[1,1],[2,0],[2,1],[13,0],[1,-1],[1,0],[1,-1],[2,0],[2,-1],[2,0],[2,1],[2,0],[2,1],[1,1],[2,1],[2,1],[2,2],[2,3],[3,3],[4,3],[0,1],[1,1],[0,1],[1,1],[0,1],[1,2],[1,8],[0,3],[1,2],[1,1],[1,1],[1,1],[1,1],[2,2],[2,1],[1,1],[0,1],[1,1],[0,3],[1,1],[0,1],[-1,2],[0,1],[-1,1],[0,2],[-2,1],[0,2],[-2,1],[-3,3],[-1,1],[-1,1],[-1,1],[0,2],[-1,1],[0,5],[1,2],[0,2],[1,2],[0,2],[2,4],[3,3],[2,4],[1,1],[1,0],[1,1],[6,0],[0,1],[1,0],[3,2],[1,1],[2,2],[3,3],[1,1],[0,2],[1,1],[1,2],[0,5],[-1,5],[-1,4],[0,9],[-1,6],[1,4],[1,3],[0,1],[1,1],[1,2],[1,1],[2,1],[9,0],[1,1],[1,0],[0,1],[1,1],[1,1],[0,1],[1,1],[0,26],[1,6],[0,1],[2,5],[0,2],[1,1],[1,1],[1,2],[1,1],[1,0],[1,1],[1,1],[6,0],[1,1],[1,1],[1,0],[0,2],[1,2],[0,7],[-1,6],[0,7],[1,3],[1,1],[2,2],[1,2],[2,1],[3,2],[1,1],[1,0],[0,1],[5,2],[2,1],[2,0],[3,1],[10,0],[4,-1],[2,-1],[5,-3],[3,-2],[4,-2],[9,0],[6,1],[4,0],[2,-1],[1,-1],[5,0],[1,1],[1,0],[2,1],[1,1],[1,1],[1,1],[1,1],[2,2],[2,2],[4,5],[3,3],[2,2],[2,2],[3,2],[1,2],[1,0],[2,1],[1,1],[2,0],[1,1],[3,1],[4,0],[4,1],[2,0],[2,1],[4,1],[3,0],[2,1],[2,0],[1,-1],[1,0],[2,-1],[1,-1],[1,0],[1,-1],[1,-2],[1,-1],[1,-2],[0,-1],[1,-1],[0,-4],[-1,-5],[-1,-1],[0,-2],[1,-1],[0,-1],[1,-1],[0,-1],[1,-1],[1,-1],[5,-2],[2,-1],[4,-2],[2,-2],[2,-1],[1,-1],[2,-2],[1,-1],[3,-4],[2,-3],[1,0],[2,-2],[2,-3],[1,-1],[1,-1],[0,-2],[1,-1],[0,-2],[1,0],[1,-1],[2,-1],[2,0],[1,-1],[8,0],[1,1],[1,0],[1,1],[2,0],[3,2],[1,0],[2,2],[1,1],[3,3],[1,1],[4,3],[1,0],[2,1],[3,2],[0,1],[1,0],[2,1],[8,0],[2,-1],[1,0],[3,-1],[8,-4],[1,-1],[1,0],[0,-1],[1,-1],[1,0],[0,-2],[1,-1],[1,-1],[2,-1],[5,0],[1,1],[5,1],[4,2],[3,2],[4,3],[4,4],[1,1],[1,1],[2,1],[2,1],[2,1],[2,1],[2,1],[2,1],[2,1],[2,1],[4,0],[2,1],[3,0],[3,1],[4,1],[10,0],[5,-1],[7,-1],[2,0],[1,-1],[1,-1],[0,-1],[1,-1],[0,-1],[1,0],[0,-4],[-1,-3],[0,-3],[1,0],[0,-1],[1,-1],[1,-1],[3,0],[1,1],[1,0],[3,1],[5,4],[3,2],[1,1],[1,0],[1,1],[1,0],[1,1],[2,0],[6,2],[3,0],[1,1],[3,0],[1,-1],[2,0],[3,-1],[2,-1],[2,-1],[4,-2],[4,-2],[4,-2],[2,0],[1,-1],[6,-1],[4,0],[3,-1],[9,0],[4,-1],[6,-1],[6,0],[2,-1],[2,0],[3,-2],[5,-2],[6,-5],[4,-1],[2,-2],[2,-1],[2,-1],[5,0],[2,1],[0,1],[1,0],[0,1],[1,1],[2,2],[3,0],[2,1],[13,0],[4,1],[4,0],[5,1],[4,1],[5,2],[7,3],[2,1],[1,1],[1,0],[1,1],[1,1],[0,1],[1,1],[0,4],[-1,1],[0,2],[-1,2],[-1,1],[-1,1],[0,3],[-1,0],[0,2],[1,2],[0,1],[1,1],[1,1],[1,0],[1,1],[2,0],[1,1],[4,0],[4,-1],[4,0],[1,1],[6,0],[2,-1],[1,0],[2,-1],[2,-1],[1,0],[2,-2],[1,0],[3,-3],[1,0],[1,-1],[2,-1],[2,0],[1,-1],[2,0],[5,-1],[3,0],[3,-1],[10,0],[2,1],[2,0],[1,1],[2,1],[1,0],[2,1],[3,1],[3,1],[4,2],[1,0],[2,1],[1,0],[1,1],[1,0],[1,2],[2,1],[1,1],[0,1],[1,1],[0,3],[-1,0],[0,2],[-2,1],[0,1],[-1,1],[-1,1],[-2,1],[-1,1],[-1,1],[0,1],[-1,1],[0,6],[1,1],[0,1],[1,1],[0,2],[1,1],[1,1],[1,1],[2,1],[1,1],[1,1],[2,1],[1,0],[2,1],[2,1],[4,1],[2,1],[2,1],[1,0],[2,1],[1,0],[1,1],[0,1],[1,0],[1,1],[2,2],[0,1],[1,0],[0,2],[1,0],[0,1],[2,0],[0,1],[1,0],[1,1],[8,0],[2,-1],[2,0],[0,-1],[2,0],[3,-2],[2,-1],[1,-1],[3,-3],[2,-2],[1,-2],[1,-3],[2,-3],[0,-1],[1,-1],[0,-5],[1,-2],[1,-4],[0,-1],[1,-1],[0,-2],[1,0],[1,-1],[1,-1],[3,-2],[1,-1],[2,-1],[5,-1],[2,-1],[2,0],[1,-1],[7,0],[0,1],[3,0],[2,1],[2,0],[1,1],[1,1],[2,1],[8,4],[2,2],[1,1],[1,0],[3,3],[2,2],[1,1],[1,1],[1,0],[1,1],[4,0],[2,-1],[4,0],[2,-1],[1,0],[1,1],[4,0],[1,1],[1,0],[1,1],[3,2],[2,2],[3,2],[1,0],[1,1],[1,1],[1,0],[2,1],[1,0],[2,1],[3,0],[1,1],[5,0],[2,-1],[3,0],[8,-2],[6,-2],[2,0],[2,-1],[4,0],[1,1],[9,0],[1,-1],[1,-1],[1,-1],[1,0],[1,-1],[4,-4],[0,-1],[1,-1],[1,0],[1,-1],[1,0],[1,-1],[2,0],[2,-1],[5,0],[1,1],[2,0],[2,1],[1,1],[1,0],[1,1],[8,6],[5,3],[4,2],[8,3],[4,1],[2,0],[1,1],[1,1],[1,1],[0,1],[1,1],[0,2],[2,2],[1,1],[2,0],[1,1],[3,0],[4,-2],[6,-2],[6,-2],[4,-2],[3,-1],[3,0],[2,-1],[6,0],[2,1],[4,0],[2,1],[2,2],[2,1],[4,4],[1,1],[1,1],[2,2],[3,2],[3,1],[1,1],[1,1],[1,1],[1,1],[1,2],[1,1],[0,2],[1,1],[2,3],[1,3],[1,1],[0,3],[-1,1],[-1,1],[-1,1],[-1,1],[-2,1],[-6,2],[-2,0],[-2,1],[-10,0],[-4,1],[-1,0],[-1,1],[-1,1],[-1,1],[0,2],[-1,1],[0,3],[1,2],[0,2],[1,1],[1,2],[1,2],[1,2],[11,12],[1,1],[1,1],[1,0],[1,1],[3,0],[2,-1],[3,0],[1,-1],[2,0],[2,-1],[1,-1],[2,-2],[3,-4],[2,-4],[2,-4],[0,-2],[1,-4],[0,-1],[1,-1],[1,-2],[1,-1],[1,-1],[2,-2],[1,-1],[1,-2],[2,-4],[0,-1],[3,0],[0,1],[1,1],[1,1],[1,1],[3,0],[1,-1],[1,-1],[5,0],[2,1],[3,1],[2,0],[2,1],[3,1],[1,1],[6,1],[3,1],[2,1],[2,2],[2,2],[1,2],[1,2],[1,6],[0,19],[1,1],[0,1],[1,1],[3,3],[1,1],[1,0],[1,1],[5,0],[1,-1],[1,0],[1,-1],[1,0],[9,-5],[1,-1],[2,0],[4,-2],[2,0],[2,-2],[0,-3],[1,-1],[0,-2],[-1,-1],[0,-2],[-1,-2],[0,-1]],[[693,3398],[10,-22],[5,-10],[4,-9],[2,-2],[3,-6],[4,-11],[1,-7],[1,-4],[2,-13],[3,-8],[1,-7],[1,-9],[2,-7],[0,-8],[2,-7],[2,-9],[1,-10],[-1,-6],[2,-9],[0,-7],[4,-7],[2,-8],[2,-1],[3,-7],[1,-9],[3,-10],[2,-11],[2,-11],[0,-4],[1,-5],[0,-5],[2,-12],[1,-5],[3,-13],[5,-14],[9,-13],[6,-14],[5,-10],[3,0],[4,-5],[2,-9],[3,-12],[4,-9],[3,-10],[4,-13],[4,-14],[7,-15],[2,-11],[1,-9],[4,-31],[0,-17]],[[4138,968],[-7,-1],[-8,-3],[-11,-5],[-14,-6],[-12,-4],[-18,-6],[-30,-13],[-16,-7],[-7,3],[-8,2],[-8,1],[-7,3],[-4,0],[-12,-6],[-4,-3],[-5,0],[-2,2],[-8,0],[-6,-2],[-6,-4],[-10,-7],[-9,-6],[-3,-4],[-1,-6],[-2,-10],[-2,-6],[-3,-5],[-8,-8],[-7,-8],[-8,-7],[-9,-5],[-4,-4],[-7,-7],[-8,-7],[-12,-11],[-6,-5],[-9,-8],[-7,-6],[-10,-10],[-6,-6],[-5,-4],[-12,-9],[-10,-4],[-10,-8],[-8,-5],[-8,-5],[-5,-6],[-2,-5],[-2,-10],[-2,-7],[-3,-7],[-3,-8],[-2,-12],[-2,-12],[-2,-8],[-3,-7],[-3,-4],[-6,-3],[-7,-1],[-6,-2],[-5,-4],[-3,-3],[-2,1],[-129,-184],[-42,-140]],[[3532,326],[-10,5],[-19,6],[-5,3],[-2,2],[-2,3],[-1,3],[0,3],[1,5],[2,6],[1,5],[1,3],[0,7],[-1,2],[-2,5],[-2,2],[-2,2],[-3,3],[-3,1],[-11,0],[-6,-2],[-4,-4],[-5,-4],[-3,-2],[-2,-1],[-4,0],[-2,1],[-2,1],[-1,1],[-1,1],[0,4],[-1,2],[0,2],[-1,2],[-1,2],[-3,3],[-4,4],[-3,3],[-3,2],[-4,1],[-4,2],[-3,1],[-2,2],[-3,2],[-2,2],[-2,3],[0,1],[-1,3],[0,4],[1,2],[1,2],[2,1],[2,1],[1,1],[2,0],[1,1],[4,0],[2,-1],[1,0],[1,-1],[2,0],[0,-1],[6,-6],[2,-1],[3,-1],[6,0],[3,1],[3,2],[3,3],[3,2],[2,4],[1,3],[1,3],[0,4],[-3,6],[-2,4],[-3,7],[-1,4],[-2,2],[-3,2],[-10,6],[-12,7],[-5,3],[-2,0],[-2,1],[-19,0],[-8,1],[-3,0],[-1,1],[-1,1],[-1,0],[-2,3],[-2,2],[-2,2],[-3,3],[-2,2],[-1,2],[-1,2],[0,1],[-1,2],[-1,1],[0,4],[1,5],[0,19],[-1,5],[0,5],[1,1],[0,2],[2,2],[1,1],[1,1],[1,1],[5,4],[3,2],[1,1],[2,2],[0,1],[1,2],[0,3],[-1,1],[-1,1],[-4,0],[-7,-1],[-4,-1],[-2,-1],[-4,0],[-1,1],[-2,0],[-2,2],[-1,2],[0,2],[-1,2],[0,2],[1,2],[1,2],[0,14],[-1,2],[-1,2],[0,2],[-1,2],[0,1],[1,3],[0,4],[-1,1],[0,1],[-2,1],[-2,0],[-2,-2],[-2,-1],[-2,-1],[-4,0],[-1,-1],[-5,0],[-3,1],[-3,0],[-4,-2],[-2,0],[-2,-1],[-1,-1],[-4,-3],[-3,-3],[-2,-2],[-1,0],[-1,-1],[-1,0],[-2,-1],[-8,0],[-8,-1],[-8,0],[-2,1],[-4,0],[-4,2],[-8,5],[-3,2],[-3,1],[-4,1],[-7,1],[-2,1],[-3,2],[-1,1],[-1,2],[0,4],[1,1],[0,2],[1,2],[0,3],[2,8],[3,5],[4,7],[1,1],[1,4],[2,4],[1,1],[0,2],[-1,1],[0,2],[-1,2],[0,1],[-4,4],[-1,2],[0,2],[1,0],[1,1],[2,0],[1,1],[1,1],[0,2],[-1,1],[-1,0],[-3,1],[-4,1],[-9,3],[-10,4],[-4,2],[-4,2],[-3,2],[-5,1],[-5,2],[-4,2],[-4,1],[-5,4],[-7,5],[-7,3],[-6,2],[-6,0],[-3,-1],[-2,-1],[-3,-2],[-1,-1],[-1,-2],[-2,-2],[-4,-4],[-1,-1],[-6,0],[-2,1],[-1,1],[-2,1],[0,1],[-1,1],[-1,2],[-3,9],[-2,4],[-1,2],[-2,3],[-2,2],[-3,3],[-3,4],[-1,2],[0,2],[-1,7],[0,2],[1,3],[1,2],[1,1],[1,1],[1,1],[5,0],[2,-2],[4,-1],[3,-1],[7,0],[2,1],[1,1],[1,1],[2,2],[4,9],[1,1],[0,4],[-2,0],[-8,6],[-3,3],[-2,2],[-7,7],[-4,3],[-9,8],[-15,10],[-6,4],[-11,10],[-2,2],[-1,2],[0,2],[1,2],[0,3],[1,2],[0,3],[1,2],[2,2],[1,1],[1,1],[3,0],[1,-1],[1,-1],[2,-1],[0,-1],[2,-1],[1,-1],[5,0],[1,1],[0,5],[-1,1],[-1,1],[-2,1],[-2,2],[-2,2],[-3,2],[-6,3],[-5,4],[-3,3],[-2,3],[-2,5],[-1,4],[-1,3],[0,4],[2,9],[2,5],[1,3],[0,1],[-1,1],[0,3],[-1,1],[0,2],[-1,1],[0,1],[-1,0],[-3,2],[-1,1],[-1,1],[-2,1],[-3,1],[-1,1],[-4,0],[-1,1],[-6,3],[-3,3],[-1,2],[-1,1],[0,2],[1,0],[1,1],[2,1],[1,1],[4,4],[6,6],[3,2],[0,1],[1,1],[0,4],[-1,0],[0,1],[-1,1],[-1,1],[-7,0],[-1,1],[-2,0],[-5,3],[-4,2],[-3,2],[-4,3],[-1,2],[-2,3],[-5,8],[-6,11],[-1,2],[-1,4],[0,1],[1,3],[0,3],[2,6],[0,3],[-1,1],[-1,1],[-1,1],[-1,0],[-1,1],[-3,3],[-1,1],[-1,1],[-2,2],[0,12],[1,3],[0,4],[1,2],[0,2],[1,1],[0,3],[1,0],[0,3],[-1,0],[0,2],[-1,1],[-2,2],[-1,0],[-2,1],[-3,2],[-1,1],[-3,0],[-5,2],[-2,0],[-1,1],[-2,0],[-4,1],[-2,1],[-1,0],[-3,2],[-2,1],[-1,1],[-1,0],[-1,1],[-13,4],[-2,1],[-1,0],[-3,2],[-2,2],[-3,3],[-3,4],[-1,0],[-1,1],[0,6],[-1,1],[0,2],[-1,1],[-4,0],[-2,-1],[-1,0],[-2,-1],[-1,-1],[-1,-1],[-2,-2],[-1,-1],[0,-1],[-1,-1],[-1,-2],[-1,-3],[-1,-1],[-1,-2],[-1,-2],[-4,-4],[-1,-1],[-2,0],[-1,-1],[-2,0],[-1,1],[-1,0],[-1,1],[-1,1],[-1,1],[-1,1],[-1,1],[0,1],[-1,1],[-3,2],[-2,2],[-1,2],[-1,1],[0,1],[-1,2],[0,4],[1,2],[1,3],[1,1],[1,1],[1,1],[1,2],[4,2],[1,2],[2,1],[1,1],[1,0],[2,1],[3,0],[2,1],[5,0],[2,1],[1,1],[2,0],[1,1],[0,4],[-1,1],[-1,1],[-2,4],[-1,1],[-2,1],[-2,1],[-3,0],[-1,-1],[-1,-2],[0,-1],[-1,0],[-1,-1],[-2,-1],[-1,-1],[-6,-4],[-6,-5],[-1,0],[-2,-1],[-2,-1],[-7,0],[-3,1],[-2,1],[-2,1],[-2,1],[-2,1],[-3,0],[-4,2],[-3,1],[-9,0],[-8,-1],[-6,-2],[-2,-1],[-3,-2],[-5,-2],[-8,-4],[-2,0],[-1,-1],[-7,-2],[-2,-2],[-3,-1],[-5,-3],[-1,-1],[-1,0],[-2,-1],[-12,0],[-1,1],[-3,0],[-2,1],[-2,1],[-3,0],[-1,-1],[-2,0],[-1,-1],[-1,-2],[-3,-4],[-3,-2],[-1,-1],[-1,-1],[-5,0],[-1,1],[-2,1],[-5,5],[-1,1],[-1,1],[-2,1],[-1,2],[-4,2],[-3,3],[-3,5],[-4,6],[0,1],[-1,1],[0,1],[-1,2],[0,2],[-1,1],[0,5],[1,2],[3,2],[3,3],[3,2],[1,1],[1,1],[1,2]],[[2750,1145],[5,3],[37,22],[16,76],[1,2],[176,48],[159,40],[46,14],[6,78],[2,17],[31,27],[135,21],[10,6],[9,8],[6,9],[4,11],[7,21],[2,3],[1,1],[1,7],[1,5],[2,13],[3,2],[4,3],[3,4],[6,8],[4,5],[4,3],[3,2],[3,2],[1,2],[2,2],[2,2],[2,2],[1,3],[1,2],[11,13],[2,5],[1,4],[0,5],[2,6],[4,4],[3,5],[0,14],[2,18],[-1,4]],[[1729,1541],[-1,-4],[0,-2],[-1,-1],[0,-1],[1,-1],[0,-2],[1,-1],[0,-1],[3,-4],[1,-2],[1,0],[1,-2],[0,-1],[1,0],[0,-1],[1,0],[1,-1],[2,0],[1,-1],[3,0],[0,1],[2,0],[1,1],[1,1],[1,0],[4,4],[3,3],[1,1],[2,2],[0,1],[1,0],[1,1],[1,-1],[1,0],[0,-4],[-1,-1],[0,-2],[1,0],[0,-3],[1,0],[1,-1],[1,-1],[1,0],[1,-1],[1,0],[1,-1],[5,0],[1,1],[1,1],[1,1],[0,1],[1,1],[3,7],[0,5],[1,1],[0,2],[1,1],[1,1],[1,1],[1,1],[4,0],[1,-1],[1,-1],[1,0],[0,-1],[1,-1],[1,-1],[5,-7],[0,-1],[1,-2],[0,-2],[1,0],[0,-2],[2,0],[1,-1],[1,0],[1,1],[1,0],[6,2],[2,0],[3,1],[3,0],[1,-1],[2,-2],[1,-1],[1,0],[1,-1],[3,0],[0,1],[1,0],[1,1],[1,1],[0,1],[1,1],[0,3],[-1,1],[0,1],[1,0],[0,2],[2,2],[1,1],[1,1],[4,0],[0,-1],[1,0],[1,-1],[1,-1],[2,-4],[4,-3],[5,-7],[1,-1],[2,-1],[0,-1],[4,0],[0,1],[1,0],[0,1],[1,1],[2,3],[2,5],[1,2],[0,1],[1,1],[1,1],[1,2],[2,1],[0,1],[1,0],[1,1],[5,0],[0,-1],[1,0],[2,-2],[2,-1],[2,-2],[1,-1],[1,-1],[0,-8],[-1,0],[0,-5],[1,-2],[1,0],[2,-2],[1,-1],[2,0],[1,-1],[1,-1],[1,0],[1,-1],[5,0],[0,4],[-1,0],[-2,3],[-1,1],[0,1],[1,1],[1,1],[2,0],[1,-1],[3,0],[0,1],[1,0],[0,1],[1,0],[0,2],[-1,3],[0,5],[3,0],[0,-1],[1,-2],[2,-1],[2,-2],[9,0],[2,1],[6,2],[3,1],[2,1],[2,0],[2,1],[20,0],[1,1],[3,0],[3,1],[1,1],[4,0],[1,-1],[2,0],[1,-1],[0,-1],[1,0],[0,-1],[1,0],[0,-6],[-1,-1],[0,-1],[-1,0],[0,-1],[-7,0],[0,-1],[-1,0],[0,-4],[1,0],[0,-1],[1,-1],[6,-5],[1,-1],[4,0],[1,1],[1,1],[0,1],[1,2],[1,1],[0,1],[1,1],[1,0],[1,1],[12,0],[1,-1],[1,-1],[1,0],[1,-2],[0,-1],[1,-1],[0,-2],[1,0],[0,-1],[4,0],[0,1],[1,0],[1,2],[1,1],[1,1],[1,0],[2,-1],[1,-1],[1,0],[1,-1],[4,0],[3,1],[1,1],[1,0],[2,1],[5,0],[1,-1],[1,-1],[1,0],[1,-1],[1,-1],[1,-1],[1,0],[0,-1],[3,0],[0,1],[1,0],[0,1],[1,0],[0,1],[1,1],[0,2],[1,0],[0,2],[1,3],[0,6],[1,1],[0,1],[1,2],[1,0],[0,1],[2,0],[1,-1],[1,0],[1,-1],[5,-5],[0,-1],[1,0],[0,-2],[1,0],[1,-1],[1,-1],[1,-1],[2,0],[1,-1],[4,0],[0,-1],[1,0],[3,-1],[1,0],[2,-1],[1,-1],[2,-2],[1,-1],[1,-1],[2,-1],[1,-1],[7,0],[2,1],[1,0],[1,1],[1,1],[1,1],[1,1],[1,0],[0,1],[1,1],[1,1],[1,1],[1,0],[1,1],[5,0],[7,-2],[4,0],[2,-1],[6,0],[0,1],[1,0],[1,1],[1,1],[1,1],[1,2],[0,1],[2,4],[0,1],[1,1],[1,2],[2,1],[2,1],[2,2],[3,1],[1,1],[2,2],[0,1],[3,0],[2,-1],[1,-1],[0,-5],[1,-2],[1,-3],[1,-2],[1,-1],[2,-1],[2,0],[3,-1],[1,1],[2,0],[1,1],[2,1],[1,1],[3,0],[3,1],[3,0],[2,-1],[4,-2],[1,0],[2,-1],[3,0],[1,1],[2,0],[2,1],[1,1],[2,1],[3,1],[2,0],[4,1],[3,1],[7,0],[1,-1],[2,-2],[1,-2],[1,-2],[0,-26],[-2,-5],[-1,-4],[-2,-6],[-1,-2],[0,-4],[1,-2],[0,-1],[1,-1],[0,-1],[1,-1],[1,0],[1,-1],[5,0],[1,1],[1,0],[1,1],[0,1],[1,0],[0,1],[15,0],[1,1],[1,0],[1,1],[0,1],[2,3],[1,2],[1,1],[1,1],[1,2],[1,0],[2,1],[2,0],[2,-1],[1,0],[1,-1],[2,-1],[2,-3],[1,-1],[3,0],[0,-1],[1,-1],[0,-1],[-1,-1],[0,-1],[-1,-1],[-2,-2],[-1,-2],[-1,-2],[-1,-2],[0,-2],[-1,-2],[0,-4],[1,-3],[4,-6],[3,-3],[2,-4],[2,-4],[1,-3],[0,-1],[1,-2],[1,-1],[0,-1],[1,0],[0,-1],[2,0],[1,1],[0,2],[-2,3],[-1,1],[-1,2],[0,3],[1,3],[0,2],[1,1],[1,2],[1,2],[0,1],[1,0],[1,1],[0,1],[1,0],[1,1],[2,0],[1,1],[6,0],[1,-1],[7,0],[3,-1],[2,0],[1,-1],[1,0],[1,-1],[2,-1],[1,-1],[2,-2],[1,-1],[1,-1],[1,0],[1,-1],[2,0],[0,-1],[3,0],[1,-1],[0,-2],[-1,-1],[-1,-1],[-1,-1],[0,-1],[-1,-1],[0,-6],[1,-2],[1,-1],[1,-1],[1,-1],[2,0],[0,-1],[3,0],[1,-1],[1,0],[1,-1],[2,0],[3,-3],[2,-1],[2,-1],[2,-1],[2,0],[1,-1],[2,0],[1,-1],[1,-1],[1,0],[0,-1],[1,0],[1,-1],[1,-2],[1,-1],[1,-4],[2,-2],[2,-3],[1,-2],[1,0],[1,-1],[7,0],[0,1],[1,0],[1,1],[1,1],[0,1],[1,1],[4,0],[0,-3],[-1,0],[-1,-1],[-2,-2],[-1,-1],[0,-1],[-1,-1],[0,-2],[-1,0],[0,-3],[1,-1],[0,-2],[1,-1],[0,-1],[1,0],[1,-1],[5,0],[2,-1],[2,0],[4,-2],[1,-1],[1,0],[2,-2],[1,0],[1,-1],[1,-1],[1,-1],[0,-1],[1,0],[0,-1],[1,-1],[0,-5],[1,-1],[0,-2],[1,0],[0,-1],[1,0],[0,-1],[2,0],[2,-1],[3,-1],[3,-1],[2,-1],[3,-2],[1,0],[3,-2],[5,-4],[3,-2],[1,-1],[1,-1],[1,-2],[0,-2],[1,-2],[0,-1],[1,0],[0,-1],[1,0],[0,-1],[2,0],[2,-2],[0,-1],[2,-1],[0,-1],[1,0],[4,-4],[3,-2],[4,-5],[2,-1],[2,-4],[1,-1],[0,-2],[1,-1],[1,-2],[0,-2],[1,-2],[0,-2],[1,-1],[0,-1],[1,0],[1,-1],[5,0],[2,1],[11,0],[4,-1],[1,-1],[4,0],[1,-1],[1,0],[0,-1],[1,-1],[1,0],[1,-1],[0,-1],[1,0],[1,-1],[1,-1],[1,0],[1,-1],[3,-1],[3,0],[1,-1],[3,0],[1,-1],[1,-1],[1,0],[0,-1],[2,-2],[1,-1],[1,-3],[0,-1],[1,0],[1,-2],[0,-1],[1,0],[0,-1],[1,0],[0,-1],[1,-1],[0,-3],[-1,-1],[0,-1],[-1,0],[-1,-1],[-2,0],[-1,1],[-2,0],[-2,2],[-2,0],[-1,1],[-5,0],[-1,-1],[-1,0],[-4,-1],[-2,0],[0,-1],[-1,0],[0,-1],[-1,-1],[0,-3],[1,-2],[0,-2],[1,-1],[0,-15],[1,0],[0,-1],[6,0],[1,1],[14,0],[1,-1],[2,0],[3,-1],[0,-1],[1,0],[0,-1],[1,0],[0,-2],[-1,-1],[0,-1],[-1,0],[-1,-1],[-2,-2],[-1,0],[-1,-1],[-1,-1],[-1,-1],[-1,-1],[-1,-1],[-1,-1],[0,-1],[-1,-1],[-1,-1],[-1,-1],[0,-3],[-1,-1],[0,-11],[-1,-2],[0,-2],[-1,-1],[0,-1],[1,-1],[3,0],[1,1],[2,0],[1,1],[2,1],[3,1],[1,1],[2,2],[2,0],[2,1],[2,1],[4,1],[3,0],[0,-1],[1,-1],[0,-1],[1,0],[0,-1],[1,0],[1,-1],[1,0],[1,-1],[3,0],[1,1],[2,1],[1,0],[1,1],[0,-1],[1,0],[0,-1],[1,0],[0,-3],[-1,-1],[0,-6],[1,0],[0,-5],[1,-1],[0,-4],[1,-1],[0,-1],[1,-1],[1,-1],[0,-1],[2,-1],[1,-1],[1,-1],[2,0],[1,-1],[1,0],[1,-1],[3,0],[2,1],[1,0],[1,1],[1,0],[1,1],[1,1],[1,0],[1,1],[1,1],[1,0],[1,1],[3,0],[1,-1],[1,0],[1,-1],[1,-1],[2,-2],[2,-1],[1,-2],[1,-1],[0,-2],[1,0],[0,-3],[-1,-2],[0,-1],[-1,0],[-2,-2],[-1,-1],[-2,-2],[-1,-2],[0,-2],[-1,-1],[0,-10],[1,0],[1,-1],[1,-1],[1,-2],[1,0],[1,-2],[1,-1],[1,-2],[1,-1],[0,-7],[1,-1],[2,0],[1,-1],[2,0],[3,-1],[1,0],[0,-2],[1,-2],[0,-4],[1,0],[0,-2],[1,-1],[0,-3],[1,-1],[0,-1],[1,0],[0,-1],[4,0],[2,2],[1,1],[3,4],[4,5],[1,1],[1,1],[1,2],[1,1],[2,1],[1,0],[1,1],[2,2],[1,0],[4,2],[2,1],[1,1],[5,2],[2,0],[1,1],[2,1],[1,1],[5,0],[2,-1],[3,0],[1,-1],[9,0],[2,1],[1,0],[3,1],[4,1],[1,0],[2,1],[2,1],[2,0],[2,1],[2,1],[2,2],[2,2],[1,1],[2,2],[1,1],[1,1],[1,2],[1,1],[1,2],[1,0],[0,1],[1,1],[0,1],[1,1],[0,1],[1,0],[4,4],[0,1],[2,0],[0,1],[9,0],[1,-1],[1,0],[0,-1],[1,0],[0,-1],[1,0],[0,-1],[1,-1],[0,-7],[-1,-1],[0,-2]],[[3532,326],[1,-1],[1,0],[1,-2],[1,-1],[1,-3],[2,-2],[1,-2],[2,-1],[1,-1],[1,-1],[1,-1],[1,-2],[1,-1],[1,0],[2,-1],[2,-1],[2,-1],[4,-1],[3,0],[2,-1],[1,0],[2,-1],[1,-1],[2,-1],[2,-2],[1,-1],[0,-1],[1,-1],[0,-2],[1,-1],[0,-2],[1,-1],[3,0],[1,1],[1,0],[1,2],[0,8],[1,2],[0,1],[2,2],[2,1],[1,1],[2,1],[2,0],[3,1],[4,0],[2,-1],[3,-2],[1,-1],[2,-1],[2,-1],[2,-1],[6,-3],[7,-3],[5,-1],[9,-3],[5,-2],[3,-1],[2,-1],[2,-2],[1,-2],[2,-4],[3,-4],[2,-3],[2,-2],[1,-1],[1,-1],[2,-2],[2,-1],[2,-1],[2,-1],[1,-1],[1,-2],[1,-1],[1,-2],[0,-1],[1,-1],[1,-1],[2,-1],[1,0],[2,-1],[1,0],[2,-1],[2,0],[1,-1],[1,-1],[2,-1],[1,-1],[1,-1],[3,-1],[5,-1],[2,-1],[8,-2],[5,-1],[6,-2],[2,-1],[3,-1],[4,-2],[8,0],[3,-2],[2,-2],[5,-6],[6,-5],[1,-1],[2,-1],[1,-1],[1,-1],[2,-1],[1,-1],[2,-3],[1,-2],[1,-3],[1,-3],[1,-5],[0,-4],[1,-3],[1,-5],[1,-4],[0,-4],[-1,-6],[0,-3],[1,-1],[0,-2],[1,-4],[1,-2],[1,-1],[0,-1],[1,-1],[1,-1],[0,-6],[-1,-1],[-1,-2],[0,-1],[-1,-1],[0,-2],[-1,-1],[0,-5],[1,0],[0,-1],[2,-2],[7,-4],[3,-3],[2,-1],[13,-14],[14,-11],[5,-3],[7,-2],[5,-2],[7,-7],[9,-3],[10,0],[5,2],[2,0],[2,1],[3,0],[1,-1],[2,0],[1,-1],[1,0],[2,-1],[1,-1],[1,-1],[1,-2],[1,-1],[0,-2],[1,0],[2,-2],[2,-1],[1,-1],[4,-3],[4,-5],[1,-2],[1,0],[0,-1],[3,-2],[1,-1],[1,-1],[1,-1],[0,-1],[1,-1],[0,-1],[1,-1],[0,-1],[2,-2],[3,-3],[1,-1],[0,-1],[1,-1],[0,-1],[1,0],[1,-1],[1,-1],[2,-1],[1,0],[3,-1],[12,0],[2,-1],[7,-1],[5,-2],[2,0],[12,-4],[6,1],[14,1],[8,0],[10,-1],[8,1],[5,2],[5,7],[4,1],[6,1],[10,0],[3,-1],[2,-2],[4,-7],[1,-5],[1,-2],[7,-5],[8,-6],[4,0],[5,-3],[4,-3],[5,-4],[18,-6],[4,5],[1,0],[1,2],[4,4],[-1,2],[0,8],[-1,0],[-1,1],[0,3],[1,3],[0,4],[-1,1],[-1,0],[0,1],[3,2],[1,2],[4,0],[2,-1],[1,-1],[3,0],[5,-2],[4,1],[2,-1],[1,0],[2,2],[1,-1],[0,-1],[1,-1],[2,1],[2,1],[2,2],[1,0],[4,-1],[2,-2],[3,-1],[4,2],[2,0],[2,-1],[4,1],[1,0],[1,-1],[1,1],[-1,0],[-1,1],[4,0],[1,-1],[1,1],[-1,1],[0,1],[3,0],[0,-1],[1,1],[0,1],[2,0],[0,-2],[1,0],[1,1],[-1,0],[0,1],[-1,1],[1,0],[0,1],[3,0],[1,1],[1,0],[1,1],[3,0],[2,1],[2,1],[1,0],[2,1],[3,1],[1,2],[1,1],[-1,0],[1,1],[1,1],[1,0],[0,1],[-1,0],[0,2],[-1,0],[0,1],[2,0],[0,-1],[1,1],[-1,1],[-1,0],[0,1],[2,0],[1,-1],[1,1],[-1,1],[-3,0],[0,1],[1,0],[0,1],[1,1],[-1,1],[-1,0],[1,1],[-1,1],[-1,-1],[-1,1],[0,1],[1,1],[0,3],[1,1],[0,1],[-1,0],[0,2],[1,0],[1,1],[0,1],[2,0],[0,1],[-1,1],[1,1],[2,0],[1,1],[0,-2],[1,1],[0,2],[1,1],[1,0],[0,-1],[1,0],[1,1],[1,0],[2,1],[0,1],[1,0],[1,-1],[3,0],[1,-1],[1,-1],[1,0],[0,2],[1,1],[2,-1],[3,0],[1,-1],[1,0],[1,-1],[0,2],[1,0],[1,-1],[1,1],[0,2],[1,-1],[2,0],[-1,1],[0,1],[2,0],[1,1],[1,0],[0,1],[1,1],[1,0],[1,1],[1,2],[1,0],[1,1],[-1,1],[1,1],[1,0],[0,2],[1,1],[3,0],[-1,1],[0,1],[4,0],[0,3],[3,0],[1,1],[1,1],[1,0],[0,-2],[2,1],[2,2],[0,1],[1,1],[0,-1],[1,-2],[1,0],[1,1],[1,1],[4,0],[1,1],[1,1],[2,0],[0,3],[2,0],[0,2],[-2,-1],[0,2],[1,2],[3,0],[0,3],[1,1],[1,1],[2,0],[1,-1],[1,0],[0,1],[-1,1],[1,1],[1,1],[0,1],[-1,0],[0,2],[1,-1],[1,0],[1,2],[0,2],[1,0],[0,1],[-1,1],[0,3],[-1,1],[0,1],[1,1],[1,0],[0,-3],[1,0],[1,1],[1,-1],[0,-2],[1,0],[0,2],[1,2],[1,0],[1,-1],[1,0],[1,1],[0,1],[1,0],[0,-1],[1,-1],[1,-1],[3,0],[0,1],[1,0],[1,1],[1,0],[0,1],[2,0],[-1,2],[0,5],[1,0],[0,3],[-4,4],[0,1],[-1,1],[-2,0],[-1,1],[-1,0],[1,2],[-1,1],[-1,1],[-2,2],[-1,1],[1,0],[0,1],[-1,1],[-1,0],[-1,1],[0,2],[1,1],[0,4],[-1,1],[0,1],[2,3],[0,3],[1,1],[0,-1],[1,1],[0,1],[1,-1],[0,1],[1,0],[0,3],[1,1],[0,1],[-1,1],[2,2],[1,1],[1,0],[0,3],[1,0],[0,1],[1,0],[0,2],[1,0],[-1,1],[1,1],[0,1],[-1,1],[0,1],[1,0],[0,1],[-1,0],[0,1],[1,0],[1,1],[1,1],[0,1],[-1,0],[0,1],[2,0],[0,4],[-1,1],[1,1],[0,1],[-1,1],[0,1],[1,0],[-1,1],[0,3],[1,1],[0,1],[1,3],[1,1],[0,2],[1,2],[1,3],[1,1],[1,1],[0,5],[1,2],[0,1],[-2,2],[-2,1],[0,2],[-1,2],[-2,2],[-2,3],[-1,0],[-3,1],[-1,0],[-1,2],[-6,0],[-3,-2],[-3,-1],[-1,-1],[-3,-2],[1,-1],[1,-1],[-2,-1],[-2,-1],[-3,1],[-2,1],[-2,0],[-1,1],[0,1],[-2,0],[-1,1],[0,3],[1,4],[1,2],[1,2],[1,1],[2,1],[2,2],[1,1],[1,1],[0,1],[1,2],[0,2],[-1,3],[-1,4],[-1,3],[-1,1],[-6,2],[-1,1],[-1,1],[0,3],[-1,2],[0,1],[1,1],[1,1],[1,2],[2,3],[1,0],[1,1],[2,1],[0,2],[2,0],[1,4],[10,7],[2,3],[1,1],[2,2],[1,2],[0,3],[1,1],[-1,2],[-2,2],[-3,3],[0,2],[-3,1],[-5,1],[-2,2],[-4,6],[-2,5],[-1,1],[0,3],[1,4],[0,4],[2,2],[5,4],[1,1],[2,2],[2,2],[4,2],[2,3],[1,2],[0,1],[1,0],[2,1],[1,1],[1,3],[2,6],[0,2],[3,6],[0,10],[-1,1],[0,1],[1,0],[0,4],[1,1],[-1,2],[-2,0],[0,1],[1,2],[-3,5],[0,5],[1,0],[1,1],[-1,2],[0,1],[2,2],[0,1],[1,2],[2,0],[0,2],[1,0],[0,3],[1,-1],[0,1],[1,2],[2,1],[0,1],[1,1],[2,0],[1,2],[-1,1],[-1,0],[0,7],[-1,1],[1,4],[1,1],[1,4],[0,1],[1,2],[5,3],[5,3],[1,2],[4,5],[1,3],[2,0],[1,1],[0,4],[1,3],[0,7],[2,4],[0,4],[3,8],[2,3],[1,1],[1,4],[-1,2],[0,1],[1,-1],[0,1],[-2,3],[0,2],[1,2],[1,1],[1,2],[1,1],[2,0],[0,3],[1,2],[1,5],[0,1],[-2,0],[-1,3],[-1,3],[0,3],[1,4],[1,2],[-1,3],[0,3],[1,3],[2,4],[2,2],[3,4],[3,3],[4,4],[6,3],[7,3],[3,2],[1,3],[1,1],[0,4],[-2,5],[0,10],[-1,1],[-1,2],[-1,9],[0,2],[1,3],[2,1],[4,0]],[[3312,5443],[-1,14],[-1,13],[-1,14],[-1,13],[-1,14],[-1,13],[-1,14],[-1,13],[0,14],[-1,13],[-2,14],[-1,13],[-1,14],[0,13],[-1,14],[-1,13],[-2,14],[0,13],[-1,14],[-1,13],[-1,14],[-1,13],[-1,14],[-1,13],[-1,14],[-1,14],[-1,12],[-1,13],[-1,14],[-1,13],[0,14],[-2,13],[-1,14],[0,13],[-1,14],[-1,13],[-1,14],[-1,13],[-1,14],[-1,13],[-1,14],[-1,13],[-1,14],[-1,13],[0,12],[-1,13],[-1,10],[-1,13],[-1,15],[-1,17],[-1,14],[-1,12],[-1,15],[-2,13],[-2,15],[-1,10],[-1,10],[-3,11],[-5,15],[-4,13],[-4,14],[-5,15],[-5,17],[-6,20],[-5,17],[-6,19],[-6,20],[-4,14],[-1,1],[19,54],[4,14],[5,14],[5,13],[4,12],[11,14],[12,14],[11,14],[12,14],[11,13],[12,14],[11,14],[7,8],[15,8],[15,10],[15,9],[14,9],[30,18],[15,8],[14,9],[15,9],[15,9],[15,9],[15,9],[14,10],[15,8],[30,18],[15,9],[14,9],[15,9],[15,9],[15,9],[15,9],[23,15],[16,2],[15,2],[15,2],[16,2],[15,2],[15,1],[16,2],[15,2],[15,2],[16,2],[14,2],[16,7],[16,7],[15,7],[16,8],[16,6],[15,8],[16,6],[16,8],[16,7],[15,7],[15,7],[15,3],[16,4],[15,3],[16,5],[15,3],[16,4],[15,4],[16,3],[3,1],[0,248],[-1,26],[0,27],[1,26],[0,291],[-1,27],[0,53],[1,26],[0,238],[-1,26],[0,53],[1,27],[0,265],[-1,26],[0,27],[1,26],[0,265],[-1,26],[0,26],[1,27],[0,265],[136,0],[27,-1],[218,0],[27,1],[2316,0],[0,26],[1,27],[-1,26],[0,805],[-1,160],[80,-46],[10,-5],[8,-5],[12,-7],[9,-5],[18,-10],[43,-25],[11,-7],[52,-30],[62,-35],[52,-30],[34,-19],[6,-4],[5,-3],[10,-6],[2,0],[6,-4],[4,-2],[12,-7],[27,-16],[40,-23],[42,-24],[49,-28],[47,-27],[40,-23],[74,-43],[41,-24],[47,-27],[47,-27],[64,-37],[86,-50],[64,-37],[42,-25],[91,-52],[59,-35],[26,-15],[22,-13],[13,-8],[5,-3],[77,-44],[61,-36],[71,-41],[78,-46],[58,-35],[49,-29],[17,-10],[17,-10],[8,-4],[2,-2],[26,-15],[38,-23],[57,-33],[57,-34],[51,-30],[15,-9],[38,-24],[29,-17],[22,-13],[19,-11],[21,-12],[7,-4],[7,-3],[19,-12],[19,-11],[32,-19],[39,-23],[43,-26],[68,-41],[45,-26],[0,-1],[33,-19],[31,-19],[40,-23],[32,-19],[32,-19],[31,-18],[27,-17],[34,-20],[38,-22],[42,-26],[47,-27],[39,-24],[45,-27],[74,-44],[42,-25],[45,-27],[50,-31],[-28,1],[-843,0],[-50,-1],[-500,0],[4,-34],[6,-47],[4,-33],[4,-36],[4,-34],[5,-48],[4,-32],[4,-37],[3,-28],[4,-31],[7,-58],[5,-50],[5,-43],[8,-69]],[[2262,5257],[-46,0],[-15,-1],[-120,0],[-15,-1],[-105,0],[-15,-1],[-120,0],[-15,-1],[-410,0],[-15,1],[-425,0],[-15,1],[-53,0],[-7,-1],[-27,0],[-15,1],[-525,0],[-15,-1],[-15,0],[-15,1],[-30,0],[-15,-1],[-30,0],[-15,1],[-15,0],[-15,-1],[-60,0],[-1,-3],[-3,-16],[-2,-11],[-3,-13],[0,-1],[-2,-9],[0,-5],[-3,-13],[-6,-28],[-3,-13],[-3,-14],[-3,-14],[-2,-13],[-3,-14],[-1,-2],[-1,-4],[-3,-3],[-1,-4],[-2,-4],[-2,-3],[-2,-4],[-1,-5],[-2,-3],[-2,-3],[-2,-4],[-2,-3],[-3,-4],[-2,-2],[-3,-4],[-2,-3],[-2,-4],[-1,-4],[-1,-4],[0,-16],[1,-5],[-1,-5],[0,-5],[-1,-5],[-1,-4],[-2,-4],[-1,-4],[-2,-4],[-2,-3],[-2,-4],[-1,-4],[-2,-4],[-1,-3],[-1,-2],[-1,-2],[-2,-4],[-1,-4],[-2,-4],[-3,-16],[0,-42],[1,-7],[0,-2],[6,-29],[0,-5],[7,-25],[1,-5],[4,0],[2,1],[0,2],[-2,3],[0,3],[-1,2],[1,4],[0,6],[1,3],[1,4],[3,7],[1,1],[0,4],[3,10],[2,4],[0,6],[4,6],[-1,3],[-6,4],[-13,9],[-3,8],[0,7],[3,0],[2,8],[3,2],[1,0],[10,4],[2,0],[3,-1],[3,0],[5,4],[0,6],[3,3],[1,20],[6,14],[-4,9],[2,8],[4,19],[6,13],[7,3],[5,12],[7,1],[7,36],[21,10],[1,16],[5,9],[2,12],[9,1],[1,-7],[14,-11],[8,-17],[4,-39],[11,-6],[2,-25],[17,-13],[7,-13],[9,-4],[5,-12],[0,-15],[11,-23],[22,-5],[2,-18],[6,-20],[6,-5],[0,-23],[9,-12],[10,-4],[12,-16],[6,-22],[6,-4],[7,-11],[24,-11],[-8,-33],[2,-11],[16,-11],[12,-5],[16,-22],[23,-20],[7,-10],[49,-33],[98,11],[16,-28],[12,-51],[15,-23],[-5,-9],[19,-24],[6,-2],[9,-31],[16,-22],[13,-7],[15,-33],[21,3],[28,-48],[3,-14],[-8,-15],[-14,-9],[0,-13],[-18,-17],[-10,0],[-3,-10],[9,-9],[6,-19],[9,-5],[-2,-16],[11,-7],[-2,-47],[-35,-37],[-29,-22],[-11,-24],[-83,-42],[-16,-64],[-37,1],[-21,-43],[12,-27],[25,-12],[22,-46],[39,-9],[-71,-124],[29,-21],[37,33],[7,16],[16,16],[27,-16]]],"type":"Topology"}
