{"type":"Topology","arcs":[[[9132,3442],[-49,-95],[-97,-20],[-52,69],[-57,-8]],[[8877,3388],[-58,190],[-46,-26],[-58,-90],[-61,1],[-57,68],[-54,-36]],[[8543,3495],[-76,-17],[-153,113],[-83,-10],[-6,-62],[-69,-19],[-113,57],[-57,68],[-83,2],[-46,33],[-109,-7]],[[7748,3653],[63,93],[16,108],[-51,66],[56,56],[12,55],[-57,93],[-72,-46],[-41,-72],[-59,-24],[-72,91],[-117,110],[-27,103],[17,30],[-38,95],[131,27],[110,37],[269,237],[-11,121],[126,61],[94,90]],[[8097,4984],[64,-30],[-14,-88],[51,-78],[-13,-115],[49,-83],[-33,-128],[66,-78],[125,-17]],[[8392,4367],[2,-113],[26,-45],[10,-96],[83,2],[161,-55],[76,7],[43,-111],[82,1],[79,-30],[101,25]],[[9055,3952],[151,-92],[-43,-54],[-27,-77],[-36,-9],[55,-89],[-83,-56],[60,-133]],[[8912,2279],[-37,-13],[-101,42]],[[8774,2308],[-40,74],[65,76],[9,43],[63,-13],[51,-84],[-10,-125]],[[7170,3608],[-58,63],[53,114],[53,78],[81,61],[67,19],[132,-45],[32,-94],[49,-41]],[[7579,3763],[-9,-60],[-73,-28],[-36,-59],[-97,-57],[-142,73],[-52,-24]],[[8505,2879],[-42,-26],[11,-75],[-98,-12]],[[8376,2766],[-29,17],[2,73],[-71,33]],[[8278,2889],[-58,51],[-9,113],[-30,108],[42,39],[187,14],[36,142],[73,-30],[42,39],[-18,130]],[[8877,3388],[6,-52],[-80,-36],[-43,20],[-38,-97],[-72,-113],[20,-35],[-150,-58],[-15,-138]],[[8278,2889],[-18,-104],[12,-46],[-137,-13],[-55,-24],[-86,6],[-25,79],[-85,-30],[-89,14],[-13,55],[32,36],[-47,42],[-76,-1],[-35,-62],[-113,17],[-3,58],[-70,21]],[[7470,2937],[63,101],[-63,99],[143,188],[13,56],[54,16],[25,83],[-24,31],[60,136]],[[7741,3647],[7,6]],[[6826,2224],[-115,-140]],[[6711,2084],[-114,94],[-145,71],[-10,40],[-172,42]],[[6270,2331],[53,2],[24,40],[155,21],[46,45],[13,53],[111,-44],[95,33],[60,-69],[-18,-131],[17,-57]],[[6428,3954],[-67,-17],[-75,43],[-57,91],[-84,-69],[-52,76],[73,46],[-45,115],[-132,-12],[-44,66]],[[5945,4293],[-117,30],[-59,209],[-63,14],[2,76],[-26,51],[25,71],[-77,144],[-90,53],[-44,-36],[-76,-4],[-82,186],[-196,194],[2,67],[-40,116],[100,123]],[[5204,5587],[56,-45],[102,3],[45,57],[-2,111],[49,30],[-8,44],[100,191],[-6,43],[51,123],[51,37],[231,-150],[131,-42],[76,29],[21,-51],[73,46],[86,-22],[64,-63],[34,37],[30,95],[49,26],[8,71],[118,-25],[166,-11]],[[6729,6121],[150,-62],[27,-121],[25,-38],[-41,-72],[-6,-235],[-60,-69],[57,-60],[-65,-64],[116,-163],[75,-70],[113,-27],[85,148]],[[7205,5288],[-2,-62],[50,-20],[40,-207],[-25,-42],[-79,-17],[-157,47],[-25,-33],[-72,23],[-81,-18],[-61,-109],[-116,-77],[-20,-83],[2,-118],[-100,-89],[-29,-141],[-20,-27],[3,-94],[35,-83],[-80,-30],[1,-61],[-41,-93]],[[7741,3647],[-27,60],[-84,49],[-51,7]],[[7170,3608],[-9,-63],[65,-47],[-8,-67],[-90,-32],[-35,-50],[-67,22],[-32,-97],[-39,20],[-67,-25],[-37,49],[-73,-7],[-20,77],[61,47],[-69,30],[-17,59],[46,18],[76,152],[68,49],[78,14],[2,87],[23,25],[-75,85],[-88,-98],[-14,-48],[-108,-5],[16,94],[36,64],[-20,67],[-77,-1],[-19,-89],[-33,12],[12,87],[47,73],[-125,12],[-22,-26],[65,-108],[-69,-43],[1,71],[-51,-13],[-48,-82]],[[6454,3921],[-26,33]],[[7205,5288],[103,-34],[-8,59],[105,1],[180,-51],[35,-71],[79,-20],[65,-50],[55,39],[65,-24],[34,-72],[78,-40],[74,7]],[[8070,5032],[27,-48]],[[5945,4293],[-60,-157],[33,-73],[-4,-59],[-138,14]],[[5776,4018],[-41,74],[-89,77],[-57,71],[-107,102],[-69,113],[-83,92],[-78,125],[-134,139],[-148,97],[10,56],[-73,22],[-58,61],[-110,33],[34,74],[-10,83],[-70,72],[-30,0],[-76,78],[-78,10],[-82,34],[-160,43],[-90,93],[-81,7],[-27,156],[93,185]],[[4162,5915],[54,-9],[58,53],[77,37],[140,162],[16,94]],[[4507,6252],[120,28],[14,-78],[54,-8],[41,-55],[-34,-59],[55,-59],[-24,-44],[103,-136],[173,-13],[52,-33],[4,-76],[109,-84],[30,-48]],[[8156,2185],[-37,-43],[-45,17],[22,-159],[72,-53],[-24,-26],[-74,60],[-55,-16],[-168,49],[-104,-30],[-61,59],[-40,5],[-71,-37],[6,-128],[-52,-39],[-75,-9],[-20,-64],[21,-61]],[[7451,1710],[-300,71],[-95,46],[-55,9],[-177,69],[-39,85],[-74,94]],[[6826,2224],[122,28],[34,-47],[53,52],[8,52],[123,62],[54,3],[34,100],[-43,13],[-56,71],[-19,76],[41,60],[-106,48],[-33,71],[162,17],[115,85],[76,-2],[79,24]],[[8376,2766],[-5,-158],[-43,-11],[2,-152],[-82,-170],[-92,-90]],[[13459,1710],[1,-63],[-351,0],[-500,0]],[[12609,1647],[0,74],[-106,6],[-51,44],[-110,49],[-20,-31],[-14,-113],[-77,50],[-150,66],[-23,83],[2,95],[-80,-7],[-30,21],[-26,83]],[[11924,2067],[223,24],[61,-44],[26,28],[139,62],[52,53],[127,70],[83,62],[97,100],[7,159],[21,42],[80,59],[9,164],[-10,143],[40,180]],[[12879,3169],[8,-146],[71,-43],[77,-22],[29,31],[188,-246],[5,-62],[55,-87],[80,-75]],[[13392,2519],[69,-64],[2,-642],[-4,-103]],[[9057,2546],[6,-70]],[[9063,2476],[9,-226]],[[9072,2250],[-37,-37],[-68,12],[-55,54]],[[8774,2308],[-16,-92],[-54,-36],[-30,-78]],[[8674,2102],[-94,33],[-45,-79],[-90,-30],[-124,-71],[-48,34],[-59,79],[26,64],[-84,53]],[[8505,2879],[60,-48],[93,-5],[43,-82],[-22,-47],[65,-63],[61,67],[24,57],[98,0],[-9,-68],[86,-4],[85,-59],[-32,-81]],[[9057,2546],[46,18],[86,-16],[58,55]],[[9247,2603],[101,-17],[131,-114],[50,-76],[-58,-11],[-73,-60],[-52,23],[-58,-53],[-93,61],[-72,117],[-60,3]],[[9132,3442],[-17,-60],[58,-58],[87,-2],[36,-34],[-47,-93],[-89,-32],[-41,-60],[25,-60],[-47,-58],[15,-59],[40,-15],[164,142],[56,-49]],[[9372,3004],[-89,-112],[32,-87],[-33,-81],[-41,-32],[6,-89]],[[9072,2250],[-55,-137],[25,-124],[-54,11],[-116,-93]],[[8872,1907],[-44,66],[-90,6],[-64,123]],[[9110,895],[-102,119],[-62,-10],[-246,73],[-85,3],[-61,28],[-109,84],[-429,157],[-134,104],[-102,46],[-38,52],[-62,23],[-75,108],[-75,42],[-79,-14]],[[8872,1907],[31,-71],[54,-13],[53,-88],[54,-28],[100,25],[5,-59]],[[9169,1673],[-32,-47],[15,-72],[39,-12],[30,-64],[-5,-102],[55,-29],[-8,-46],[76,-51],[-7,-75],[-61,-142],[-89,-23],[21,-51],[-93,-64]],[[11277,1307],[-126,-339],[41,-67],[-27,-75],[51,-89]],[[11216,737],[-198,84],[-202,22],[-171,-28],[-93,-91],[-59,-9],[-257,-99],[-58,-38],[-85,5],[-60,-18],[-134,38],[-167,94],[-152,23],[-117,7],[-84,62],[-118,66],[-151,40]],[[9169,1673],[114,16],[38,44],[128,-36],[13,45],[-35,56],[32,84],[66,5],[51,-130],[36,-3],[62,59],[79,21],[55,-15],[24,37],[67,8],[54,75]],[[9953,1939],[28,130],[98,-43],[64,-103],[47,-102],[31,-15],[91,14],[56,-15],[15,-90],[-46,-98],[82,-110],[57,0],[167,102],[-15,-57],[90,-127],[68,-24],[3,-66],[488,-28]],[[12400,1364],[26,35],[-56,40],[-77,22],[6,116],[-56,16],[-1,74],[-97,33],[-206,-176],[-62,-10],[-86,-103],[-34,68],[-69,16],[-30,54],[0,112],[-106,70],[-31,-29],[-7,-139],[-58,-48],[-59,-119]],[[11397,1396],[-39,38],[33,77],[-68,72],[-79,33],[-18,50],[-49,9],[9,66],[-30,106]],[[11156,1847],[252,90],[85,20],[225,4],[52,21],[72,65],[82,20]],[[12609,1647],[0,-283],[-209,0]],[[8070,5032],[-12,140],[45,42],[-43,39],[8,85],[98,45],[120,-35],[36,61],[-99,15],[-59,104],[-85,47],[-58,160],[-5,60],[-61,47],[-73,100],[210,184],[28,-61],[69,96],[1,122],[-134,13],[-2,61],[72,70],[121,29],[31,146],[75,58],[88,-92],[72,77]],[[8513,6645],[53,-45]],[[8566,6600],[-92,-66],[77,-56],[6,-80],[45,-106],[-39,-73],[67,-30],[-13,-67],[102,-66],[-16,-123],[108,-46],[17,-99],[67,17],[54,-64],[35,40],[111,-15],[1,-266],[74,-21],[-237,-188],[-67,3],[-47,-37],[10,-45],[-63,-56],[-145,-91],[-13,-58],[22,-56],[-31,-139],[78,-79],[-3,-41],[-58,-60],[-112,7],[-46,-109],[18,-89],[-73,8],[-11,-82]],[[9465,3880],[-51,-20],[-44,64],[-40,1],[-104,55],[-171,-28]],[[8566,6600],[59,-19],[56,-82],[-8,-103],[32,-49],[-8,-78],[53,-50],[56,-98],[45,-150],[133,-28],[68,-64],[91,-12],[107,-74],[97,-15],[76,11],[96,-20],[104,-89],[78,52],[59,0],[-26,-162],[-112,-212],[-55,-147],[-60,-254],[-20,-228],[-15,-289],[4,-187],[-13,-107],[-26,-67],[-6,-91],[34,-108]],[[11277,1307],[44,54],[76,35]],[[12400,1364],[75,-36],[4,-35],[162,-145],[72,-29],[48,-61],[10,-64],[62,-23],[49,-47],[-19,-35],[-1,-116],[-597,0],[-221,-408],[70,-96],[-58,-121],[19,-70],[-40,-78],[-131,134],[-235,258],[-144,139],[-182,146],[-127,60]],[[12879,3169],[46,93],[97,62],[122,49],[200,39],[263,36],[99,60],[112,23],[47,-6],[59,35],[85,-7],[198,-61]],[[14207,3492],[0,-246],[-97,-174],[-182,-187],[-59,5],[-83,-26],[-157,-116],[-23,-65],[-65,-30],[-79,-91],[-70,-43]],[[14582,3040],[-18,-41],[-104,-118],[-14,70],[42,70],[94,19]],[[14207,3492],[134,-32],[109,65],[54,-72],[39,-117],[30,-21],[-61,-145],[-103,-127],[-69,-55],[-81,-129],[-26,-75],[10,-76],[-17,-59],[-40,-10],[-78,-96],[62,-23],[94,23],[-15,-65],[-89,-48],[44,-88],[-4,-55],[-81,-211],[-18,-126],[-37,-113],[-87,-13],[0,124],[-101,1],[-36,37],[-88,-13],[-12,-52],[-60,-83],[-20,-67],[-46,-56],[-48,-17],[-54,45],[-53,-33]],[[2380,7291],[-67,6],[-74,71],[-87,121],[64,34],[50,-68],[1,-43],[85,-9],[-7,-74],[35,-38]],[[2535,6761],[-666,0]],[[1869,6761],[66,107],[-29,23],[35,90],[-63,110],[-73,49],[-29,54],[-90,69],[-163,181],[-111,35],[-21,35],[-121,58],[-92,71],[6,42],[-56,67],[1,154],[-48,59],[-65,36],[10,83],[-21,90],[-124,86],[14,83],[-90,132],[-72,58],[15,166],[-108,68],[-35,124],[-41,14],[-46,132],[651,58],[461,35],[-42,-55],[-1,-58]],[[1587,9017],[-56,-6],[-14,-71],[-41,-48],[36,-33],[5,-131],[73,-51]],[[1590,8677],[11,-91],[-45,-122],[-5,-112],[27,-85],[53,-33],[9,-150],[32,-74],[-18,-145],[48,-95],[136,-119],[230,-182],[69,-79],[40,-98],[103,-128],[29,18],[55,-99],[14,-68],[92,-16],[14,-96],[37,-47],[14,-95]],[[6270,2331],[-67,65],[-91,41],[-26,86],[-80,60],[-132,208],[-4,67],[-63,81],[35,41],[133,22],[23,80]],[[5998,3082],[58,95],[86,24],[87,56],[45,-39],[64,-16],[19,-35],[98,3],[27,61],[11,110],[59,0],[51,34],[50,-4],[52,44],[4,53],[-84,75],[15,54],[-40,37],[-71,9],[-32,61],[-80,95],[37,122]],[[5998,3082],[-81,99],[103,103],[-6,135],[26,51],[-120,97],[-89,171],[-17,184],[-38,96]],[[2801,7251],[-41,-86],[-49,-15],[-74,40],[42,172],[84,4],[38,-115]],[[4162,5915],[-8,89],[-70,85],[-126,7],[-68,46],[-56,138],[-162,57],[-53,52],[-79,24],[-16,166],[22,123],[-108,21],[-59,-27],[-70,35],[-88,75],[-97,149],[-102,36],[-30,75],[-69,56],[5,36],[-117,117],[-30,142],[-79,15],[10,59],[-125,191],[-44,41],[-13,155],[-38,87],[-102,135],[-23,72],[32,131],[-20,59],[-207,55],[-41,90],[-137,63],[-43,-55],[-113,25],[-149,107],[-99,30]],[[1587,9017],[411,-136],[359,-122],[541,-180],[419,-145],[559,1],[513,-1]],[[4389,8434],[-41,-99],[20,-116],[-64,2],[30,-142],[99,-52],[19,-112],[1,-184],[12,-108],[-24,-114],[-34,-12],[22,-79],[-39,-54],[31,-163],[48,-68],[44,-184],[-29,-29],[-92,-23],[-150,1],[20,-128],[48,-39],[3,-78],[72,-40],[81,-195],[-34,-39],[28,-102],[47,-25]],[[6729,6121],[-71,86],[50,63],[-25,96],[-37,49],[11,120],[-38,124],[-3,66],[35,92],[104,201],[21,64],[38,13],[96,170]],[[6910,7265],[72,-16],[144,194],[15,82],[61,110],[126,12],[48,57],[105,-46],[312,-14],[64,-111],[94,-41],[24,-46],[97,-61],[51,-66],[16,-83],[48,-61],[21,-82],[77,-116],[19,-73],[95,-69],[90,-125],[24,-65]],[[4389,8434],[254,0],[0,227],[335,0],[442,0],[68,-26],[75,-127],[122,-58],[86,-100],[76,-40],[23,-48],[78,-68],[88,-31],[137,-111],[19,-91],[80,-106],[3,-130],[63,-120],[95,-81],[60,-19],[22,-46],[86,-47],[89,-16],[30,-42],[75,-13],[38,-43],[77,-33]],[[9953,1939],[-103,79],[-57,-44],[-34,66],[-90,44],[-4,54],[49,51],[-6,103],[119,69],[-118,73],[-37,5],[-45,99],[59,48],[-4,70],[70,164],[-136,48],[-52,-83],[-81,72],[34,94],[58,40],[-68,37],[-39,130],[-47,5],[-7,-106],[-42,-53]],[[9465,3880],[25,-124],[53,-91],[126,-124],[6,-33],[-37,-93],[9,-94],[114,-268],[166,-186],[157,-201],[33,-142],[28,-40],[6,-74],[78,-58],[17,-63],[58,-22],[14,-72],[36,-37],[100,-49],[207,-15],[97,-74],[80,-10],[37,-72],[52,-54],[8,-41],[69,-27],[152,31]],[[2535,6761],[-3,-70],[81,-106],[104,-43],[32,-91],[99,-127],[62,-17],[-26,-68],[50,-54],[37,22],[120,-108],[-3,-55],[53,-42],[-7,-38],[70,-173],[-18,-68],[25,-81],[51,-79],[78,-86],[36,-65],[18,-84],[68,-66],[48,-105],[-38,-91],[27,-134],[58,-75],[117,-13],[-15,74],[46,7],[29,-46],[76,-46],[10,-57],[72,7],[1,-73],[60,-58],[2,-70],[105,-54],[25,-83],[-12,-77],[-63,-75],[-43,-12],[-87,-81],[-49,-14],[-63,75],[-30,144],[-69,119],[-172,113],[-156,163],[-159,98],[-101,39],[-74,-11],[-91,70],[-75,37],[-22,92],[-58,49],[56,175],[27,151],[-2,134],[-42,116],[-54,43],[-46,86],[-42,-6],[-222,152],[-178,131],[-68,-2],[-59,-31],[-108,126],[-68,2],[-34,51],[-95,21],[-88,51],[-2,66],[-49,58],[-65,24],[-34,51],[-98,57],[73,46],[168,-29],[78,48],[60,66]]],"transform":{"scale":[0.002161582602138744,0.0019917026725082155],"translate":[-118.24382160000003,14.5344099]},"objects":{"admin_level_4":{"type":"GeometryCollection","geometries":[{"arcs":[[0,1,2,3,4,5,6]],"type":"Polygon","properties":{"ref":"SLP","name":"San Luis Potosí","place":"state","name:en":"San Luis Potosi","name:es":"San Luis Potosí","name:pl":"San Luis Potosí","name:ru":"Сан-Луис-Потоси","name:uk":"Сан-Луїс-Потосі","boundary":"administrative","wikidata":"Q78980","ISO3166-2":"MX-SLP","wikipedia":"es:San Luis Potosí","admin_level":"4","is_in:country":"México","is_in:country_code":"MX"},"id":4086617},{"arcs":[[7,8]],"type":"Polygon","properties":{"ref":"DIF","name":"Ciudad de México","place":"state","name:en":"Mexico City","name:es":"Ciudad de México","boundary":"administrative","wikidata":"Q1489","ISO3166-2":"MX-DIF","wikipedia":"en:Mexico City","short_name":"CDMX","admin_level":"4","is_in:country":"México","is_in:country_code":"MX"},"id":1376330},{"arcs":[[9,10]],"type":"Polygon","properties":{"ref":"AGU","name":"Aguascalientes","name:en":"Aguascalientes","name:es":"Aguascalientes","name:pl":"Aguascalientes","name:ru":"Агуаскальентес","name:uk":"Аґуаскальєнтес","boundary":"administrative","wikidata":"Q79952","ISO3166-2":"MX-AGU","wikipedia":"es:Aguascalientes","admin_level":"4","is_in:country":"México","is_in:country_code":"MX"},"id":2610002},{"arcs":[[11,12,13,-2,14]],"type":"Polygon","properties":{"ref":"QUE","name":"Querétaro","place":"state","source":"Inegi","name:en":"Querétaro","name:es":"Querétaro","name:pl":"Querétaro","name:ru":"Керетаро","name:uk":"Керетаро","boundary":"administrative","wikidata":"Q79754","ISO3166-2":"MX-QUE","wikipedia":"es:Querétaro","population":"1827937","admin_level":"4","is_in:country":"México","official_name":"Estado Libre y Soberano de Querétaro de Arteaga","population:date":"2010","is_in:country_code":"MX"},"id":2340903},{"arcs":[[15,16,17,-3,-14]],"type":"Polygon","properties":{"ref":"GUA","name":"Guanajuato","place":"state","name:en":"Guanajuato","name:es":"Guanajuato","name:pl":"Guanajuato","name:ru":"Гуанахуато","name:uk":"Ґуанахуато","boundary":"administrative","wikidata":"Q46475","ISO3166-2":"MX-GUA","wikipedia":"es:Guanajuato","admin_level":"4","is_in:country":"México","is_in:country_code":"MX"},"id":2340909},{"arcs":[[18,19,20]],"type":"Polygon","properties":{"ref":"COL","name":"Colima","name:en":"Colima","name:es":"Colima","name:pl":"Colima","name:ru":"Колима","name:uk":"Коліма","boundary":"administrative","wikidata":"Q61309","ISO3166-2":"MX-COL","wikipedia":"es:Colima","admin_level":"4","is_in:country":"México","is_in:country_code":"MX"},"id":2340912},{"arcs":[[21,22,23,24,25]],"type":"Polygon","properties":{"ref":"DUR","name":"Durango","place":"state","name:en":"Durango","name:es":"Durango","name:pl":"Durango","name:ru":"Дуранго","name:uk":"Дуранго","boundary":"administrative","wikidata":"Q79918","ISO3166-2":"MX-DUR","wikipedia":"es:Durango","admin_level":"4","is_in:country":"México","is_in:country_code":"MX"},"id":2399740},{"arcs":[[-4,-18,26,-10,27,28,-26,29,30]],"type":"Polygon","properties":{"ref":"ZAC","name":"Zacatecas","place":"state","name:en":"Zacatecas","name:es":"Zacatecas","name:pl":"Zacatecas","name:ru":"Сакатекас","name:uk":"Сакатекас","boundary":"administrative","wikidata":"Q80269","ISO3166-2":"MX-ZAC","wikipedia":"es:Zacatecas","admin_level":"4","is_in:country":"México","is_in:country_code":"MX"},"id":2399704},{"arcs":[[31,32,33,34,-23]],"type":"Polygon","properties":{"ref":"SIN","name":"Sinaloa","place":"state","name:en":"Sinaloa","name:es":"Sinaloa","name:pl":"Sinaloa","name:ru":"Синалоа","name:uk":"Сіналоа","boundary":"administrative","wikidata":"Q80252","ISO3166-2":"MX-SIN","wikipedia":"es:Sinaloa","admin_level":"4","is_in:country":"México","is_in:country_code":"MX"},"id":2455086},{"arcs":[[35,36,-19,37,-16,-13,38]],"type":"Polygon","properties":{"ref":"MIC","name":"Michoacán de Ocampo","place":"state","name:en":"Michoacán","name:es":"Michoacán de Ocampo","name:pl":"Michoacán","name:ru":"Мичоакан","name:uk":"Мічоакан","boundary":"administrative","wikidata":"Q79861","ISO3166-2":"MX-MIC","wikipedia":"es:Michoacán","admin_level":"4","is_in:country":"México","is_in:country_code":"MX"},"id":2340636},{"arcs":[[39,40,41,42,43]],"type":"Polygon","properties":{"ref":"CAM","name":"Campeche","place":"state","source":"GNS","gns:dsg":"ADM1","gns:uni":"-2327989","name:en":"Campeche","name:es":"Campeche","name:pl":"Campeche","name:ru":"Кампече","name:uk":"Кампече","boundary":"administrative","wikidata":"Q80908","ISO3166-2":"MX-CAM","wikipedia":"es:Campeche","admin_level":"4","is_in:country":"México","is_in:country_code":"MX"},"id":2568834},{"arcs":[[44,45,46,-9,47,48,-39,-12,49]],"type":"Polygon","properties":{"ref":"MEX","name":"México","place":"state","name:de":"Mexiko","name:en":"Mexico","name:es":"México","name:pl":"Meksyk","name:ru":"Мехико","name:uk":"Мехіко","boundary":"administrative","wikidata":"Q82112","ISO3166-2":"MX-MEX","wikipedia":"es:Estado de México","admin_level":"4","is_in:country":"México","is_in:country_code":"MX"},"id":1376489},{"arcs":[[-45,50,51]],"type":"Polygon","properties":{"ref":"TLA","name":"Tlaxcala","place":"state","name:en":"Tlaxcala","name:es":"Tlaxcala","name:pl":"Tlaxcala","name:ru":"Тласкала","name:uk":"Тласкала","boundary":"administrative","wikidata":"Q82681","ISO3166-2":"MX-TLA","wikipedia":"es:Tlaxcala","admin_level":"4","is_in:country":"México","is_in:country_code":"MX"},"id":1375274},{"arcs":[[-51,-50,-15,-1,52,53]],"type":"Polygon","properties":{"ref":"HID","name":"Hidalgo","place":"state","name:en":"Hidalgo","name:es":"Hidalgo","name:pl":"Hidalgo","name:ru":"Идальго","name:uk":"Ідальго","boundary":"administrative","wikidata":"Q80903","ISO3166-2":"MX-HID","wikipedia":"es:Estado de Hidalgo","admin_level":"4","is_in:country":"México","is_in:country_code":"MX"},"id":1376490},{"arcs":[[54,55,-48,-8,-47]],"type":"Polygon","properties":{"ref":"MOR","name":"Morelos","place":"state","name:en":"Morelos","name:es":"Morelos","name:pl":"Morelos","name:ru":"Морелос","name:uk":"Морелос","boundary":"administrative","wikidata":"Q66117","ISO3166-2":"MX-MOR","wikipedia":"es:Morelos","admin_level":"4","is_in:country":"México","is_in:country_code":"MX"},"id":1376332},{"arcs":[[56,-36,-49,-56,57,58]],"type":"Polygon","properties":{"ref":"GRO","name":"Guerrero","place":"state","name:en":"Guerrero","name:es":"Guerrero","name:pl":"Guerrero","name:ru":"Герреро","name:uk":"Ґерреро","boundary":"administrative","wikidata":"Q60158","ISO3166-2":"MX-GRO","wikipedia":"es:Estado de Guerrero","admin_level":"4","is_in:country":"México","is_in:country_code":"MX"},"id":2439316},{"arcs":[[59,60,-59,61,62]],"type":"Polygon","properties":{"ref":"OAX","name":"Oaxaca","place":"state","name:en":"Oaxaca","name:es":"Oaxaca","name:pl":"Oaxaca","name:ru":"Оахака","name:uk":"Оахака","boundary":"administrative","wikidata":"Q34110","ISO3166-2":"MX-OAX","wikipedia":"es:Oaxaca","admin_level":"4","is_in:country":"México","is_in:country_code":"MX"},"id":2529822},{"arcs":[[63,64,65,-41,66]],"type":"Polygon","properties":{"ref":"TAB","name":"Tabasco","place":"state","name:en":"Tabasco","name:es":"Tabasco","name:pl":"Tabasco","name:ru":"Табаско","name:uk":"Табаско","boundary":"administrative","wikidata":"Q80914","ISO3166-2":"MX-TAB","wikipedia":"es:Tabasco","admin_level":"4","is_in:country":"México","official_name":"Estado de Tabasco","is_in:country_code":"MX"},"id":2556680},{"arcs":[[-5,-31,67,68,69]],"type":"Polygon","properties":{"ref":"NLE","name":"Nuevo León","place":"state","name:en":"Nuevo León","name:es":"Nuevo León","name:pl":"Nuevo León","name:ru":"Нуэво-Леон","name:uk":"Нуево-Леон","boundary":"administrative","wikidata":"Q15282","ISO3166-2":"MX-NLE","wikipedia":"es:Nuevo León","admin_level":"4","is_in:country":"México","is_in:country_code":"MX"},"id":1661523},{"arcs":[[70,-6,-70,71]],"type":"Polygon","properties":{"ref":"TAM","name":"Tamaulipas","place":"state","name:en":"Tamaulipas","name:es":"Tamaulipas","name:pl":"Tamaulipas","name:ru":"Тамаулипас","name:uk":"Тамауліпас","boundary":"administrative","wikidata":"Q80007","ISO3166-2":"MX-TAM","wikipedia":"es:Tamaulipas","admin_level":"4","is_in:country":"México","is_in:country_code":"MX"},"id":2415518},{"arcs":[[-60,72,-64,73]],"type":"Polygon","properties":{"ref":"CHP","name":"Chiapas","place":"state","name:en":"Chiapas","name:es":"Chiapas","name:pl":"Chiapas","name:ru":"Чьяпас","name:uk":"Чіапас","boundary":"administrative","wikidata":"Q60123","ISO3166-2":"MX-CHP","wikipedia":"es:Chiapas","admin_level":"4","is_in:country":"México","official_name":"Estado de Chiapas","is_in:country_code":"MX"},"id":2556679},{"arcs":[[-43,74,75]],"type":"Polygon","properties":{"ref":"YUC","name":"Yucatán","name:en":"Yucatán","name:es":"Yucatán","name:pl":"Jukatan","name:ru":"Юкатан","name:uk":"Юкатан","boundary":"administrative","wikidata":"Q60176","ISO3166-2":"MX-YUC","wikipedia":"es:Yucatán","admin_level":"4","is_in:country":"México","is_in:country_code":"MX"},"id":2614435},{"arcs":[[[76]],[[-44,-76,77]]],"type":"MultiPolygon","properties":{"ref":"ROO","name":"Quintana Roo","name:en":"Quintana Roo","name:es":"Quintana Roo","name:pl":"Quintana Roo","name:ru":"Кинтана-Роо","name:uk":"Кінтана-Роо","boundary":"administrative","wikidata":"Q80245","ISO3166-2":"MX-ROO","wikipedia":"es:Quintana Roo","admin_level":"4","is_in:country":"México","is_in:country_code":"MX"},"id":2614434},{"arcs":[[[78]],[[79,80,81,82]]],"type":"MultiPolygon","properties":{"ref":"BCN","name":"Baja California","place":"state","name:cs":"Dolní Kalifornie","name:de":"Niederkalifornien","name:en":"Baja California","name:es":"Baja California","name:pl":"Kalifornia Dolna","name:ru":"Нижняя Калифорния","name:uk":"Баха-Каліфорнія","boundary":"administrative","wikidata":"Q58731","ISO3166-2":"MX-BCN","wikipedia":"es:Baja California","admin_level":"4","is_in:country":"México","official_name":"Estado de Baja California Norte","is_in:country_code":"MX"},"id":2589601},{"arcs":[[-38,-21,83,84,-28,-11,-27,-17]],"type":"Polygon","properties":{"ref":"JAL","name":"Jalisco","place":"state","name:en":"Jalisco","name:es":"Jalisco","name:pl":"Jalisco","name:ru":"Халиско","name:uk":"Халіско","boundary":"administrative","wikidata":"Q13160","ISO3166-2":"MX-JAL","wikipedia":"es:Jalisco","admin_level":"4","is_in:country":"México","is_in:country_code":"MX"},"id":2340910},{"arcs":[[85,-32,-22,-29,-85]],"type":"Polygon","properties":{"name":"Nayarit","layer":"1","place":"state","name:en":"Nayarit","name:es":"Nayarit","name:pl":"Nayarit","name:ru":"Наярит","name:uk":"Наяріт","boundary":"administrative","wikidata":"Q79920","ISO3166-2":"MX-NAY","wikipedia":"es:Nayarit","admin_level":"4","is_in:country":"México","is_in:country_code":"MX"},"id":2551642},{"arcs":[[[86]],[[87,-82,88,89,-34]]],"type":"MultiPolygon","properties":{"ref":"SON","name":"Sonora","place":"state","name:en":"Sonora","name:es":"Sonora","name:lt":"Sonora","name:pl":"Sonora","name:ru":"Сонора","name:uk":"Сонора","boundary":"administrative","timezone":"America/Hermosillo","wikidata":"Q46422","ISO3166-2":"MX-SON","wikipedia":"es:Sonora","admin_level":"4","is_in:country":"México","is_in:country_code":"MX"},"id":1673426},{"arcs":[[-68,-30,-25,90,91]],"type":"Polygon","properties":{"ref":"COA","name":"Coahuila de Zaragoza","place":"state","name:en":"Coahuila","name:es":"Coahuila de Zaragoza","name:pl":"Coahuila","name:ru":"Коауила","name:uk":"Коауїла","boundary":"administrative","wikidata":"Q53079","ISO3166-2":"MX-COA","wikipedia":"es:Coahuila de Zaragoza","admin_level":"4","is_in:country":"México","is_in:country_code":"MX"},"id":1661524},{"arcs":[[-91,-24,-35,-90,92]],"type":"Polygon","properties":{"ref":"CHH","name":"Chihuahua","place":"state","name:en":"Chihuahua","name:es":"Chihuahua","name:lt":"Čihuahua","name:pl":"Chihuahua","name:ru":"Чиуауа","name:uk":"Чіуауа","boundary":"administrative","wikidata":"Q655","ISO3166-2":"MX-CHH","wikipedia":"es:Chihuahua","admin_level":"4","is_in:country":"México","is_in:country_code":"MX"},"id":1673425},{"arcs":[[-63,93,-53,-7,-71,94,-65,-73]],"type":"Polygon","properties":{"ref":"VER","name":"Veracruz de Ignacio de la Llave","place":"state","name:en":"Veracruz","name:es":"Veracruz de Ignacio de la Llave","name:pl":"Veracruz","name:ru":"Веракрус","name:uk":"Веракрус","boundary":"administrative","wikidata":"Q60130","ISO3166-2":"MX-VER","wikipedia":"es:Veracruz de Ignacio de la Llave","admin_level":"4","is_in:country":"México","is_in:country_code":"MX"},"id":2415761},{"arcs":[[-62,-58,-55,-46,-52,-54,-94]],"type":"Polygon","properties":{"ref":"PUE","name":"Puebla","place":"state","name:en":"Puebla","name:es":"Puebla","name:pl":"Puebla","name:ru":"Пуэбла","name:uk":"Пуебла","boundary":"administrative","wikidata":"Q79923","ISO3166-2":"MX-PUE","wikipedia":"es:Puebla","admin_level":"4","is_in:country":"México","is_in:country_code":"MX"},"id":1376491},{"arcs":[[-80,95]],"type":"Polygon","properties":{"ref":"BCS","name":"Baja California Sur","place":"state","name:cs":"Jižní Dolní Kalifornie","name:de":"Süd-Niederkalifornien","name:en":"South Lower California","name:es":"Baja California Sur","name:pl":"Kalifornia Dolna Południowa","name:ru":"Южная Калифорния","name:uk":"Баха-Каліфорнія-Сюр","boundary":"administrative","wikidata":"Q46508","ISO3166-2":"MX-BCS","wikipedia":"es:Baja California Sur","admin_level":"4","is_in:country":"México","official_name":"Estado de Baja California Sur","is_in:country_code":"MX"},"id":2589611}]}}}