{"type":"Topology","arcs":[[[10635,2825],[0,-1],[-4,0],[1,1],[3,0]],[[10582,2814],[-1,0],[0,0],[1,0],[0,0]],[[10552,2800],[-11,3],[-2,4],[6,2],[2,-6],[5,-3]],[[10551,2782],[-4,-1],[1,2],[3,-1]],[[10554,2790],[-2,0],[1,2],[1,-2]],[[1836,1497],[-6,-85],[-46,-8],[-40,100],[73,22],[19,-29]],[[2378,997],[-34,-12],[-31,-86],[-2,-102],[-92,-166]],[[2219,631],[-81,51],[-254,189]],[[1884,871],[84,116],[117,40],[24,27],[65,-26],[58,20],[146,-51]],[[2448,1268],[-56,-175],[-14,-96]],[[1884,871],[-165,123]],[[1719,994],[86,122],[33,69],[-7,107],[85,-1],[42,101],[3,122],[-24,27]],[[1937,1541],[119,-42],[190,-47],[62,-71],[137,-86],[3,-27]],[[1818,1331],[-39,-4],[16,34],[23,-30]],[[1719,994],[-246,184],[-106,89],[-25,75],[11,86],[41,62],[-110,150],[-7,34],[-71,45],[-96,96],[102,103],[20,4]],[[1232,1922],[64,13],[20,-47],[74,-24],[177,-34],[60,30],[62,-45],[59,58]],[[1748,1873],[69,-39],[55,-76],[-34,-55],[-2,-88],[45,-51],[56,-23]],[[10748,2648],[-39,-41],[-48,-14],[-103,11]],[[10558,2604],[2,74],[-64,153],[36,79],[138,86]],[[10670,2996],[13,-198],[65,-150]],[[10895,2093],[-21,22],[12,120],[-47,19],[-4,98],[-23,48],[72,123],[-3,42],[-38,90],[-50,-20],[-45,13]],[[10670,2996],[70,37],[78,117],[58,48],[136,53],[29,189],[145,173],[159,208],[127,227],[152,166],[243,61],[177,-85],[20,-125],[-58,-181],[166,-123],[164,-132],[-3,-159],[105,-61],[357,-183],[319,-157],[175,-66],[48,-126],[10,-141],[-104,-79],[-189,-93],[-236,-23],[-25,-66],[70,-79],[66,-39],[26,-47],[-336,-139],[-37,-90],[-199,60],[-39,-16],[-240,-2],[-157,99],[-60,13],[-145,5],[-49,15],[-38,-26],[-38,19],[-106,-13],[-54,25],[-67,-32],[-55,42],[-58,-17],[-52,12],[-66,-68],[-47,46],[-84,27],[-31,-96],[-42,6],[-60,-87]],[[10671,2840],[-3,-9],[-11,2],[5,10],[9,-3]],[[818,3467],[-49,109],[25,37],[11,137],[74,-3],[51,-97]],[[930,3650],[-1,-56],[-102,-99],[-9,-28]],[[2448,1268],[67,-21],[111,-131],[116,-46],[132,44],[166,-86],[-3,82],[19,51]],[[3056,1161],[74,117],[97,35],[19,73],[34,37],[84,26],[94,-20],[39,-27],[45,-73],[13,-88],[77,-71],[72,-26],[79,-109],[-19,-78],[-50,-54],[-60,-23],[-106,33],[-76,-115],[99,-227],[38,-130],[-68,-86],[7,-60],[-48,-22],[-123,4],[-33,91],[-116,-2],[-55,33],[-91,-33],[-70,-149],[-87,26],[-239,57],[-314,232],[-153,99]],[[1584,2421],[-25,-124],[66,-29],[17,-112],[72,-84],[0,-120],[34,-79]],[[1232,1922],[-65,4],[-16,91],[36,57],[-49,49],[-48,3],[-36,93],[35,77],[3,79],[-20,136],[-26,75],[-67,21],[-51,120],[83,20]],[[1011,2747],[38,-36],[71,68],[55,87],[64,20],[19,73],[43,41],[39,162]],[[1340,3162],[79,-70],[11,-37],[81,64],[10,64],[44,-2],[35,41],[57,-2],[63,42],[53,-42],[18,-73]],[[1791,3147],[-20,-54],[17,-52],[-20,-41],[61,-31],[-8,-78],[-75,0],[-73,-76],[-16,-92],[-38,-73],[19,-53],[-73,-115],[19,-61]],[[1584,2421],[102,-6],[36,-30],[116,41],[6,77],[108,-53],[7,62],[114,-23],[46,-53],[78,-1],[41,50],[78,-30],[69,21],[32,39]],[[2417,2515],[46,-50],[82,-14],[17,-58],[-13,-54],[78,-9],[31,-41],[-60,-78],[-21,-91],[141,-37],[143,-85],[-19,98],[9,48],[79,5]],[[2930,2149],[-34,-74],[15,-50],[-28,-60],[4,-72],[-31,-43],[28,-59],[69,-79],[-34,-107],[16,-97],[-11,-175],[16,-47],[116,-125]],[[635,3526],[-120,-50],[-13,61],[87,69],[46,-80]],[[1011,2747],[38,6],[-18,147],[0,120],[-119,12],[18,151],[-27,150],[-42,84],[-43,50]],[[930,3650],[83,-11],[108,-45],[51,26],[47,-32],[15,-93],[45,-41],[52,29],[72,-12],[21,-43],[-26,-181],[-50,-24],[-8,-61]],[[1791,3147],[67,-3],[98,78],[-1,70],[71,62],[23,41],[-4,54],[77,1],[95,-38],[90,-174],[32,-31]],[[2339,3207],[-97,-111],[-3,-97],[31,-97],[-12,-120],[58,-67],[8,-100],[85,-61],[8,-39]],[[2339,3207],[41,-23],[86,-90],[122,-86],[37,-9],[86,-80],[208,-376],[11,-115],[23,-70],[-20,-37],[30,-90],[-33,-82]],[[10895,2093],[-15,-82],[-44,-64],[24,-29],[-26,-61],[-2,-89],[38,-99],[-63,-60],[-14,-65],[31,-58],[-53,-97],[-152,-34],[-65,-37],[-23,-49],[18,-57],[-32,-32],[94,-121],[-63,-18],[-29,-43],[-95,-38],[-28,-61],[-70,-5],[-12,-67],[17,-78],[46,-70],[-87,-29],[-32,-38],[11,-89],[-63,-62],[-19,-83],[-39,-3],[-72,45],[-138,-58],[-35,26],[-113,-8],[-81,-40],[-24,-54],[-120,-56],[-62,68],[-76,-23],[-41,47],[-79,25],[-35,-12],[-48,42],[-60,-26],[28,99],[-117,15],[-67,-13],[-168,8],[-53,-31],[-153,-57],[16,-28],[-43,-92],[-16,-72],[-131,-23],[-70,-75],[-103,37],[-95,-54],[-21,48],[-55,-16],[-116,51],[-19,-15],[-132,-24],[-58,0],[-31,-50],[-171,-59],[-68,12],[-63,77],[-61,0],[-71,120],[-61,9],[-26,47],[-51,18],[-32,81],[-64,3],[-3,34],[-108,88],[15,105],[-64,6],[-32,87],[54,36],[16,63],[48,-17],[680,-72],[243,751],[1032,225],[550,697],[174,72],[163,-9],[115,-88],[47,-102],[-10,-55],[89,-14],[27,-61],[100,-90],[45,24],[58,68],[33,77],[13,101],[-31,2],[-18,158],[12,44],[49,46],[49,-5],[33,-37],[50,-181],[37,-55],[59,-27],[67,7],[-50,62],[11,100],[-34,123],[-53,74]]],"transform":{"scale":[0.0015358633250917805,0.0015563033684210528],"translate":[98.93991980000001,0.858002]},"objects":{"admin_level_4":{"type":"GeometryCollection","geometries":[{"arcs":[[0]],"type":"Polygon","properties":{"name":"Pulau Papan","source":"bing","name:en":"Papan Island","natural":"coastline","boundary":"administrative","admin_level":"4"},"id":26555517},{"arcs":[[1]],"type":"Polygon","properties":{"name":"Pulau Burung","source":"bing","name:en":"Burung Island","natural":"coastline","boundary":"administrative","admin_level":"4"},"id":26555690},{"arcs":[[2]],"type":"Polygon","properties":{"name":"Pulau Kuraman","source":"bing","name:en":"Kuraman Island","natural":"coastline","boundary":"administrative","wikipedia":"en:Kuraman Island","admin_level":"4"},"id":26555757},{"arcs":[[3]],"type":"Polygon","properties":{"name":"Pulau Rusukan Besar","source":"bing","natural":"coastline","boundary":"administrative","admin_level":"4"},"id":26555774},{"arcs":[[4]],"type":"Polygon","properties":{"name":"Pulau Rusukan Kecil","source":"bing","natural":"coastline","boundary":"administrative","admin_level":"4"},"id":26555785},{"arcs":[[5]],"type":"Polygon","properties":{"name":"Kuala Lumpur","place":"state","source":"maplibrary.org","name:ja":"クアラルンプール","name:zh":"吉隆坡","boundary":"administrative","wikidata":"Q1865","ISO3166-2":"MY-14","wikipedia":"ms:Kuala Lumpur","short_name":"KL","admin_level":"4","border_type":"city","is_in:state":"Selangor","wikipedia:en":"Kuala_Lumpur","boundary_type":"state","is_in:country":"Malaysia"},"id":2939672},{"arcs":[[6,7,8]],"type":"Polygon","properties":{"name":"Melaka","place":"state","name:de":"Malakka","name:en":"Malacca","name:ja":"ムラカ","name:ms":"Negeri Melaka","name:zh":"马六甲州","boundary":"administrative","wikidata":"Q185221","ISO3166-2":"MY-04","wikipedia":"ms:Melaka","admin_level":"4","boundary_type":"state"},"id":2939673},{"arcs":[[9,-9,10,11,12]],"type":"Polygon","properties":{"name":"Negeri Sembilan","place":"state","name:ja":"ヌグリ・スンビラン","name:ms":"Negeri Sembilan","name:zh":"森美兰州","boundary":"administrative","wikidata":"Q213893","ISO3166-2":"MY-05","wikipedia":"ms:Negeri Sembilan","admin_level":"4","alt_name:en":"Negri Sembilan","boundary_type":"state"},"id":2939674},{"arcs":[[13]],"type":"Polygon","properties":{"name":"Putrajaya","place":"state","name:ja":"プトラジャヤ","name:zh":"布城","alt_name":"Wilayah Persekutuan Putrajaya","boundary":"administrative","ISO3166-2":"MY-16","wikipedia":"en:Putrajaya","admin_level":"4"},"id":4443881},{"arcs":[[14,15,16,-12],[-6],[-14]],"type":"Polygon","properties":{"name":"Selangor","place":"state","source":"maplibrary.org","name:ja":"セランゴール","name:zh":"雪兰莪州","boundary":"administrative","wikidata":"Q189710","ISO3166-2":"MY-10","wikipedia":"ms:Selangor","admin_level":"4","boundary_type":"state"},"id":2932285},{"arcs":[[17,18,19]],"type":"Polygon","properties":{"name":"Labuan","name:ja":"ラブアン","name:zh":"纳闽","boundary":"administrative","ISO3166-2":"MY-15","wikipedia":"en:Labuan","admin_level":"4"},"id":4521286},{"arcs":[[20,-20,21]],"type":"Polygon","properties":{"name":"Sabah","name:ja":"サバ","name:zh":"沙巴州","boundary":"administrative","timezone":"Asia/Kuching","wikidata":"Q179029","ISO3166-2":"MY-12","admin_level":"4"},"id":3879783},{"arcs":[[22]],"type":"Polygon","properties":{"name":"Pulau Daat","place":"island","source":"bing","name:en":"Daat Island","natural":"coastline","boundary":"administrative","admin_level":"4"},"id":319853221},{"arcs":[[23,24]],"type":"Polygon","properties":{"name":"Perlis","place":"state","name:en":"Perlis","name:ja":"プルリス","name:ms":"Negeri Perlis","name:th":"รัฐปะลิส","name:zh":"玻璃市州","alt_name":"Perlis Indera Kayangan","boundary":"administrative","old_name":"Palit;ปะลิส","ISO3166-2":"MY-09","wikipedia":"en:Perlis","admin_level":"4","old_name:th":"ไทรบุร"},"id":4444918},{"arcs":[[-7,-10,25,26]],"type":"Polygon","properties":{"name":"Johor","place":"state","source":"maplibrary.org","name:ja":"ジョホール","name:zh":"柔佛州","boundary":"administrative","wikidata":"Q183032","ISO3166-2":"MY-01","wikipedia":"en:Johor","admin_level":"4","boundary_type":"state"},"id":2939653},{"arcs":[[27,-16,28,29,30,31]],"type":"Polygon","properties":{"name":"Perak / ڨيرق","place":"state","name:en":"Perak","name:ja":"ペラ","name:ms":"Perak Darul Ridzuan","name:zh":"霹雳州","alt_name":"ڨيرق دار الرّضوان","boundary":"administrative","ISO3166-2":"MY-08","wikipedia":"en:Perak","admin_level":"4"},"id":4445076},{"arcs":[[-13,-17,-28,32,33,34,-26]],"type":"Polygon","properties":{"name":"Pahang","place":"state","name:en":"Pahang","name:ja":"パハン","name:ms":"Negeri Pahang","name:th":"รัฐปะหัง","name:zh":"彭亨州","boundary":"administrative","ISO3166-2":"MY-06","wikipedia":"en:Pahang","admin_level":"4"},"id":4444595},{"arcs":[[[35]],[[-30,36,-25,37]]],"type":"MultiPolygon","properties":{"name":"Kedah","place":"state","name:ar":"قدح","name:en":"Kedah","name:ja":"ケダ","name:ms":"Negeri Kedah","name:ru":"Кедах","name:th":"รัฐเกดะห์","name:zh":"吉打州","alt_name":"Darul Aman;Kedah Darul Aman;قدح در الامن","boundary":"administrative","old_name":"Kadaram","ISO3166-2":"MY-02","wikipedia":"en:Kedah","admin_level":"4","old_name:th":"ไทรบุร"},"id":4444908},{"arcs":[[-33,-32,38,39]],"type":"Polygon","properties":{"name":"Kelantan","place":"state","name:ar":"کلنتن دار النعيم","name:en":"Kelantan","name:ja":"クランタン","name:ms":"Negeri Kelantan","name:ru":"Келантан","name:th":"รัฐกลันตัน","name:zh":"吉兰丹州","alt_name":"Negeri Kelantan Darul Naim","boundary":"administrative","ISO3166-2":"MY-03","wikipedia":"en:Kelantan","admin_level":"4"},"id":4443571},{"arcs":[[-34,-40,40]],"type":"Polygon","properties":{"name":"Terengganu / ترڠڬانو","place":"state","name:en":"Terengganu","name:ja":"トレンガヌ","name:ms":"Negeri Kelantan","name:th":"รัฐตรังกานู","name:zh":"登嘉楼州","alt_name":"Terengganu Darul Iman;Negeri Terengganu Darul Iman;ترڠڬانو دار الإيما","boundary":"administrative","old_name":"Trengganu;Tringganu","ISO3166-2":"MY-11","wikipedia":"en:Terengganu","admin_level":"4","alt_name:zh":"登嘉楼;丁加奴"},"id":4444411},{"arcs":[[-18,-21,41]],"type":"Polygon","properties":{"name":"Sarawak","name:en":"Sarawak","name:ja":"サラワク","name:ru":"Саравак","name:zh":"砂拉越州","boundary":"administrative","timezone":"Asia/Kuching","wikidata":"Q170462","ISO3166-2":"MY-13","wikipedia":"en:Sarawak","admin_level":"4"},"id":3879784}]}}}