{"type":"Topology","arcs":[[[11319,80],[-53,-23],[-133,87],[-74,16],[-58,-31],[-58,-6],[-49,-56],[-22,-67],[-42,35],[-70,10],[0,55],[-28,15],[-90,0],[-38,-17],[-105,79],[-28,160],[-2,75],[-43,-31],[-41,-63],[-115,-23]],[[10270,295],[-8,55],[29,133],[39,77],[158,160],[120,172],[12,47],[-37,68],[-227,-72],[-40,39],[12,39],[-30,94],[-2,171],[-66,36],[25,172],[-29,83],[72,30],[33,50],[-77,124],[-18,101],[71,89],[-36,49],[40,48],[-15,53],[2,80],[28,37],[19,91],[35,51],[-43,59],[2,62],[32,52],[-43,78],[-10,60],[20,83]],[[10338,2766],[82,4],[62,-61],[38,-60],[8,-60],[72,-35],[102,-8],[56,52],[59,-13],[18,-27],[66,1],[20,30],[76,25],[34,-65],[62,40],[73,-2],[21,36],[39,-6],[16,-62],[25,-13],[88,33],[34,-42]],[[11389,2533],[-36,-62],[-36,-96],[-51,-73],[-44,21],[-34,-12],[-37,-137],[-59,-51],[-34,-162],[-23,-145],[93,-172],[77,-25],[75,4],[102,-33],[88,-65],[6,-45],[-48,-30],[-7,-58],[-67,-27],[-96,-61],[-78,-82],[-17,-69],[-49,-50],[29,-58],[19,-95],[169,-121],[22,-120],[-30,-142],[20,-103],[-24,-58],[9,-128],[16,-52],[-21,-73],[-4,-73]],[[10270,295],[-61,-38],[-7,-36],[-105,-68],[-93,20],[-25,-44],[-76,51],[-82,16],[-19,34],[-82,27],[-42,72],[-68,8],[-60,43],[-91,30],[-132,61],[-95,-18],[-38,-37],[-32,36],[-68,4]],[[9094,456],[15,44],[57,77],[-8,58],[-63,78],[-3,48],[28,93],[-40,92],[46,57],[77,-62],[54,32],[34,60],[67,41],[59,7],[9,77],[-14,63],[-26,19],[13,68],[-45,10],[30,58],[26,-7],[37,70],[-65,38],[-2,45],[-113,39],[-56,-29],[-36,28],[50,70],[-28,54],[13,132],[54,101],[42,23],[69,86],[25,8],[31,75],[88,73],[86,6],[68,98],[37,137],[6,94],[-40,19],[21,73],[-10,127],[-50,45]],[[9637,2781],[4,78],[28,85],[59,108],[39,-19],[9,-48],[75,11],[12,37],[81,8],[43,-15],[2,-91],[131,-55],[52,15],[24,-44],[54,-18],[14,-44],[74,-23]],[[9094,456],[-120,78],[-63,20],[-114,-39],[-9,-56],[-61,-15],[-63,-56],[-20,64],[-47,-9],[-24,35],[-48,11],[-68,75],[16,211],[-20,42],[-61,40],[-56,17],[-28,35],[-51,-42],[-69,-19],[-72,-71],[-65,-27],[-66,17],[-55,-57],[-54,-29]],[[7876,681],[-20,76],[68,198],[28,15],[19,96],[-15,63],[114,185],[53,103],[-3,92],[-28,76],[-30,37],[-39,4],[-18,60],[77,81]],[[8082,1767],[90,-23],[39,-30],[124,17],[15,-27],[71,12],[-4,75],[31,44],[82,-20],[25,78],[37,51],[-24,46],[32,33],[7,91],[62,44],[110,127],[-4,70],[45,55],[57,5],[22,48],[0,64],[-26,35],[60,65],[34,55]],[[8967,2682],[89,72],[-66,139],[16,21],[-10,94],[50,5],[63,82],[55,5],[32,-49],[-21,-60],[23,-72],[10,-96],[96,-7],[43,-50],[78,-10],[59,-63],[46,0],[39,69],[68,19]],[[11389,2533],[55,-14],[46,52],[46,111],[42,39],[23,52],[41,-12],[11,-56],[96,11],[43,-16],[43,-43],[64,35],[87,-21],[19,-47],[53,27],[98,-76],[-24,-47],[18,-34],[-28,-75],[-30,-11],[-21,-131],[-37,-35],[-9,-59],[-42,-35],[-37,-87],[-25,-106],[52,-81],[-42,-33],[-13,-74],[37,-58],[-52,-87],[-19,-87],[-18,-160],[-24,-21],[70,-163],[67,-13],[15,-43],[38,-29],[3,-64],[39,-51],[-14,-39],[52,-51],[-1,-75],[27,-140],[-41,-135],[6,-42],[-37,-37],[-22,-62],[-39,-61],[7,-55],[-23,-29],[23,-59],[-20,-67],[-90,-69],[-1,-40],[-57,11],[0,37],[-90,44],[-62,95],[-80,-58],[-57,34],[-31,-10],[-23,-76],[-43,-3],[-31,33],[-108,-57]],[[1542,6404],[-80,-69],[-25,-95],[-35,-55],[48,-34],[15,-114],[33,-25],[9,-50],[-18,-71],[-104,-27],[-18,-34],[-56,25],[-191,-92],[-20,11],[-50,-70],[38,-60],[-23,-105],[-36,-37],[84,-27],[106,-88],[23,-71],[-117,-102],[-56,1],[-26,-34],[28,-53],[-61,-30],[23,-68],[-65,-46],[-4,-66],[-42,-5],[-122,-40],[-44,-40],[2,-43],[-60,-23],[53,-58],[-41,-102],[-67,-48],[-17,-84],[37,-45],[-10,-95],[35,-77],[37,-45],[-13,-25],[31,-82],[-5,-55]],[[738,4051],[-74,-46],[28,-194],[-62,57],[-30,62],[-68,31],[-57,-19],[-77,65],[-14,60],[-61,18],[-37,80],[-52,-4],[-69,49],[-76,76],[-64,-7],[-16,24],[-9,136],[56,101],[45,54],[3,97],[25,74],[61,55],[74,-33],[53,50],[-19,31],[5,72],[54,-2],[-12,46],[22,93],[20,33],[-58,75],[-5,76],[-44,27],[-1,68],[85,13],[-7,62],[65,35],[100,150],[12,94],[-47,38],[-29,91],[77,121],[70,10],[43,-12],[21,48],[69,52],[28,73],[3,49],[41,59],[45,13],[64,-14],[57,57],[38,15],[101,157],[59,22],[49,45],[-9,55],[39,91],[63,-57],[49,16],[103,8],[57,-122],[43,-66],[-26,-55]],[[4609,4149],[-45,-7],[-53,63],[-89,19],[-110,64],[-167,8],[-102,-41],[-35,61],[-71,34],[8,74],[-20,14],[-32,83],[-40,-1],[-91,46]],[[3762,4566],[-64,38],[-76,7],[-38,-43],[-31,-1],[-69,49],[28,134],[-91,36],[-46,-15],[-53,28],[-73,-40],[-81,-66],[-19,10],[-75,-93],[-3,-38],[-64,-38],[-93,104],[-78,-79],[-57,-14],[-47,12],[-60,-21],[-99,79],[-45,-14],[-52,14],[-48,54],[-83,-5],[-25,-22],[-73,35],[3,62],[-40,32]],[[2210,4771],[18,37],[-45,43],[-31,-5],[-25,74],[23,79],[-23,67],[36,61],[27,6],[83,81],[84,-5],[13,-67],[35,-11],[49,24],[67,-2],[3,64],[25,42],[34,-4],[29,118],[-48,105],[25,26],[7,80],[-35,47],[-57,1],[-55,64],[-2,64],[81,207],[32,-4],[30,89],[-12,106],[-105,-3],[-42,70],[-253,-47],[-36,-58],[-50,3],[11,119],[-7,62],[-86,39],[-33,-18],[-167,64]],[[1810,6389],[23,43],[-6,93],[-38,48],[95,3],[112,94],[-9,47],[29,49],[20,74],[-40,31],[50,103],[-42,26],[10,39],[88,-26],[33,-41],[76,-16],[37,98],[63,-31],[41,58],[91,-37],[82,-60],[61,0],[50,-24],[62,4],[23,-27],[83,-24],[36,10],[40,-55],[102,31],[43,36],[32,-20],[31,-78],[-15,-79],[-27,-31],[49,-31],[13,-43],[66,-12],[-10,-104],[11,-33],[-28,-61],[176,-30],[42,-34],[94,-41],[68,-17],[13,-26],[66,-26],[34,-48],[55,41],[43,-28],[6,-38],[54,-76],[58,-28],[-30,-43],[28,-24],[85,39],[61,-74],[-64,-37],[-3,-54],[77,17],[30,-69],[51,-21],[29,-39],[75,-16],[30,23],[58,0],[43,-66],[44,13],[78,-36],[47,-67],[120,25],[54,-32],[46,-2],[22,-47],[69,-13],[-35,-44],[41,-79],[51,17],[43,-24],[-3,-50],[44,-66],[61,-10],[36,-123],[9,-88],[36,-45],[70,-31],[5,-65],[33,-27],[46,1],[8,-39],[52,0],[31,-37],[37,29]],[[5371,4888],[35,-90],[-45,-7],[-52,-46],[25,-53],[-29,-45],[2,-87],[-170,-188],[-28,-57],[2,-108],[-107,-37],[-35,5],[-39,-51],[-70,3],[-62,-20],[-66,33],[-35,-18],[-88,27]],[[2210,4771],[-105,-52],[-37,-43],[-43,-102],[10,-42],[65,-70],[31,-53],[67,-73],[38,-102],[35,-32],[-3,-41],[-47,-11],[-46,56],[10,39],[-47,63],[-39,20],[0,72],[-75,36],[-59,-37],[-42,-5],[-66,62],[-61,-41],[-86,10],[-51,22],[-82,77],[-97,23],[-46,-46],[2,-55],[55,-80],[102,-40],[40,-34],[120,0],[-7,-71],[68,-116],[21,-125],[-63,-102],[-85,-79],[-53,-76],[-96,-76],[-35,-61],[3,-49]],[[1506,3537],[-51,58],[-191,66],[5,55],[-49,22],[-31,-23],[-59,41],[-71,77],[-80,5],[-55,62],[-15,65],[-80,-5],[-51,38],[16,33],[-56,20]],[[1542,6404],[62,-65],[48,-9],[158,59]],[[4531,3299],[-26,-40],[-69,13],[4,-124],[30,-37],[-3,-71],[-70,9],[-59,-101],[18,-53],[-3,-54],[63,-60],[-2,-35],[-43,-18],[-66,8],[-45,-46],[-31,15],[-86,-10],[-112,-165],[52,-10],[11,-53],[-95,3],[-56,-31],[12,-62]],[[3955,2377],[-133,-36],[-21,7],[-95,-36],[-37,9],[-65,-25],[-36,6],[-69,41],[-52,68],[-96,52],[-141,121],[-82,41],[-49,-1],[-80,98]],[[2999,2722],[3,52],[76,-6],[19,23],[89,-16],[-11,70],[13,55],[-42,34],[-116,59],[-101,34],[-4,64],[-28,45],[-108,81],[-26,40],[-49,13],[-52,57],[-133,59],[-2,65],[42,80],[46,-2],[189,-90],[66,44],[4,59],[-35,59],[97,118],[4,30],[-43,122],[70,95],[65,-37],[68,9],[51,-24],[32,35],[7,72],[54,29],[22,37],[44,-14],[19,39],[-8,60],[17,40],[62,-1],[42,20],[17,46],[101,75],[81,24],[23,120],[59,67],[39,3]],[[4609,4149],[9,-81],[-81,-115],[-58,-25],[-115,17],[-37,-33],[8,-51],[35,-18],[-18,-52],[-61,41],[-28,-65],[-41,-40],[-1,-89],[42,-33],[8,-57],[35,-6],[19,-64],[36,-1],[35,-46],[98,-37],[41,-58],[-4,-37]],[[2999,2722],[-148,11],[-102,-130],[-99,75],[-43,12],[-159,145],[-82,10],[-143,96],[-104,57],[9,62],[-51,39],[-5,35],[-44,22],[-64,6],[-10,-63],[-68,-11],[-2,109],[-132,158],[3,62],[-35,62],[-193,41],[-21,17]],[[5783,1905],[-105,-44],[-11,-78],[-38,-15],[-321,170],[-336,18],[19,-39],[-26,-37],[34,-36],[-29,-68],[-75,-74],[-61,2],[-47,55],[10,31],[-91,69],[-35,54],[-40,5],[-188,-15],[-120,33],[-38,58],[-144,1],[-46,-10],[-98,11],[19,41],[-16,42],[28,56],[-26,37],[-5,72],[-31,31],[-11,102]],[[4531,3299],[135,25],[133,-142],[96,2],[27,13],[95,-118],[88,2],[113,-22],[32,-53],[-23,-71],[67,-58]],[[5294,2877],[-30,-58],[-92,-26],[-61,30],[-30,-47],[36,-54],[110,21],[82,-9],[29,-53],[62,49],[131,-31],[63,-63],[55,-9],[57,35],[89,-18],[120,-46],[49,-4],[36,37],[126,-42],[17,12],[176,-25],[13,-81],[37,-74],[41,1],[38,52],[59,-35],[7,-30]],[[6514,2409],[12,-63],[-72,-43],[-55,38],[-73,-56],[-133,-53],[-107,-94],[-24,-51],[-109,-1],[-12,-26],[-173,5],[34,-126],[-19,-34]],[[8082,1767],[-45,56],[-65,3],[-62,42],[-82,38],[-57,6],[-44,89],[24,40],[-26,210],[-66,54],[-69,-19],[-63,65],[-90,-25],[-74,23],[-60,-41],[-64,26],[-43,-51],[-73,41],[-43,-34],[-7,63],[-58,45],[-85,-14],[-47,19],[8,72],[-55,6],[41,74]],[[6877,2555],[28,-27],[80,-13],[56,9],[-15,89],[-42,54],[-6,73],[19,47],[37,13],[27,49],[34,11],[3,48],[46,149],[38,7],[34,-35],[36,4],[19,41],[37,-4],[29,113],[-14,48],[56,62],[40,16],[34,107],[21,27],[65,11]],[[7539,3454],[111,-40],[31,30],[59,-45],[18,-36],[57,-9],[71,28],[53,-47],[53,56],[2,26],[69,20],[96,-14],[54,-34],[47,-1],[25,-90],[81,81],[6,77],[26,60],[41,4],[30,-82],[2,-73],[26,-101],[40,-48],[108,-64],[33,-43],[-2,-40],[40,-22],[4,-97],[117,-115],[-40,-75],[73,-57],[97,-21]],[[6222,4399],[-63,13],[-39,-49],[-41,29],[-52,-3],[-37,-79],[-90,-72],[-104,50],[-10,-80],[-62,-18],[-5,-47],[-40,-39],[-30,7],[-83,-58],[92,-67],[32,-71],[-88,-38],[-16,-22],[39,-63],[-111,-148],[-31,-61],[22,-33],[-62,-26],[54,-92],[50,-42],[-12,-57],[84,-44],[-34,-72],[-64,-32],[4,-77],[-37,4],[-40,-34],[28,-48],[-27,-32],[-34,-104],[-46,-18],[-75,1]],[[5371,4888],[-1,48],[50,24],[33,46],[85,-6],[50,25],[-12,31],[30,50],[133,43],[72,-16],[17,22],[54,-28],[25,-43],[41,21],[38,-27],[34,14],[46,-34],[-13,-46],[42,-18],[78,13],[8,-54],[-46,-23],[9,-120],[39,-10],[-20,-76],[4,-59],[45,12],[44,-30],[-12,-105],[-23,-56],[1,-87]],[[6877,2555],[-8,41],[-104,52],[-48,-39],[-12,-43],[-57,-29],[-69,16],[-49,-20],[-4,-38],[46,-31],[-58,-55]],[[6222,4399],[71,-11],[81,-44],[95,-2],[64,-67],[4,-89],[83,-57],[97,16],[21,-19],[80,3],[63,-91],[55,-22],[-13,-61],[43,-27],[82,-17],[115,-69],[95,42],[42,-26],[53,20],[5,33],[106,124],[30,-17],[57,22],[60,-72],[61,-28],[-36,-52],[25,-48],[-64,-142],[-44,-4],[-27,-53],[22,-19],[19,-88],[-28,-80]],[[7876,681],[-41,18],[-164,33],[-30,75],[24,89],[-140,9],[-63,-38],[-42,45],[-99,147],[-80,13],[-70,34],[-12,36],[-52,23],[-18,-25],[-51,18],[-24,-26],[-170,75],[0,33],[41,45],[11,75],[6,176],[-88,172],[-86,21],[-143,14],[-43,26],[-74,-4],[-145,28],[-60,117],[-116,37],[-105,81],[-15,-53],[-42,-24],[-24,-57],[-54,-15],[-28,19],[-96,7]]],"transform":{"scale":[0.0006698126357354416,0.0005786275667278636],"translate":[80.05887549999998,26.347717199999998]},"objects":{"admin_level_5":{"type":"GeometryCollection","geometries":[{"arcs":[[0,1,2,3]],"type":"Polygon","properties":{"name":"कोशी अञ्चल","name:en":"Koshi","name:ja":"コシ","name:ne":"कोशी अञ्चल","name:ru":"Коси","boundary":"administrative","int_name":"Koshi","wikidata":"Q9170","ISO3166-2":"NP-KO","wikipedia":"en:Koshi Zone","admin_level":"5"},"id":4583211},{"arcs":[[4,5,6,-2]],"type":"Polygon","properties":{"name":"सगरमाथा अञ्चल","name:de":"Sagarmatha","name:en":"Sagarmatha","name:ja":"サガルマタ","name:ne":"सगरमाथा अञ्चल","name:ru":"Сагарматха","boundary":"administrative","int_name":"Sagarmatha","wikidata":"Q9195","ISO3166-2":"NP-SA","wikipedia":"en:Sagarmatha Zone","admin_level":"5"},"id":4583222},{"arcs":[[7,8,9,10,-6]],"type":"Polygon","properties":{"name":"जनकपुर अञ्चल","name:de":"Janakpur","name:en":"Janakpur","name:ja":"ジャナクプル","name:ne":"जनकपुर अञ्चल","name:ru":"Джанакпур","boundary":"administrative","int_name":"Janakpur","wikidata":"Q9152","ISO3166-2":"NP-JA","wikipedia":"en:Janakpur Zone","admin_level":"5"},"id":4583213},{"arcs":[[-4,11]],"type":"Polygon","properties":{"name":"मेची अञ्चल","name:en":"Mechi","name:ja":"メチ","name:ne":"मेची अञ्चल","name:ru":"Мечи","boundary":"administrative","int_name":"Mechi","wikidata":"Q9180","ISO3166-2":"NP-ME","wikipedia":"en:Mechi Zone","admin_level":"5"},"id":4583219},{"arcs":[[12,13]],"type":"Polygon","properties":{"name":"महाकाली अञ्चल","name:en":"Mahakali","name:ja":"マハカリ","name:ne":"महाकाली अञ्चल","name:ru":"Махакали","boundary":"administrative","int_name":"Mahakali","wikidata":"Q9178","ISO3166-2":"NP-MA","wikipedia":"en:Mahakali Zone","admin_level":"5"},"id":4583218},{"arcs":[[14,15,16,17,18]],"type":"Polygon","properties":{"name":"कर्णाली अञ्चल","name:de":"Karnali","name:en":"Karnali","name:ja":"カルナリ","name:ne":"कर्णाली अञ्चल","name:ru":"Карнали","boundary":"administrative","int_name":"Karnali","wikidata":"Q9164","ISO3166-2":"NP-KA","wikipedia":"en:Karnali Zone","admin_level":"5"},"id":4583210},{"arcs":[[19,20,-13,21,-17]],"type":"Polygon","properties":{"name":"सेती अञ्चल (Seti)","name:de":"Seti","name:en":"Seti","name:ja":"セティ","name:ne":"सेती अञ्चल","name:ru":"Сетхи","boundary":"administrative","int_name":"Seti","wikidata":"Q9196","ISO3166-2":"NP-SE","wikipedia":"en:Seti Zone","admin_level":"5"},"id":4583223},{"arcs":[[22,23,24,-15,25]],"type":"Polygon","properties":{"name":"राप्ती अञ्चल","name:en":"Rapti","name:ja":"ラプティ","name:ne":"राप्ती अञ्चल","name:ru":"Рапти","boundary":"administrative","int_name":"Rapti","wikidata":"Q9185","ISO3166-2":"NP-RA","wikipedia":"en:Rapti Zone","admin_level":"5"},"id":4583220},{"arcs":[[-25,26,-20,-16]],"type":"Polygon","properties":{"name":"भेरी","name:en":"Bheri","name:ja":"ベリ","name:ne":"भेरी","name:ru":"Бхери","boundary":"administrative","int_name":"Bheri","wikidata":"Q9060","ISO3166-2":"NP-BH","wikipedia":"en:Bheri Zone","admin_level":"5"},"id":4583217},{"arcs":[[27,-23,28,29,30]],"type":"Polygon","properties":{"name":"लुम्बिनी अञ्चल","name:en":"Lumbini","name:ja":"ルンビニ","name:ne":"लुम्बिनी अञ्चल","name:ru":"Лумбини","boundary":"administrative","int_name":"Lumbini","wikidata":"Q9172","ISO3166-2":"NP-LU","wikipedia":"en:Lumbini Zone","admin_level":"5"},"id":4583221},{"arcs":[[-10,31,32,33]],"type":"Polygon","properties":{"name":"बागमती अञ्चल","name:de":"Bagmati","name:en":"Bagmati","name:ja":"バグマティ","name:ne":"बागमती अञ्चल","name:ru":"Багмати","name:zh":"巴格马蒂专区","boundary":"administrative","int_name":"Bagmati","wikidata":"Q9046","ISO3166-2":"NP-BA","wikipedia":"en:Bagmati Zone","admin_level":"5"},"id":4583216},{"arcs":[[34,-29,-26,-19,35]],"type":"Polygon","properties":{"name":"धौलागिरी अञ्चल (Dhawalagiri)","name:en":"Dhawalagiri","name:ja":"ダウラギリ","name:ne":"धौलागिरी अञ्चल","name:ru":"Дхаулагири","boundary":"administrative","int_name":"Dhawalagiri","wikidata":"Q9088","ISO3166-2":"NP-DH","wikipedia":"en:Dhawalagiri Zone","admin_level":"5"},"id":4583214},{"arcs":[[-33,36,-30,-35,37]],"type":"Polygon","properties":{"name":"गण्डकी अञ्चल","name:de":"Gandaki","name:en":"Gandaki","name:ja":"ガンダキ","name:ne":"गण्डकी अञ्चल","name:ru":"Гандаки","boundary":"administrative","int_name":"Gandaki","wikidata":"Q9133","ISO3166-2":"NP-GA","wikipedia":"en:Gandaki Zone","admin_level":"5"},"id":4583212},{"arcs":[[38,-31,-37,-32,-9]],"type":"Polygon","properties":{"name":"नारायणी अञ्चल","name:de":"Narayani","name:en":"Narayani","name:ja":"ナラヤニ","name:ne":"नारायणी अञ्चल","name:ru":"Нараяни","boundary":"administrative","int_name":"Narayani","wikidata":"Q9183","ISO3166-2":"NP-NA","wikipedia":"en:Narayani Zone","admin_level":"5"},"id":4583215}]}}}