{"type":"Topology","arcs":[[[3302,2316],[24,11]],[[3326,2327],[20,-25],[-15,-32],[-29,46]],[[2093,3619],[-79,-29],[-48,-57],[-8,-39],[-57,-7],[-49,-73],[-77,1],[0,65],[-83,117],[-3,-48],[-60,-82]],[[1629,3467],[-102,185],[-29,23],[-38,123],[8,35],[-66,78],[-29,94],[1,32],[-40,28],[-30,48],[-34,90]],[[1270,4203],[25,11],[12,68],[100,54],[52,7],[50,103],[11,53],[87,50],[16,54],[85,2],[39,-15],[84,-103],[28,-65],[39,-22]],[[1898,4400],[72,-161],[26,-36],[62,-42],[90,-33],[30,-54],[-55,-2],[-44,-61],[-1,-57],[-53,-55],[70,-55],[41,-85],[3,-56],[-51,-15],[5,-69]],[[949,5074],[-37,31],[-45,-7],[-92,-92]],[[775,5006],[3,24],[-117,112],[-26,57],[-90,63],[-213,105]],[[332,5367],[142,190],[93,27],[64,61],[12,76],[31,41],[34,-69],[54,-43],[-9,-44],[50,4],[15,-49],[48,11],[38,-25]],[[904,5547],[73,-14],[5,-101],[-95,-76],[24,-65],[51,-60],[73,-12],[10,-33],[-90,-56],[-6,-56]],[[2529,4493],[-49,-6],[-20,-59],[7,-85],[-54,-62],[-23,98],[-26,66],[-40,-6],[-23,-57],[-36,27],[-73,-10],[-64,7],[-40,-24],[-63,7],[-40,51]],[[1985,4440],[74,20],[30,31],[3,70],[-53,53],[-103,18],[-70,-19],[-27,108],[-45,104],[5,34],[-40,32],[-15,128],[-33,18],[-22,65]],[[1689,5102],[17,31],[-18,39],[7,64],[63,23],[33,-29],[77,-9],[-6,43],[57,88],[48,11],[18,35],[-42,70],[-59,14],[-62,51],[-26,-28],[-64,37],[-5,55],[-40,17],[-5,61],[18,36],[-15,74],[34,13]],[[1719,5798],[84,-25],[27,-53],[109,-5],[162,-69],[67,-114],[94,-8],[64,32],[45,-61],[45,-36],[45,-5],[45,35],[48,-17],[55,16],[47,-16],[69,60],[38,-118],[-29,-36],[20,-65],[-1,-131],[-88,-38],[-70,32],[-98,-6],[20,-37],[-1,-83],[-62,-56],[-34,-90],[58,-69],[-5,-73],[64,-107],[51,18],[7,-62],[-50,-18],[18,-69],[-34,-31]],[[4191,1653],[-50,-12],[-100,17],[-27,-49]],[[4014,1609],[-9,22],[-68,33],[-46,-24],[-82,-19],[-34,13],[-63,-62],[-38,30],[-3,39],[28,56],[-27,46],[27,86],[-47,80],[-21,72],[-64,129],[-27,109],[19,42],[39,16],[73,-33],[43,-40],[127,5]],[[3841,2209],[51,-13],[63,26],[84,-16],[74,-52],[102,-28],[9,-24],[81,-21],[46,-35],[37,-66],[-12,-122],[-75,-65],[-124,-91],[14,-49]],[[3098,2138],[-57,50],[16,48],[112,7]],[[3169,2243],[74,-49],[101,26],[90,-64],[-32,-42],[-74,-1],[-157,35],[-73,-10]],[[401,6394],[-67,-68],[-37,20],[-120,6],[-43,39]],[[134,6391],[28,46],[72,49],[37,70],[85,40],[34,56],[59,4],[34,46],[30,-33],[28,-82],[-3,-47],[24,-71],[-75,-47],[-49,16],[-37,-44]],[[5292,632],[-54,17],[26,42],[-49,16],[-63,-31],[-4,-107],[-37,-39],[-74,-26],[-24,-79],[-68,-69],[-16,-59],[-38,4],[-69,-64]],[[4822,237],[-110,62],[13,18],[-24,114],[-45,46]],[[4656,477],[89,86],[-39,32],[-27,70],[7,56],[65,7],[21,116],[138,2],[-16,68],[63,31],[-10,66],[26,52]],[[4973,1063],[54,-24],[69,19],[71,-39],[34,-111],[-21,-27],[73,-55],[28,-46],[79,-21],[3,-33],[-45,-37],[-26,-57]],[[3302,2316],[-21,6]],[[3281,2322],[3,7]],[[3284,2329],[42,40]],[[3326,2369],[13,-2]],[[3339,2367],[-13,-40]],[[1002,5997],[-65,-119],[36,-129],[-49,-39],[-12,-64],[32,-65],[-40,-34]],[[332,5367],[-81,37],[-55,44],[-84,49],[-27,45],[0,41],[39,46],[47,-26],[36,16],[18,78],[-21,56],[-74,80],[-67,54],[16,39],[41,24],[-6,46],[-114,128],[42,194],[92,73]],[[401,6394],[14,-58],[57,-7],[-58,-71],[31,-46],[110,82],[23,5],[73,-48],[38,-6],[28,-36],[75,26],[79,-43],[0,-43],[42,-91],[89,-61]],[[3476,4846],[-27,39],[-67,40],[-64,3],[-103,26],[-51,-92],[34,-76],[0,-66],[-27,-56],[-68,-43],[-59,-20],[-65,59],[-71,-30],[-15,-49],[-102,-18],[-34,-55],[29,-66],[-50,-13],[-25,24],[-85,-37],[-26,-71],[-53,-28]],[[2547,4317],[-16,36],[16,105],[-18,35]],[[1719,5798],[0,110],[-61,59],[31,36],[-16,46],[10,59],[47,40],[8,49],[33,20],[0,100],[17,64],[4,74],[-52,74],[16,65],[-68,78],[-8,122],[-16,90]],[[1664,6884],[558,177],[279,209],[216,256],[15,3],[81,275],[59,-25],[16,57],[-24,58],[25,46],[-8,47],[-68,39],[-47,84],[38,36],[47,7],[44,47],[63,-15],[92,-72],[44,24],[54,-79],[31,7],[35,-48],[71,-44],[8,-81],[49,-47],[-3,-62],[98,-33],[94,-76],[117,-18],[4,-25],[63,-92],[7,-29],[-36,-50],[97,-45],[89,-2],[17,-31],[-9,-52],[28,-51],[-49,-40],[9,-29],[53,-44],[88,-37],[133,21],[93,-27],[5,-17],[114,36],[32,30],[43,-11],[46,32],[21,49],[52,8],[56,-31],[62,-15],[54,-48],[87,2],[13,35],[132,32],[10,-27],[86,-35],[29,-54],[61,13],[28,-32],[54,10],[65,-84],[47,-30],[-308,-465],[89,-37],[84,35],[75,-55],[29,-50],[75,-72],[13,-42],[-24,-29],[-63,31],[-36,-31],[-41,85],[-67,15],[-18,-20],[-97,-9],[-36,15],[-90,-99],[-132,0],[-29,-26],[-48,7],[-125,-34],[-66,8],[-59,-15],[-35,-50],[-136,-76],[-52,-17],[-50,-44],[-115,-54],[-76,-50],[12,-30],[-45,-103],[0,-86],[-47,-63],[-45,-32],[-46,-119],[65,-141],[-41,-54],[-152,-48],[-90,-74],[-24,-45],[-18,-77],[39,-51],[-3,-51],[-45,1],[-78,-88]],[[4656,477],[-174,57],[-35,36],[-68,25],[-176,143],[-154,33],[-68,49],[-33,1],[-155,80],[-263,91],[-78,53],[-10,28],[-182,72],[-11,31],[-94,33],[-163,86],[-31,7]],[[2961,1302],[49,65],[13,42],[84,48]],[[3107,1457],[21,-17],[79,-2],[72,-18],[-5,-57],[47,-23],[5,-53],[50,-6],[47,44],[27,-28],[-22,-61],[102,74],[29,46],[58,-51],[115,37],[70,-17],[4,44],[53,-5],[30,54],[50,54],[9,49],[-22,25],[42,60],[46,3]],[[4191,1653],[1,-51],[73,-26],[81,25],[46,-44],[3,81],[72,-43],[18,-44],[50,-23],[-27,-57],[102,-26],[74,57],[54,-55],[52,22],[30,-22],[-28,-56],[24,-53],[53,-18]],[[4869,1320],[15,-72],[43,-35],[-9,-64],[55,-86]],[[3841,2209],[-65,55],[-61,119],[-22,59],[-95,116],[-36,13],[-40,93],[-38,31],[-7,42]],[[3477,2737],[85,10],[44,-22],[34,-49],[29,45],[50,18],[51,45],[-17,52],[-44,64],[-41,19],[-15,79],[75,57],[-14,27],[29,39]],[[3743,3121],[41,33],[145,21],[35,-30],[75,-24],[26,17],[61,-37],[143,55],[32,-17]],[[4301,3139],[-25,-40],[-11,-73],[-53,-50],[45,-66],[-2,-50],[32,-39],[83,-14],[-5,-68],[62,-37],[-1,-35],[-45,-51],[42,-31],[2,-46],[79,-28],[123,16],[64,-82],[115,-40],[24,-112],[38,-16],[57,71],[37,19],[40,-18],[47,9],[52,-29],[76,-18]],[[5177,2311],[-5,-80],[-64,-69],[-3,-22],[-82,-40],[-26,-68],[-29,-20],[-15,-75],[25,-44],[-34,-65],[-49,-61],[-8,-74],[-53,-43],[29,-39],[36,-4],[-13,-93],[24,-143],[-41,-51]],[[3107,1457],[47,24],[-14,93],[-72,58],[-4,43],[-98,-5],[-19,85],[20,136]],[[2967,1891],[55,16],[82,2],[-8,72],[2,157]],[[3169,2243],[-6,31],[47,34],[71,14]],[[3284,2329],[42,40]],[[3339,2367],[-27,104],[19,35],[-63,140],[-38,-2],[-37,52],[14,21],[79,8],[18,42]],[[3304,2767],[75,-63],[98,33]],[[2967,1891],[-130,51],[-48,46],[-61,32],[46,183],[-17,30],[-88,-33],[-56,17],[47,51],[-5,80],[42,24],[7,41]],[[2704,2413],[1,44],[50,40],[-35,61]],[[2720,2558],[77,5],[26,40],[105,89],[44,77],[1,71],[99,-26],[55,5],[46,33],[79,-22],[52,-63]],[[3148,3998],[-61,-136],[-65,-14],[-27,-34],[-76,-1],[-38,24],[-22,-37],[-39,-1],[-50,-46],[-95,-33],[-13,-71],[-105,-67],[-24,-55],[-39,6],[-78,40],[-41,-13],[-12,53],[-74,-41],[-74,-17],[-37,-31]],[[2178,3524],[-62,48],[-23,47]],[[1898,4400],[25,28],[62,12]],[[2547,4317],[33,-137],[97,-168],[84,8],[20,37],[80,-6],[35,35],[-14,56],[45,60],[96,51],[43,45],[1,43],[109,51],[33,-16],[10,-74],[-39,-32],[-33,-123],[42,-93],[-41,-56]],[[5895,2395],[-367,-151],[-358,102],[7,-35]],[[4301,3139],[19,62],[37,44],[-4,53],[194,-3],[89,20],[83,0],[64,85],[12,82],[33,33],[48,12],[28,62],[70,37],[79,79],[-8,49],[26,25]],[[5071,3779],[-5,-74],[1,-412],[43,30],[44,-42],[61,-19],[65,12],[128,55],[76,-19],[79,8],[92,-143],[193,-291],[151,-262],[-42,-61],[13,-21],[-75,-91],[0,-54]],[[5531,476],[-43,-3],[-146,75],[-3,32],[-47,52]],[[5895,2395],[12,-108],[-34,-108],[-35,-73],[-35,-17],[70,-56],[-30,-36],[1,-37],[40,-29],[32,-81],[-64,1],[-25,-43],[14,-27],[-111,-92],[-2,-72],[-61,-27],[-4,-66],[36,-65],[72,-57],[-39,-43],[-55,-99],[-49,25],[-115,107],[-44,-29],[-58,6],[-23,-46],[39,-72],[-49,-63],[-33,-11],[8,-48],[63,-26],[54,-1],[46,-30],[105,-16],[13,-24],[-38,-46],[72,-46],[52,-8],[63,11],[27,-17],[13,-54],[-28,-26],[41,-87],[-82,-32],[-23,-49],[-83,-84],[9,-22],[-86,-38],[-40,-58]],[[3197,3332],[-104,37],[-106,69],[-83,-17],[-59,-67],[-129,24],[-93,-6],[-65,-26],[-33,28],[-61,-59],[-74,4],[17,-53],[-36,-14],[-82,1]],[[2289,3253],[-42,35],[0,65],[-25,37],[-11,62],[-33,72]],[[3148,3998],[85,-74],[5,-49],[34,-90],[6,-75],[80,-52],[4,-42],[-25,-42],[68,-104],[-46,-13],[-73,-79],[-47,-11],[-42,-35]],[[2720,2558],[21,55],[-13,82],[-48,63],[13,36],[-136,58],[-42,0],[-18,42],[-71,73],[7,61],[-47,0],[-91,134],[-6,91]],[[3197,3332],[94,-64],[134,31],[40,-3],[13,-57],[56,-11],[3,86],[19,69],[27,29],[69,-50],[33,-90],[28,-8],[30,-143]],[[3476,4846],[39,-47],[88,-46],[17,-52],[-42,-23],[87,-97],[27,-66],[-8,-33],[81,-56],[13,-59],[44,-39],[40,-3],[26,-55],[53,-43],[25,-50],[-7,-52],[-48,-38],[-65,-82],[229,0],[89,-32],[58,3],[59,-30],[11,-76],[51,-38],[-14,-90],[321,-1],[108,10],[50,23],[16,30],[65,19],[61,69],[134,99],[33,-21],[-39,-53],[33,-53],[-40,-35],[0,-50]],[[1270,4203],[-55,88],[11,30],[-21,61],[-74,60],[17,30],[-40,70],[-67,68],[-85,61],[-75,96],[8,29],[-43,56],[-38,121],[-33,33]],[[949,5074],[19,-112],[-31,-27],[76,-27],[58,-34],[34,-85],[72,101],[38,15],[62,-19],[2,-46],[63,-3],[63,24],[-11,-58],[75,-58],[51,48],[56,-12],[60,42],[13,32],[48,21],[-34,34],[-19,72],[-34,35],[-35,82]],[[1575,5099],[114,3]],[[1002,5997],[64,-2],[75,35],[13,79],[22,28],[65,13]],[[1241,6150],[32,-15],[18,-52],[-48,-148],[8,-73],[79,-59],[-41,-93],[-38,-45],[-13,-55],[58,-111],[34,3],[86,-111],[95,-93],[36,-67],[26,-84],[2,-48]],[[2961,1302],[-96,124],[-45,12],[-63,99],[-167,91],[-29,26],[-26,84],[-76,52],[11,28],[-58,64],[-24,104],[-54,4],[12,45],[54,-14],[28,89],[3,97],[-25,45]],[[2406,2252],[42,58],[68,49],[35,42],[64,-31],[63,17],[26,26]],[[1241,6150],[21,17],[45,266],[37,27],[35,63],[13,106],[30,74],[36,-3],[9,-49],[38,12],[-10,58],[106,127],[63,36]],[[5531,476],[82,-39],[0,-55],[-94,-73],[-61,6],[-14,-26],[12,-72],[23,-36],[-31,-75],[-71,-67],[-87,-25],[-72,4],[-36,-18],[-142,84],[-157,128],[-61,25]],[[2406,2252],[-116,131],[-19,86],[-50,43],[-33,73],[-45,32],[11,52],[-28,34],[-96,51],[-35,56]],[[1995,2810],[11,79],[-46,33]],[[1960,2922],[9,40],[-65,102],[-32,27],[-128,66],[23,62],[-30,98],[-41,68],[-67,82]],[[1995,2810],[-35,112]]],"transform":{"scale":[0.0021130376562760447,0.002231814451219512],"translate":[-81.3281035,-18.3501167]},"objects":{"admin_level_4":{"type":"GeometryCollection","geometries":[{"arcs":[[0,1]],"type":"Polygon","properties":{"name":"Socos","source":"www.minam.gob.pe","boundary":"administrative","pe:ubigeo":"050112","wikipedia":"es:Distrito de Socos","population":"2008","admin_level":"4"},"id":1931020},{"arcs":[[2,3,4,5]],"type":"Polygon","properties":{"name":"Ancash","source":"www.minam.gob.pe","name:de":"Ancash","name:en":"Ancash","name:es":"Áncash","name:pl":"Ancash","name:ru":"Анкаш","name:uk":"Анкаш","boundary":"administrative","wikidata":"Q205089","ISO3166-2":"PE-ANC","pe:ubigeo":"02","wikipedia":"es:Departamento de Áncash","population":"1063459","admin_level":"4","is_in:country":"Peru"},"id":1953170},{"arcs":[[6,7,8,9]],"type":"Polygon","properties":{"name":"Lambayeque","source":"www.minam.gob.pe","name:de":"Lambayeque","name:en":"Lambayeque","name:es":"Lambayeque","name:pl":"Lambayeque","name:ru":"Ламбаеке","name:uk":"Ламбаєке","boundary":"administrative","wikidata":"Q210061","ISO3166-2":"PE-LAM","pe:ubigeo":"14","wikipedia":"es:Departamento de Lambayeque","population":"1112868","admin_level":"4","is_in:country":"Peru"},"id":1969722},{"arcs":[[10,11,12,13]],"type":"Polygon","properties":{"name":"San Martín","source":"www.minam.gob.pe","name:de":"San Martín","name:en":"San Martín","name:es":"San Martín","name:pl":"San Martín","name:ru":"Сан-Мартин","name:uk":"Сан-Мартін","boundary":"administrative","wikidata":"Q211793","ISO3166-2":"PE-SAM","pe:ubigeo":"22","wikipedia":"es:Departamento de San Martín","population":"728808","admin_level":"4","is_in:country":"Peru"},"id":1971661},{"arcs":[[14,15,16]],"type":"Polygon","properties":{"name":"Apurímac","source":"www.minam.gob.pe","name:de":"Apurímac","name:en":"Apurímac","name:es":"Apurímac","name:pl":"Apurímac","name:ru":"Апуримак","name:uk":"Апурімак","boundary":"administrative","wikidata":"Q208185","ISO3166-2":"PE-APU","pe:ubigeo":"03","wikipedia":"es:Departamento de Apurímac","population":"404190","admin_level":"4","is_in:country":"Peru"},"id":1929522},{"arcs":[[17,18]],"type":"Polygon","properties":{"name":"Cangallo","source":"www.minam.gob.pe","boundary":"administrative","pe:ubigeo":"0502","wikipedia":"es:Provincia de Cangallo","population":"16503","admin_level":"4"},"id":1930902},{"arcs":[[19,20]],"type":"Polygon","properties":{"name":"Tumbes","source":"www.minam.gob.pe","name:de":"Tumbes","name:en":"Tumbes","name:es":"Tumbes","name:pl":"Tumbes","name:ru":"Тумбес","name:uk":"Тумбес","boundary":"administrative","wikidata":"Q209597","ISO3166-2":"PE-TUM","pe:ubigeo":"24","wikipedia":"es:Departamento de Tumbes","population":"200306","admin_level":"4","is_in:country":"Peru"},"id":1986974},{"arcs":[[21,22,23,24]],"type":"Polygon","properties":{"name":"Moquegua","source":"www.minam.gob.pe","name:de":"Moquegua","name:en":"Moquegua","name:es":"Moquegua","name:pl":"Moquegua","name:ru":"Мокегуа","name:uk":"Мокеґуа","boundary":"administrative","wikidata":"Q208182","ISO3166-2":"PE-MOQ","pe:ubigeo":"18","wikipedia":"es:Departamento de Moquegua","population":"161533","admin_level":"4","is_in:country":"Peru"},"id":1875889},{"arcs":[[-1,25,26,27,28,29]],"type":"Polygon","properties":{"name":"San José de Ticllas","source":"www.minam.gob.pe","boundary":"administrative","pe:ubigeo":"050109","wikipedia":"es:Distrito de San José de Ticllas","population":"1224","admin_level":"4"},"id":1930993},{"arcs":[[30,-9,31,-20,32]],"type":"Polygon","properties":{"name":"Piura","source":"www.minam.gob.pe","name:de":"Piura","name:en":"Piura","name:es":"Piura","name:pl":"Piura","name:ru":"Пьюра","name:uk":"Піура","boundary":"administrative","wikidata":"Q208183","ISO3166-2":"PE-PIU","pe:ubigeo":"20","wikipedia":"es:Departamento de Piura","population":"1676315","admin_level":"4","is_in:country":"Peru"},"id":1986151},{"arcs":[[33,34,-14,35,36]],"type":"Polygon","properties":{"name":"Loreto","source":"www.minam.gob.pe","name:de":"Loreto","name:en":"Loreto","name:es":"Loreto","name:pl":"Loreto","name:ru":"Лорето","name:uk":"Лорето","boundary":"administrative","wikidata":"Q200938","ISO3166-2":"PE-LOR","pe:ubigeo":"16","wikipedia":"es:Departamento de Loreto","population":"891732","admin_level":"4","is_in:country":"Peru"},"id":1994077},{"arcs":[[37,38,39,-15,40,41,-24]],"type":"Polygon","properties":{"name":"Arequipa","source":"www.minam.gob.pe","name:de":"Arequipa","name:en":"Arequipa","name:es":"Arequipa","name:pl":"Arequipa","name:ru":"Арекипа","name:uk":"Арекіпа","boundary":"administrative","wikidata":"Q205068","ISO3166-2":"PE-ARE","pe:ubigeo":"04","wikipedia":"es:Departamento de Arequipa","population":"1152303","admin_level":"4","is_in:country":"Peru"},"id":1879287},{"arcs":[[-41,-17,42,43,44,45,46]],"type":"Polygon","properties":{"name":"Cusco","source":"www.minam.gob.pe","name:de":"Cusco","name:en":"Cusco","name:es":"Cuzco","name:pl":"Cuzco","name:ru":"Куско","name:uk":"Куско","boundary":"administrative","wikidata":"Q205057","ISO3166-2":"PE-CUS","pe:ubigeo":"08","wikipedia":"es:Departamento del Cuzco","population":"1171403","admin_level":"4","is_in:country":"Peru"},"id":1923695},{"arcs":[[47,48,17,49,26,50,28,51,52,-43,-16,-40]],"type":"Polygon","properties":{"name":"Ayacucho","source":"www.minam.gob.pe","name:de":"Ayacucho","name:en":"Ayacucho","name:es":"Ayacucho","name:pl":"Ayacucho","name:ru":"Аякучо","name:uk":"Аякучо","boundary":"administrative","wikidata":"Q205112","ISO3166-2":"PE-AYA","pe:ubigeo":"05","wikipedia":"es:Departamento de Ayacucho","population":"612489","admin_level":"4","is_in:country":"Peru"},"id":1930901},{"arcs":[[-29,-51,-27,-50,-18,-49,53,54,55,-52]],"type":"Polygon","properties":{"name":"Huancavelica","source":"www.minam.gob.pe","name:de":"Huancavelica","name:en":"Huancavelica","name:es":"Huancavelica","name:pl":"Huancavelica","name:ru":"Уанкавелика","name:uk":"Уанкавеліка","boundary":"administrative","wikidata":"Q505220","ISO3166-2":"PE-HUV","pe:ubigeo":"09","wikipedia":"es:Departamento de Huancavelica","population":"454797","admin_level":"4","is_in:country":"Peru"},"id":1933551},{"arcs":[[56,57,-6,58,-11,-35,59]],"type":"Polygon","properties":{"name":"Huánuco","source":"www.minam.gob.pe","name:de":"Huánuco","name:en":"Huánuco","name:es":"Huánuco","name:pl":"Huánuco","name:ru":"Уануко","name:uk":"Уануко","boundary":"administrative","wikidata":"Q215221","ISO3166-2":"PE-HUC","pe:ubigeo":"10","wikipedia":"es:Departamento de Huánuco","population":"762223","admin_level":"4","is_in:country":"Peru"},"id":1954493},{"arcs":[[60,-46,61,62]],"type":"Polygon","properties":{"name":"Madre de Dios","source":"www.minam.gob.pe","name:de":"Madre de Dios","name:en":"Madre de Dios","name:es":"Madre de Dios","name:pl":"Madre de Dios","name:ru":"Мадре-де-Дьос","name:uk":"Мадре-де-Дьйос","boundary":"administrative","wikidata":"Q210896","ISO3166-2":"PE-MDD","pe:ubigeo":"17","wikipedia":"es:Departamento de Madre de Dios","population":"109555","admin_level":"4","is_in:country":"Peru"},"id":1891287},{"arcs":[[63,-25,-42,-47,-61,64]],"type":"Polygon","properties":{"name":"Puno","source":"www.minam.gob.pe","name:de":"Puno","name:en":"Puno","name:es":"Puno","name:pl":"Puno","name:ru":"Пуно","name:uk":"Пуно","boundary":"administrative","wikidata":"Q205104","ISO3166-2":"PE-PUN","pe:ubigeo":"21","wikipedia":"es:Departamento de Puno","population":"1268441","admin_level":"4","is_in:country":"Peru"},"id":1907899},{"arcs":[[65,66,-57,67]],"type":"Polygon","properties":{"name":"Pasco","source":"www.minam.gob.pe","name:de":"Pasco","name:en":"Pasco","name:es":"Pasco","name:pl":"Pasco","name:ru":"Паско","name:uk":"Паско","boundary":"administrative","wikidata":"Q211208","ISO3166-2":"PE-PAS","pe:ubigeo":"19","wikipedia":"es:Departamento de Pasco","population":"280449","admin_level":"4","is_in:country":"Peru"},"id":1948452},{"arcs":[[-53,-56,68,-66,69,-44]],"type":"Polygon","properties":{"name":"Junín","source":"www.minam.gob.pe","name:de":"Junín","name:en":"Junín","name:es":"Junín","name:pl":"Junín","name:ru":"Хунин","name:uk":"Хунін","boundary":"administrative","wikidata":"Q207973","ISO3166-2":"PE-JUN","pe:ubigeo":"12","wikipedia":"es:Departamento de Junín","population":"1225474","admin_level":"4","is_in:country":"Peru"},"id":1948258},{"arcs":[[-62,-45,-70,-68,-60,-34,70]],"type":"Polygon","properties":{"name":"Ucayali","source":"www.minam.gob.pe","name:de":"Ucayali","name:en":"Ucayali","name:es":"Ucayali","name:pl":"Ukajali","name:ru":"Укаяли","name:uk":"Укаялі","boundary":"administrative","wikidata":"Q207424","ISO3166-2":"PE-UCA","pe:ubigeo":"25","wikipedia":"es:Departamento de Ucayali","population":"432159","admin_level":"4","is_in:country":"Peru"},"id":1921996},{"arcs":[[-59,-5,71,-7,72,73,-12]],"type":"Polygon","properties":{"name":"La Libertad","source":"www.minam.gob.pe","name:de":"La Libertad","name:en":"La Libertad","name:es":"La Libertad","name:pl":"La Libertad","name:ru":"Ла-Либертад","name:uk":"Ла-Лібертад","boundary":"administrative","wikidata":"Q205126","ISO3166-2":"PE-LAL","pe:ubigeo":"13","wikipedia":"es:Departamento de La Libertad","population":"1617050","admin_level":"4","is_in:country":"Peru"},"id":1967959},{"arcs":[[-10,-31,74,75,-73]],"type":"Polygon","properties":{"name":"Cajamarca","source":"www.minam.gob.pe","name:de":"Cajamarca","name:en":"Cajamarca","name:es":"Cajamarca","name:pl":"Cajamarca","name:ru":"Кахамарка","name:uk":"Кахамарка","boundary":"administrative","wikidata":"Q205078","ISO3166-2":"PE-CAJ","pe:ubigeo":"06","wikipedia":"es:Departamento de Cajamarca","population":"1387809","admin_level":"4","is_in:country":"Peru"},"id":1896111},{"arcs":[[-39,76,77,-54,-48]],"type":"Polygon","properties":{"name":"Ica","source":"www.minam.gob.pe","name:de":"Ica","name:en":"Ica","name:es":"Ica","name:pl":"Ica","name:ru":"Ика","name:uk":"Іка","boundary":"administrative","wikidata":"Q208186","ISO3166-2":"PE-ICA","pe:ubigeo":"11","wikipedia":"es:Departamento de Ica","population":"711932","admin_level":"4","is_in:country":"Peru"},"id":1899013},{"arcs":[[-74,-76,78,-36,-13]],"type":"Polygon","properties":{"name":"Amazonas","source":"www.minam.gob.pe","name:de":"Amazonas","name:en":"Amazonas","name:es":"Amazonas","name:pl":"Amazonas","name:ru":"Амасонас","name:uk":"Амазонас","boundary":"administrative","wikidata":"Q201162","ISO3166-2":"PE-AMA","pe:ubigeo":"01","wikipedia":"es:Departamento de Amazonas (Perú)","population":"375993","admin_level":"4","is_in:country":"Peru"},"id":1973462},{"arcs":[[-22,-64,79]],"type":"Polygon","properties":{"name":"Tacna","source":"www.minam.gob.pe","name:de":"Tacna","name:en":"Tacna","name:es":"Tacna","name:pl":"Tacna","name:ru":"Такна","name:uk":"Такна","boundary":"administrative","wikidata":"Q207413","ISO3166-2":"PE-TAC","pe:ubigeo":"23","wikipedia":"es:Departamento de Tacna","population":"288781","admin_level":"4","is_in:country":"Peru"},"id":1874307},{"arcs":[[-78,80,81,82,-3,-58,-67,-69,-55]],"type":"Polygon","properties":{"name":"Lima","source":"www.minam.gob.pe","name:de":"Lima","name:en":"Lima","name:es":"Lima","name:pl":"Lima","name:ru":"Лима","name:uk":"Ліма","boundary":"administrative","wikidata":"Q211795","ISO3166-2":"PE-LIM","pe:ubigeo":"15","wikipedia":"es:Departamento de Lima","population":"8445211","admin_level":"4","is_in:country":"Peru"},"id":1944659},{"arcs":[[83,-82]],"type":"Polygon","properties":{"name":"Callao","source":"www.minam.gob.pe","name:es":"Callao","name:ru":"Кальяо","name:uk":"Каяо","boundary":"administrative","wikidata":"Q105037","ISO3166-2":"PE-CAL","pe:ubigeo":"07","wikipedia":"es:Callao","population":"876877","admin_level":"4","wikipedia:ay":"Kallao Jach'a Kamachi jisk'a suyu","wikipedia:en":"Callao","wikipedia:ja":"カヤオ特別郡","wikipedia:pt":"Callao (província)","wikipedia:qu":"Qallaw hatun kamachiy wamani","is_in:country":"Peru"},"id":1944657}]}}}