{"type":"Topology","arcs":[[[5682,6077],[38,-11],[88,40]],[[5808,6106],[40,-19],[17,-37],[-10,-68],[-37,-65],[-35,32],[20,38],[-17,35],[-132,-86],[3,55],[-25,48],[50,38]],[[4407,2567],[-105,57],[-60,82],[-15,46],[-10,113],[-44,46],[-57,8],[-29,28],[-76,-21]],[[4011,2926],[-41,67],[52,26],[54,121],[-25,28],[14,46],[37,24],[32,63],[30,10],[30,111],[-43,-10],[-4,67],[-51,37],[17,56],[-3,64],[31,38],[28,-16],[73,58],[22,56],[30,30],[15,65],[26,31],[19,91],[-31,41],[-13,71],[47,120],[-5,49],[52,35],[27,89],[-9,84]],[[4422,4478],[5,52],[68,22],[-1,33]],[[4494,4585],[79,47],[112,-15],[38,72],[4,139],[74,122],[47,166],[22,10],[11,55],[50,65],[33,81],[-44,43],[-38,8],[-32,112],[33,116],[42,27],[52,-12],[43,21],[-34,115],[77,2],[29,-80],[30,-19],[31,69],[-25,47],[6,61],[72,39],[44,70],[6,74],[51,77],[49,-16],[20,17],[1,65],[107,64],[83,-42],[49,-7],[51,-32],[15,-69]],[[5808,6106],[89,47],[21,56],[64,15]],[[5982,6224],[38,-68],[-16,-63],[18,-18],[-15,-50],[34,-79],[-17,-22],[-17,-76],[33,-95],[0,-65],[96,-52],[41,-7],[18,-34],[81,-26],[23,-21],[167,-68],[45,10],[30,-64],[-20,-56],[28,-52],[69,9],[58,-27],[48,19],[99,-65],[41,-56],[0,-29],[-66,-84],[-125,-27],[-53,2],[-29,-49],[-95,-46],[-26,-65],[-34,-33],[29,-23],[5,-43],[34,-25],[18,-67],[-48,-54],[-15,-56],[-4,-82],[19,-26],[64,24],[-8,-46],[-48,0],[-34,-58],[-26,-2],[-86,-106],[-27,-60],[-49,-45],[-13,-43],[-50,-24],[-1,-35],[-39,-38],[37,-54],[6,-43],[-79,-78],[-99,-29],[-94,-43],[-55,-222],[-104,-219],[-27,-31],[-28,-74],[-101,-48],[-120,-81],[-36,-17],[-49,-67],[-44,-164],[-36,-49],[-60,-55],[-36,-58],[-14,-96],[-111,-50],[-133,-3],[-85,-22],[-114,-63],[-43,-15],[-54,10],[-36,64],[-3,56],[-41,52],[-39,16],[-63,-15],[-89,-93]],[[2631,761],[121,53],[43,52],[67,25],[26,22],[25,77],[67,157],[78,97],[37,102],[24,23],[-12,63],[8,85],[-38,64],[-35,90],[-48,97],[-21,117],[11,38],[-7,94],[11,97],[-20,123],[25,65],[7,87],[31,43],[6,38],[38,31],[25,88],[159,31],[78,40],[129,143],[81,38],[18,49],[46,29],[111,0],[162,9],[127,-2]],[[4407,2567],[-29,-39],[-46,-134],[-44,-40],[-33,-56],[-131,-132],[-34,-101],[-14,-122],[12,-36],[100,-54],[33,-33],[45,-19],[80,21],[56,-29],[6,-106],[-5,-74],[-16,-57],[-27,-43],[7,-86],[80,-133],[56,-23],[67,5],[37,19],[32,-24],[-4,-166],[34,-38],[6,-32],[65,-77],[27,-133],[39,-70],[22,-88],[-44,-28],[14,-94],[55,-21],[-33,-35],[-48,8],[-44,-34],[-35,-47],[-69,3],[-24,17],[-18,97],[-60,-16],[-25,-25],[-128,-43],[-35,-72],[-142,1],[-65,74],[-40,-12],[-91,11],[-67,-22],[-42,22],[-50,-23],[-13,28],[-61,16],[-38,-10],[1,-206],[-168,-1],[-48,-14],[-39,-60],[-10,-92],[-36,-52],[2,-37],[-176,37],[-105,31],[-69,35],[-65,87],[-64,203],[-40,186],[-33,52],[-72,67],[-100,-14],[-62,38],[-10,39]],[[2631,761],[-8,30],[39,101],[11,78],[-59,56],[-65,34],[-93,-26],[-89,-3],[-15,-16],[-85,-36],[-68,20],[-81,10],[-41,-48],[-67,-10],[-110,18],[-53,-53],[-78,-36],[-140,12],[-110,42],[-48,-53],[-47,-24],[-200,48],[-149,25],[-74,-35],[-201,45],[-35,-59],[-32,-24],[-207,0],[-16,-37],[-34,-25],[-69,-20],[-87,3],[13,118],[35,155],[13,210],[22,40],[55,11],[4,46],[-11,82],[16,129],[27,46],[72,43],[15,-25],[54,-10],[42,143],[65,34],[77,7],[72,41],[208,0],[-4,114],[31,39],[-1,113],[28,22],[-15,53],[-37,24],[-75,-13],[-44,-21],[-60,10],[-12,68],[25,77],[-9,180],[-32,155],[15,151],[-93,-19],[-99,110],[-163,46],[-63,32],[-75,92],[-42,39],[-61,135],[-50,70],[-1,42],[-35,46],[10,37],[-100,116],[-137,193],[327,-119],[429,-160],[524,58],[226,-47],[34,-17],[25,62],[185,61],[234,-33],[352,119],[209,71],[58,72],[-67,55],[45,110],[14,136],[-33,29],[1,31],[49,216],[88,22],[52,63],[13,61],[46,22],[10,25],[58,26],[54,-56],[47,18],[52,-27],[57,7],[183,72],[-18,50],[-46,-14],[-38,79],[69,-7],[66,66],[56,9],[45,34],[36,64],[56,-1],[7,-27],[70,-1],[70,47],[32,-34],[31,-4],[9,-45],[29,-42],[56,-17],[25,32],[74,30],[36,87],[66,47]],[[4003,4989],[97,4],[40,28],[16,33],[88,18],[-21,-43],[34,-21],[14,-80],[-4,-143],[-7,-35],[39,-25],[37,-47],[39,8],[41,34],[8,-50],[-16,-162],[14,-30]],[[4003,4989],[-14,37],[-15,104],[4,118],[-19,62],[19,38],[43,20],[40,57],[-6,87],[31,54],[-4,74],[35,47],[107,19],[38,-21],[67,26],[25,48],[44,1],[77,72],[-75,117],[13,48],[-21,45],[-86,38],[-27,76],[-28,37],[23,54],[68,-3],[69,-31],[104,-9],[63,-15],[159,19],[70,47],[47,66],[0,70],[20,49],[-31,41],[-39,10],[-6,50],[49,56],[-12,30],[89,72],[9,46],[102,58]],[[5035,6803],[80,-101],[53,-21],[-11,-53],[-34,-24],[-21,-52],[29,-60],[-70,-76],[-14,-50],[-36,-22],[-29,-46],[-8,-61],[16,-97],[37,-25],[0,-41],[66,-10],[55,36],[48,-42],[-26,-26],[11,-37],[-49,-41],[-49,-15],[1,53],[-90,15],[-42,-10],[-55,54],[-50,-71],[-57,-28],[-96,22],[-26,-61],[-44,-4],[-58,-29],[-5,-29],[39,-56],[46,-38],[83,-11],[-2,-24],[-46,-51],[-90,-18],[-18,7],[-63,-99],[-13,-93],[45,-61],[-97,1],[-58,-26],[-31,-90],[6,-60],[-24,-48],[7,-52],[28,-77],[25,-31],[25,-156],[42,-145],[29,-138]],[[6272,6892],[-31,-29],[12,-28],[-47,-94],[-42,-27],[-65,-15],[-47,-69],[6,-23],[-44,-34],[-55,-10],[-34,-118],[36,-55],[21,-166]],[[5035,6803],[19,29],[-10,40],[44,29],[4,51],[-43,51],[54,75],[-29,38],[12,42],[-47,21],[15,69],[-28,16],[-8,43],[-73,82],[-59,49],[8,24],[112,113],[62,43],[35,83],[71,-50],[2,64],[131,53],[4,30],[75,63],[118,18],[27,27],[175,9],[72,26],[45,-5],[105,12],[70,-5],[50,11]],[[6048,7954],[25,-44],[83,-39],[1,-40],[-83,7],[-54,-12],[-64,25],[-71,-20],[-64,14],[-49,-28],[-9,-87],[-69,-44],[-14,-41],[-55,-51],[-45,-27],[-46,-6],[-21,-105],[21,-38],[-25,-58],[27,-37],[56,-18],[64,22],[72,-13],[39,16],[31,-19],[-6,-46],[21,-36],[66,-49],[56,-21],[173,-30],[-7,-43],[-26,-22],[-5,-69],[39,-34],[70,-22],[93,-47]],[[6048,7954],[86,10],[58,-50],[77,-2],[29,46],[60,2],[53,52],[76,14],[41,31],[34,-36],[48,-1],[37,-25],[98,20],[51,-31],[24,9],[57,-23],[7,-97],[21,-33],[33,32],[88,-12],[40,-24],[65,-74],[44,-106],[-23,-40],[34,-57],[-53,-75],[5,-44],[68,-17],[28,-59],[-7,-48],[100,-3],[53,35],[62,6],[-18,-47],[26,-36],[36,-7],[31,-40],[17,-56],[-16,-41],[49,-77],[40,2],[13,-84],[49,-89],[-34,-46],[-17,-53],[-48,22],[-62,-42],[2,-37],[-29,-48],[-57,-1],[-41,22],[-42,-35],[-40,-7],[-68,-48],[-39,20],[-110,-61],[-44,-35],[-115,13],[-52,32],[-24,42],[1,89],[-42,57],[-75,-46],[-102,40],[-36,26],[3,63],[-79,55],[-76,-36],[-92,36],[-79,-9]]],"transform":{"scale":[0.002113156461077063,0.0016809016259153532],"translate":[60.872855,23.539391600000002]},"objects":{"admin_level_4":{"type":"GeometryCollection","geometries":[{"arcs":[[0,1]],"type":"Polygon","properties":{"name":"وفاقی دارالحکومت","name:en":"Islamabad Capital Territory","name:ja":"イスラーマーバード首都圏","name:pl":"Terytorium Stołeczne Islamabadu","name:ru":"Федеральная столичная территория","name:ur":"وفاقی دارالحکومت","boundary":"administrative","wikidata":"Q848613","ISO3166-2":"PK-IS","wikipedia":"en:Islamabad Capital Territory","admin_level":"4","border_type":"province"},"id":358002},{"arcs":[[2,3,4,5,-2,6,7]],"type":"Polygon","properties":{"name":"پنجاب","name:en":"Punjab","name:hi":"पंजाब","name:ja":"パンジャーブ","name:kn":"ಪಂಜಾಬ್","name:pl":"Pendżab","name:ru":"Пенджаб","name:uk":"Пенджаб","name:ur":"پنجاب","boundary":"administrative","wikidata":"Q4478","ISO3166-2":"PK-PB","wikipedia":"en:Punjab, Pakistan","admin_level":"4","border_type":"province"},"id":357988},{"arcs":[[8,-3,9]],"type":"Polygon","properties":{"name":"سنڌ","is_in":"Pakistan","name:ar":"السند","name:de":"Sindh","name:en":"Sindh","name:ja":"シンド","name:kn":"ಸಿಂಧ್","name:pl":"Sindh","name:ru":"Синд","name:sd":"سنڌ","name:uk":"Сінд","name:ur":"سندھ","boundary":"administrative","wikidata":"Q37211","ISO3166-2":"PK-SD","wikipedia":"en:Sindh","admin_level":"4","border_type":"province","is_in:continent":"Asia","is_in:country_code":"PK"},"id":357981},{"arcs":[[-9,10,11,-4]],"type":"Polygon","properties":{"name":"بلوچستان / Balochistan","name:de":"Belutschistan","name:en":"Balochistan","name:hi":"बलूचिस्तान","name:ja":"バローチスターン","name:kn":"ಬಲೂಚಿಸ್ತಾನ","name:pl":"Beludżystan","name:ru":"Белуджистан","name:uk":"Белуджистан","name:ur":"بلوچستان","boundary":"administrative","wikidata":"Q163239","ISO3166-2":"PK-BA","wikipedia":"en:Balochistan, Pakistan","admin_level":"4","border_type":"province"},"id":357968},{"arcs":[[-5,-12,12,13]],"type":"Polygon","properties":{"name":"وفاقی قبائلی علاقہ جات","name:de":"Stammesgebiete unter Bundesverwaltung","name:en":"Federally Administered Tribal Areas","name:ja":"連邦直轄部族地域","name:lt":"Federaciškai valdomos genčių žemės","name:pl":"Terytoria Plemienne Administrowane Federalnie","name:ru":"Федерально управляемые племенные территории","name:ur":"وفاقی قبائلی علاقہ جات","name:vi":"Các khu vực Hành chính Bộ lạc Liên bang","boundary":"administrative","wikidata":"Q208270","ISO3166-2":"PK-TA","wikipedia":"en:Federally Administered Tribal Areas","admin_level":"4","border_type":"province"},"id":358004},{"arcs":[[14,-7,-1,-6,-14,15,16]],"type":"Polygon","properties":{"name":"خیبر پختونخوا","name:de":"Khyber Pakhtunkhwa","name:en":"Khyber Pakhtunkhwa","name:ja":"カイバル・パクトゥンクワ","name:lt":"Chaiber Pachtunchva","name:pl":"Chajber Pasztunchwa","name:ru":"Хайбер-Пахтунхва","name:uk":"Хайбер-Пахтунхва","name:ur":"‏خیبر پختونخوا","boundary":"administrative","wikidata":"Q183314","ISO3166-2":"PK-KP","wikipedia":"en:Khyber Pakhtunkhwa","admin_level":"4","border_type":"province"},"id":3780131},{"arcs":[[-17,17]],"type":"Polygon","properties":{"name":"گلگت بلتستان","name:en":"Gilgit-Baltistan","name:ja":"ギルギット・バルティスタン","name:lt":"Gilgitas-Baltistanas","name:pl":"Gilgit-Baltistan","name:ru":"Гилгит-Балтистан","name:uk":"Гілгіт-Балтистан","name:ur":"گلگت بلتستان","boundary":"administrative","wikidata":"Q200697","ISO3166-2":"PK-GB","wikipedia":"en:Gilgit–Baltistan","admin_level":"4","border_type":"province"},"id":357995}]}}}