{"type":"Topology","arcs":[[[443,3735],[37,22],[-32,88],[10,48],[31,13],[33,59],[29,-1],[55,-62],[-12,-44],[36,-20],[47,34],[-10,36],[31,24],[-9,63],[-18,19]],[[671,4014],[484,15],[0,174],[404,16],[9,-110],[166,0],[8,-75]],[[1742,4034],[-11,-102],[-266,-286]],[[1465,3646],[-315,13],[4,82],[-711,-6]],[[1465,3646],[-15,-219],[125,-174]],[[1575,3253],[2,-240]],[[1577,3013],[-315,-2],[-119,-132],[30,-363]],[[1173,2516],[-22,-129],[-290,-12],[3,-412],[-809,-10]],[[55,1953],[9,74],[-26,94],[1,3],[-10,86],[9,57],[-11,34],[0,115],[14,27],[2,64],[-25,191],[8,34],[-26,32],[14,34],[-13,44],[4,6],[-2,24],[28,116],[15,27],[-36,46],[82,73],[39,5],[29,-33],[12,-55],[22,-12],[11,-82],[19,-22],[56,17],[-36,129],[-52,57],[15,41],[34,34],[-2,63],[-21,64],[-1,1],[-42,1],[-6,-4],[-40,2],[0,1],[22,52],[53,22],[35,-3],[43,56],[45,-3],[44,-53],[-25,-70],[-1,-3],[-31,-34],[1,-35],[33,-37],[-7,-59],[2,0],[6,0],[1,3],[50,-18],[25,-55],[43,29],[-3,93],[11,45],[32,52],[-18,20],[38,28],[30,-3],[40,-39],[26,12],[3,2],[5,51],[59,68],[-37,32],[-29,-45],[-1,-1],[-21,6],[-65,-41],[-65,35],[-35,46],[-18,67],[10,20],[-17,109],[30,45]],[[1742,4034],[212,2],[-7,380]],[[1947,4416],[84,-36],[115,16],[100,-10],[71,-55],[96,-37],[89,63],[11,0],[15,-3],[-23,-3],[0,-1],[44,-18],[-47,16],[-2,-26],[7,2],[3,-21],[-9,12],[-21,-19],[13,-16],[9,4],[30,14],[-62,-34],[-11,-46],[41,0],[60,25],[-59,-28],[-77,0],[3,-44],[23,-46],[98,46],[51,25],[44,40],[26,-8],[-219,-106],[15,-117],[26,-81],[-2,-7],[-74,-54],[-24,-30],[-5,-60],[16,-43],[33,33],[30,-19],[20,-40],[-41,-78],[-3,-42],[-30,-20],[0,-3],[-1,0],[0,3],[-24,59],[-28,26],[-45,8],[-93,-34],[15,-17],[3,1],[63,-12],[12,-65],[37,2],[9,-59],[-18,-57],[-24,-20],[-57,-6],[-77,-40],[-15,-70],[23,-48],[-1,-1],[-13,-31],[-3,0]],[[2174,3200],[-547,7],[-52,46]],[[1735,1823],[237,-100],[-12,282],[388,170],[-14,33]],[[2334,2208],[94,26],[75,30]],[[2503,2264],[54,-71],[2,-64],[-25,-46],[1,-43],[25,-37],[-8,-26],[10,-133],[-34,-58],[7,-65],[27,-26],[51,-4],[50,-32],[-126,-51],[-20,3],[-18,62],[-20,-5],[28,-90],[57,25],[-4,-52],[-46,-36],[-49,-17],[9,-33],[10,16],[-2,-42],[-99,-154],[-86,-102],[-54,-37],[-27,-50],[-47,-27],[19,-34],[-17,-74],[-2,-2],[-39,10],[0,-14],[22,-13],[-3,-80]],[[2149,862],[-398,4],[-16,957]],[[1577,3013],[9,-215],[329,-110],[19,-74],[60,4]],[[1994,2618],[213,-259],[27,-46],[44,4],[56,-109]],[[1735,1823],[-25,-6],[-97,47],[0,38],[-132,69],[219,106],[42,28],[-136,416],[-433,-5]],[[671,4014],[-64,13],[-3,82],[56,29],[-16,32],[22,51],[37,21],[4,39],[1,3],[0,114],[-20,62],[35,-3],[14,-40],[39,17],[52,58],[1,58],[16,30],[0,0],[0,1],[8,62],[-20,18],[103,40],[36,36],[39,-1],[40,32],[51,-22],[79,53],[21,79],[128,85],[48,-14],[38,15],[41,39],[5,0],[84,-49],[82,-19],[67,-39],[3,-2],[95,-61],[-9,-142],[66,-94],[57,-35],[3,-115],[37,-31]],[[1994,2618],[244,87],[59,12]],[[2297,2717],[5,-13],[-85,-36],[81,-20],[-21,-93],[34,0],[6,-43],[-37,-8],[-22,-38],[46,-32],[53,24],[19,26],[9,-17],[-41,-33],[39,-15],[32,25],[71,-21],[39,42],[64,-146],[-90,-31],[4,-24]],[[2349,2695],[0,0],[43,-17],[11,-56],[-104,59],[50,14]],[[2149,862],[-17,-41],[-55,-73],[-51,-132],[-13,-63],[-37,-20],[-79,2],[-37,-53],[-21,-68],[1,-9],[-11,-27],[-2,-3],[-10,-51],[-49,-26],[-29,-33],[-35,67],[1,47],[41,-2],[1,3],[39,59],[-5,60],[-26,24],[-1,-1],[-53,15],[-29,-41],[-49,7],[-37,101],[-44,-56],[-64,-24],[-40,5],[-25,-29],[-43,-12],[-12,-45],[83,-24],[76,9],[70,-37],[13,-23],[51,10],[0,-1],[12,4],[0,-10],[-36,-33],[-14,-37],[5,-107],[-25,-92],[-81,1],[-113,-32],[-168,-27],[-45,-20],[-168,-24],[-219,64],[-89,34],[-178,112],[-17,16],[-162,294],[-89,149],[-94,142],[134,57],[37,90],[3,5],[-10,45],[-29,36],[-5,86],[24,80],[-37,118],[-74,62],[-12,55],[-74,76],[3,95],[45,74],[-23,98],[-33,52],[-61,46],[-3,67]],[[2174,3200],[-1,-34],[-43,-73],[8,-31],[39,-31],[-4,-29],[56,-51],[30,-59],[40,-22],[11,-54],[-3,-25],[4,-1],[-10,0],[3,32],[-31,9],[10,-23],[-37,8],[4,-33],[47,0],[22,-38],[-19,-17],[-3,-11]]],"transform":{"scale":[0.00033856275758710887,0.0003372787727363581],"translate":[50.7540011,24.4707534]},"objects":{"qa_slim":{"type":"GeometryCollection","geometries":[{"arcs":[[0,1,2,3]],"type":"Polygon","properties":{"srid":"4326","id":"27334","name":"Al Ghuwariyah","localname":"الغويرية","official_name":"","boundary":"adminstrative","admin_level":"4","note":"","wikidata":"Q623609","wikipedia":"","timestamp":"2018-11-12 07:20:06","rpath":"27334,305095,0","alltags":{"name":"الغويرية","name:ar":"الغويرية","name:en":"Al Ghuwariyah","name:es":"Guaria","name:fr":"Al Ghuwariyah","boundary":"administrative","wikidata":"Q623609","ISO3166-2":"QA-GH","admin_level":"4","border_type":"municipality","is_in:country":"Qatar","is_in:continent":"Asia","is_in:country_code":"QA"}}},{"arcs":[[-4,4,5,6,7,8]],"type":"Polygon","properties":{"srid":"4326","id":"27330","name":"Al Jamiliyah","localname":"الجميلية","official_name":"","boundary":"adminstrative","admin_level":"4","note":"","wikidata":"Q1147593","wikipedia":"","timestamp":"2018-11-12 07:20:06","rpath":"27330,305095,0","alltags":{"name":"الجميلية","name:ar":"الجميلية","name:de":"Al Jumaliyah","name:en":"Al Jamiliyah","name:es":"Yumalia","name:fr":"Al Jumaliyah","boundary":"administrative","wikidata":"Q1147593","ISO3166-2":"QA-JU","admin_level":"4","is_in:country":"Qatar","is_in:continent":"Asia","is_in:country_code":"QA"}}},{"arcs":[[-3,9,10,11,-5]],"type":"Polygon","properties":{"srid":"4326","id":"27329","name":"Al Khawr","localname":"الخور","official_name":"","boundary":"adminstrative","admin_level":"4","note":"","wikidata":"Q1156471","wikipedia":"","timestamp":"2018-11-12 07:20:06","rpath":"27329,305095,0","alltags":{"name":"الخور","name:ar":"الخور","name:de":"Al-Khor","name:en":"Al Khawr","name:es":"Jor","name:fr":"Al Khawr","boundary":"administrative","wikidata":"Q1156471","ISO3166-2":"QA-KH","admin_level":"4","is_in:country":"Qatar","is_in:continent":"Asia","is_in:country_code":"QA"}}},{"arcs":[[12,13,14,15]],"type":"Polygon","properties":{"srid":"4326","id":"27337","name":"Al Wakrah","localname":"الوكرة","official_name":"","boundary":"adminstrative","admin_level":"4","note":"","wikidata":"Q310893","wikipedia":"","timestamp":"2018-11-12 07:20:06","rpath":"27337,305095,0","alltags":{"name":"الوكرة","name:ar":"الوكرة","name:de":"Al-Wakra","name:en":"Al Wakrah","name:es":"Al Wakrah","name:fr":"Al Wakrah","boundary":"administrative","wikidata":"Q310893","ISO3166-2":"QA-WA","admin_level":"4","is_in:country":"Qatar","is_in:continent":"Asia","is_in:country_code":"QA"}}},{"arcs":[[16,17,-13,18,-7]],"type":"Polygon","properties":{"srid":"4326","id":"27331","name":"Ar Rayyan","localname":"الريان","official_name":"","boundary":"adminstrative","admin_level":"4","note":"","wikidata":"Q311272","wikipedia":"","timestamp":"2018-11-12 07:20:06","rpath":"27331,305095,0","alltags":{"name":"الريان","name:ar":"الريان","name:de":"Ar-Rayyan","name:en":"Ar Rayyan","name:es":"Rayán","name:fr":"Al Rayyan","boundary":"administrative","wikidata":"Q311272","ISO3166-2":"QA-RA","admin_level":"4","is_in:country":"Qatar","is_in:continent":"Asia","is_in:country_code":"QA"}}},{"arcs":[[-10,-2,19]],"type":"Polygon","properties":{"srid":"4326","id":"27335","name":"Ash Shamal","localname":"الشمال","official_name":"","boundary":"adminstrative","admin_level":"4","note":"","wikidata":"Q310872","wikipedia":"","timestamp":"2018-11-12 07:20:06","rpath":"27335,305095,0","alltags":{"name":"الشمال","name:ar":"الشمال","name:de":"Asch-Schamal","name:en":"Ash Shamal","name:es":"Madinat ash Shamal","name:fr":"Ash Shamal","boundary":"administrative","wikidata":"Q310872","ISO3166-2":"QA-MS","admin_level":"4","is_in:country":"Qatar","is_in:continent":"Asia","is_in:country_code":"QA"}}},{"arcs":[[[20,21,-14,-18]],[[22]]],"type":"MultiPolygon","properties":{"srid":"4326","id":"27332","name":"Doha","localname":"الدوحة","official_name":"","boundary":"adminstrative","admin_level":"4","note":"","wikidata":"Q3861","wikipedia":"","timestamp":"2018-11-12 07:20:06","rpath":"27332,305095,0","alltags":{"name":"الدوحة","name:ar":"الدوحة","name:de":"Doha","name:en":"Doha","name:es":"Doha","name:fr":"Doha","boundary":"administrative","wikidata":"Q3861","ISO3166-2":"QA-DA","admin_level":"4","alt_name:en":"Ad Dawhah","is_in:country":"Qatar","is_in:continent":"Asia","official_name:ar":"بلدية الدوحة","is_in:country_code":"QA"}}},{"arcs":[[-8,-19,-16,23]],"type":"Polygon","properties":{"srid":"4326","id":"27336","name":"Jariyan Al Batnah","localname":"جريان الباطنة","official_name":"","boundary":"adminstrative","admin_level":"4","note":"","wikidata":"Q1070191","wikipedia":"","timestamp":"2018-11-12 07:20:06","rpath":"27336,305095,0","alltags":{"name":"جريان الباطنة","name:ar":"جريان الباطنة","name:de":"Jariyan al Batnah","name:en":"Jariyan Al Batnah","name:es":"Jariyan al Batnah","name:fr":"Jariyan al Batnah","boundary":"administrative","wikidata":"Q1070191","ISO3166-2":"QA-JB","admin_level":"4","is_in:country":"Qatar","is_in:continent":"Asia","is_in:country_code":"QA"}}},{"arcs":[[-12,24,-21,-17,-6]],"type":"Polygon","properties":{"srid":"4326","id":"27328","name":"Umm Salal","localname":"أم صلال","official_name":"","boundary":"adminstrative","admin_level":"4","note":"","wikidata":"Q990414","wikipedia":"en:Umm Salal","timestamp":"2018-11-12 07:20:06","rpath":"27328,305095,0","alltags":{"name":"أم صلال","name:ar":"أم صلال","name:de":"Umm Salal","name:en":"Umm Salal","name:es":"Umm Salal","name:fr":"Umm Salal","boundary":"administrative","wikidata":"Q990414","ISO3166-2":"QA-US","wikipedia":"en:Umm Salal","admin_level":"4","is_in:country":"Qatar","is_in:continent":"Asia","is_in:country_code":"QA"}}}]}}}