{"type":"Topology","arcs":[[[3842,788],[120,72],[95,62],[96,30],[86,52],[14,42],[41,14],[45,-3],[46,-26],[13,-30],[67,-202],[18,-3]],[[4483,796],[8,-55],[-40,-86],[12,-36],[-24,-74],[14,-31],[-60,-49],[-69,57],[-52,-35],[-50,-89],[19,-94],[-9,-43],[-31,-30],[-8,-42],[-23,-50],[-18,-69],[7,-18],[-78,0],[9,78],[21,26],[10,86],[-8,28],[-23,9],[-34,56],[-45,36],[-52,68],[-91,45],[8,17],[-23,137],[-22,70],[11,80]],[[260,919],[37,42],[16,31],[-21,58],[25,65],[-11,28],[34,35],[24,50],[27,32],[-8,15],[29,37],[46,23],[12,37]],[[470,1372],[71,40],[4,14],[47,-5],[43,-15],[40,-41],[60,2],[47,-47],[50,7],[6,29],[75,20],[29,0],[44,-9],[-32,-54],[-29,-21],[-37,-10]],[[888,1282],[-12,-16],[-16,-58],[-33,-46],[-37,-37],[41,-80],[14,-14],[4,-73],[-56,5],[-47,-30],[-83,-42],[-13,-20],[-11,-89],[10,-74],[-54,-70],[-22,-13],[-167,-169]],[[406,456],[-47,73],[34,104],[-15,67],[-48,-4],[-5,20],[-45,18],[-30,53],[21,113],[-11,19]],[[1134,1222],[23,5],[116,-11],[5,-33],[59,-33],[27,-1],[70,-82],[10,-32],[-67,-19],[25,-47],[36,-42],[33,-10],[10,-24],[52,-36],[103,-18],[58,-28],[57,16],[55,-5],[26,-19]],[[1832,803],[6,-108],[7,-68],[19,-76],[171,-407],[26,-54]],[[2061,90],[-53,-2],[-84,6],[-121,1],[-41,-8],[-108,-39],[-105,25],[-30,33],[-31,87],[-32,28],[-27,42],[-36,19],[1,67],[-30,12]],[[1364,361],[-10,97],[-16,66],[-34,101],[-34,47],[39,16],[13,25],[-78,38],[-106,80],[-74,67],[1,52],[127,12],[28,24],[-2,18],[-84,218]],[[3930,2093],[28,35],[78,50],[36,3],[80,-13],[65,-3],[13,-14]],[[4230,2151],[129,-51],[3,-44],[68,-47],[50,-54],[33,-70],[154,-1],[1,-35],[59,-13],[-1,-56],[-19,-62],[-55,-109],[-10,-34],[8,-22],[35,-18],[42,10],[92,-6],[39,-11],[86,-53]],[[4944,1475],[-10,-46],[-50,-68],[-40,-150],[11,-16],[-8,-58],[-45,6],[-104,-19]],[[4698,1124],[-101,17],[-42,17],[-32,30],[-64,36],[-94,82],[-36,16],[-86,67],[-18,24],[0,42],[-44,33],[-71,85]],[[4110,1573],[-9,28],[19,52],[78,108],[22,61],[-32,42],[-72,119],[-37,15],[-68,12],[-47,55],[-34,28]],[[3609,1992],[25,-2],[159,14],[28,35],[81,27],[28,27]],[[4110,1573],[-27,-1],[-61,26],[-18,-13],[-6,-45],[-28,-21],[-36,-9],[-38,40],[-53,35],[-35,-13],[-6,-32],[13,-42],[-36,-28],[-3,-33]],[[3776,1437],[-80,-2],[-2,55],[-15,31],[-39,31],[-7,47],[15,108],[-51,29],[14,27],[117,15],[-23,41],[15,33],[-62,51],[15,23],[37,7],[-34,37],[-67,22]],[[4211,2299],[37,74],[23,29],[334,-3],[72,67],[22,27],[2,138]],[[4701,2631],[147,-43],[111,1],[177,26]],[[5136,2615],[7,-17],[-2,-80],[-31,-45],[-4,-56],[17,-22],[3,-56],[-15,-10],[-53,-141],[-22,-19],[-51,-170],[-39,-28],[9,-63],[22,-209],[6,-29],[-32,-109],[13,-40],[-20,-46]],[[4230,2151],[29,38],[-48,110]],[[3319,2431],[69,35]],[[3388,2466],[66,-15],[34,-38],[28,-18],[64,-3],[77,3],[55,-12],[48,-23],[117,-16],[119,-46],[60,-34],[47,4],[108,31]],[[3609,1992],[-36,-20]],[[3573,1972],[-85,179],[-79,95],[-24,35],[-28,72],[-38,78]],[[327,1911],[54,42],[21,43],[-5,59],[-23,26],[65,75],[96,-6],[53,24],[88,-6],[63,-18],[0,270],[0,205],[0,203],[0,282],[0,181],[1,317],[119,-2],[219,1]],[[1078,3607],[840,1],[6,-1161]],[[1924,2447],[-191,-1],[20,-204],[36,-319],[13,-64],[24,-16],[78,-233]],[[1904,1610],[17,-49],[-12,-74],[24,-36],[-6,-51],[-42,-51],[-9,-53],[-70,-89],[-9,-43],[3,-69],[-32,-71],[13,-48],[-4,-44],[21,-40],[34,-89]],[[1134,1222],[-58,-5],[-48,21],[-29,26],[-48,2],[-63,16]],[[470,1372],[-19,41],[9,51],[-23,30],[1,25],[40,51],[-15,56],[-27,19],[-7,27],[-49,17],[-43,78],[-4,21],[19,76],[-25,47]],[[3630,4284],[-26,-256],[-33,-328],[-38,-323],[-14,-131],[56,-47],[110,-62],[-18,-56],[-8,-73],[33,-99],[-92,-126],[-212,-317]],[[3319,2431],[-44,-5],[-166,-1],[-295,16],[-219,3],[-285,3],[-386,0]],[[1078,3607],[1,246],[0,304],[-1,127],[178,0],[258,0],[322,0],[364,0],[239,0],[186,0],[285,0],[304,0],[21,50],[44,13],[-36,-63],[387,0]],[[3573,1972],[-106,-45],[-2,-36],[-31,-2],[-18,-65],[-96,-84],[-25,-63],[4,-59],[13,-37],[64,-46],[17,-53],[12,-35],[65,-57],[-17,-46],[16,-31],[-22,-27],[-26,-8],[-64,-45],[-30,-98],[15,-52]],[[3342,1083],[-91,33],[-72,-16],[-51,1],[0,-70],[-64,-16],[-17,-30],[-81,-5],[-24,29],[-15,42],[-23,19],[22,25],[-90,-22],[-51,-22],[3,43],[-8,42],[-35,17],[-54,0]],[[2691,1153],[-72,117],[-13,100],[-48,12],[-40,19],[-43,51],[-90,52],[1,21],[-80,-4],[-29,18],[-133,54],[-122,20],[-118,-3]],[[3972,4191],[151,14],[27,79],[255,0],[244,0],[184,0],[264,0],[-4,-9],[17,-128],[47,-81],[47,-46],[-31,-5],[9,-71],[14,-40],[2,-57],[20,-48],[-17,-79],[10,-87],[-12,-14],[29,-69],[-11,-81],[18,-43],[36,-150],[7,-50],[32,-49],[79,-7],[22,-32],[49,-20],[20,-26],[37,-23],[-14,-17],[28,-42],[78,-27],[7,-15],[57,-31],[-44,-41],[-36,-87],[-86,-48],[-15,16],[-51,-36],[-35,9],[-16,-29],[-82,-23],[0,-40],[-36,-48],[-30,2],[-51,-16],[-55,19]],[[4701,2631],[-25,25],[-38,13],[-80,42],[-41,43],[-51,100],[-34,55],[-154,115],[-66,6],[-35,15],[-41,54],[-60,125],[-22,65],[-49,124],[13,76],[-2,42],[-18,74],[-7,74],[18,46],[0,49],[-46,93],[-35,13],[-58,66],[10,62],[18,47],[-6,43],[-18,30],[67,54],[31,9]],[[3630,4284],[211,0],[131,-93]],[[4698,1124],[-106,-168],[-13,-45],[-41,-48],[-39,-17],[-16,-50]],[[3842,788],[28,161],[-1,24]],[[3869,973],[-21,72],[-36,80],[42,79],[-30,33],[-59,82],[19,76],[-8,42]],[[1364,361],[-145,-7],[-79,-24],[-29,-2],[-23,-50],[16,-27],[-36,-62],[-44,-30],[-42,7],[-20,-15],[-51,14],[-33,-17],[-61,-3],[-39,-17],[-5,-21],[-136,3],[-9,66],[-62,101],[-61,99],[-53,48],[-46,32]],[[3342,1083],[-4,-10],[13,-85],[13,-18],[49,-10],[12,-25],[54,-53]],[[3479,882],[23,-20],[76,-63],[0,-178],[27,-47],[-19,-14],[-89,-89],[-55,-30],[-50,-92],[-111,-131],[-50,-59],[-28,-19],[-150,-4],[-1,-13],[-103,85],[-180,111],[-26,-4]],[[2743,315],[-3,6],[-30,61],[-30,39],[-134,127],[-13,30],[10,30],[40,32],[-3,25],[-4,45],[-39,82],[-40,14],[15,73],[21,17],[50,60],[17,35],[16,46],[28,20],[47,96]],[[260,919],[-36,-11],[8,50],[-38,94],[27,57],[-45,16],[-38,26],[-19,-25],[-64,-12],[-26,14],[-29,43],[11,11],[32,71],[30,32],[44,16],[37,44],[6,24],[-16,22],[-5,38],[-31,35],[-17,37],[51,63],[68,29],[40,23],[1,38],[-26,4],[-15,24],[0,61],[-11,33],[23,13],[78,21],[-11,58],[31,15],[7,28]],[[2743,315],[-130,-66],[0,-113],[-142,0],[-31,-11],[-16,-24],[-62,-48],[-20,-34],[3,-19],[-239,0],[-45,90]],[[3869,973],[-175,5],[9,-75],[-5,-21],[-219,0]]],"transform":{"scale":[0.002955597971091133,0.0029533031976075453],"translate":[21.8145046,9.347223]},"objects":{"sd_slim":{"type":"GeometryCollection","geometries":[{"arcs":[[0,1]],"type":"Polygon","properties":{"srid":"4326","id":"3774677","name":"Blue Nile State","localname":"ولاية النيل الأزرق","official_name":"","boundary":"adminstrative","admin_level":"4","note":"","wikidata":"Q309489","wikipedia":"","timestamp":"2018-11-12 07:21:25","rpath":"3774677,192789,0","alltags":{"name":"ولاية النيل الأزرق","name:ar":"ولاية النيل الأزرق","name:de":"Blauer Nil","name:en":"Blue Nile State","name:es":"Nilo Azul","name:fr":"Nil Bleu","boundary":"administrative","int_name":"An-Nil al-azraq","wikidata":"Q309489","ISO3166-2":"SD-NB","admin_level":"4","is_in:country":"Sudan","is_in:continent":"Africa","is_in:country_code":"SD"}}},{"arcs":[[2,3,4,5]],"type":"Polygon","properties":{"srid":"4326","id":"3774671","name":"Central Darfur","localname":"ولاية وسط دارفور","official_name":"","boundary":"adminstrative","admin_level":"4","note":"","wikidata":"Q4116493","wikipedia":"","timestamp":"2018-11-12 07:21:25","rpath":"3774671,192789,0","alltags":{"name":"ولاية وسط دارفور","name:ar":"ولاية وسط دارفور","name:de":"Zentral-Darfur","name:en":"Central Darfur","name:es":"Darfur Central","name:fr":"Darfour-Central","boundary":"administrative","wikidata":"Q4116493","ISO3166-2":"SD-DC","admin_level":"4","is_in:country":"Sudan","is_in:continent":"Africa","is_in:country_code":"SD"}}},{"arcs":[[6,7,8,9]],"type":"Polygon","properties":{"srid":"4326","id":"3774670","name":"East Darfur State","localname":"ولاية شرق دارفور","official_name":"","boundary":"adminstrative","admin_level":"4","note":"","wikidata":"Q3545641","wikipedia":"","timestamp":"2018-11-12 07:21:25","rpath":"3774670,192789,0","alltags":{"name":"ولاية شرق دارفور","name:ar":"ولاية شرق دارفور","name:de":"Ost-Darfur","name:en":"East Darfur State","name:es":"Darfur del Este","name:fr":"Darfour-Oriental","boundary":"administrative","wikidata":"Q3545641","ISO3166-2":"SD-DE","admin_level":"4","is_in:country":"Sudan","is_in:continent":"Africa","is_in:country_code":"SD"}}},{"arcs":[[10,11,12,13,14]],"type":"Polygon","properties":{"srid":"4326","id":"3774675","name":"Gedarif State","localname":"ولاية القضارف","official_name":"","boundary":"adminstrative","admin_level":"4","note":"","wikidata":"Q309478","wikipedia":"","timestamp":"2018-11-12 07:21:25","rpath":"3774675,192789,0","alltags":{"name":"ولاية القضارف","name:ar":"ولاية القضارف","name:de":"Al-Qadarif","name:en":"Gedarif State","name:es":"Gadarif","name:fr":"Al Qadarif","boundary":"administrative","wikidata":"Q309478","ISO3166-2":"SD-GD","admin_level":"4","is_in:country":"Sudan","is_in:continent":"Africa","is_in:country_code":"SD"}}},{"arcs":[[15,-15,16,17]],"type":"Polygon","properties":{"srid":"4326","id":"3774674","name":"Gezira State","localname":"ولاية الجزيرة","official_name":"","boundary":"adminstrative","admin_level":"4","note":"","wikidata":"Q309469","wikipedia":"","timestamp":"2018-11-12 07:21:25","rpath":"3774674,192789,0","alltags":{"name":"ولاية الجزيرة","name:ar":"ولاية الجزيرة","name:de":"Al-Dschazira","name:en":"Gezira State","name:es":"Gezira","name:fr":"Al Jazirah","boundary":"administrative","wikidata":"Q309469","ISO3166-2":"SD-GZ","admin_level":"4","is_in:country":"Sudan","is_in:continent":"Africa","is_in:country_code":"SD"}}},{"arcs":[[18,19,20,-12,21]],"type":"Polygon","properties":{"srid":"4326","id":"3774665","name":"Kassala State","localname":"ولاية كسلا","official_name":"","boundary":"adminstrative","admin_level":"4","note":"","wikidata":"Q954963","wikipedia":"","timestamp":"2018-11-12 07:21:25","rpath":"3774665,192789,0","alltags":{"name":"ولاية كسلا","name:ar":"ولاية كسلا","name:de":"Kassala","name:en":"Kassala State","name:es":"Kasala","name:fr":"Kassala","boundary":"administrative","wikidata":"Q954963","ISO3166-2":"SD-KA","admin_level":"4","is_in:country":"Sudan","is_in:continent":"Africa","is_in:country_code":"SD"}}},{"arcs":[[22,23,-22,-11,-16,24,25]],"type":"Polygon","properties":{"srid":"4326","id":"3774673","name":"Khartoum State","localname":"ولاية الخرطوم","official_name":"","boundary":"adminstrative","admin_level":"4","note":"","wikidata":"Q310385","wikipedia":"","timestamp":"2018-11-12 07:21:25","rpath":"3774673,192789,0","alltags":{"name":"ولاية الخرطوم","name:ar":"ولاية الخرطوم","name:de":"Khartum","name:en":"Khartoum State","name:es":"Jartum","name:fr":"Khartoum","boundary":"administrative","wikidata":"Q310385","ISO3166-2":"SD-KH","admin_level":"4","is_in:country":"Sudan","is_in:continent":"Africa","is_in:country_code":"SD"}}},{"arcs":[[26,27,28,29,-7,30,-4,31]],"type":"Polygon","properties":{"srid":"4326","id":"3774668","name":"North Darfur State","localname":"ولاية شمال دارفور","official_name":"","boundary":"adminstrative","admin_level":"4","note":"","wikidata":"Q688306","wikipedia":"","timestamp":"2018-11-12 07:21:25","rpath":"3774668,192789,0","alltags":{"name":"ولاية شمال دارفور","name:ar":"ولاية شمال دارفور","name:de":"Nord-Darfur","name:en":"North Darfur State","name:es":"Darfur del Norte","name:fr":"Darfour du Nord","name:ru":"Северный Дарфур","boundary":"administrative","wikidata":"Q688306","ISO3166-2":"SD-DN","admin_level":"4","is_in:country":"Sudan","is_in:continent":"Africa","is_in:country_code":"SD"}}},{"arcs":[[32,-23,33,-28,34]],"type":"Polygon","properties":{"srid":"4326","id":"3774678","name":"Northern State","localname":"الولاية الشمالية","official_name":"","boundary":"adminstrative","admin_level":"4","note":"","wikidata":"Q310118","wikipedia":"","timestamp":"2018-11-12 07:21:25","rpath":"3774678,192789,0","alltags":{"name":"الولاية الشمالية","name:ar":"الولاية الشمالية","name:en":"Northern State","name:es":"Norte","name:fr":"Nord","name:ru":"Северная провинция","boundary":"administrative","wikidata":"Q310118","ISO3166-2":"SD-NO","admin_level":"4","is_in:country":"Sudan","is_in:continent":"Africa","is_in:country_code":"SD"}}},{"arcs":[[-34,-26,35,36,37,-29]],"type":"Polygon","properties":{"srid":"4326","id":"3774669","name":"North Kordofan State","localname":"ولاية شمال كردفان","official_name":"","boundary":"adminstrative","admin_level":"4","note":"","wikidata":"Q864093","wikipedia":"","timestamp":"2018-11-12 07:21:25","rpath":"3774669,192789,0","alltags":{"name":"ولاية شمال كردفان","name:ar":"ولاية شمال كردفان","name:de":"Nord-Kurdufan","name:en":"North Kordofan State","name:es":"Kordofán del Norte","name:fr":"Kordofan du Nord","name:ru":"Северный Кордофан","boundary":"administrative","wikidata":"Q864093","ISO3166-2":"SD-KN","admin_level":"4","is_in:country":"Sudan","is_in:continent":"Africa","is_in:country_code":"SD"}}},{"arcs":[[38,-20,39]],"type":"Polygon","properties":{"srid":"4326","id":"3774672","name":"Red Sea State","localname":"ولاية البحر الأحمر","official_name":"","boundary":"adminstrative","admin_level":"4","note":"","wikidata":"Q310120","wikipedia":"","timestamp":"2018-11-12 07:21:25","rpath":"3774672,192789,0","alltags":{"name":"ولاية البحر الأحمر","is_in":"Sudan","name:ar":"ولاية البحر الأحمر","name:de":"Rotes Meer","name:en":"Red Sea State","name:es":"Mar Rojo","name:fr":"Mer Rouge","name:ru":"Красное Море","boundary":"administrative","int_name":"Al Baḩr al Aḩmar","wikidata":"Q310120","ISO3166-2":"SD-RS","admin_level":"4","is_in:country":"Sudan","is_in:continent":"Africa","is_in:country_code":"SD"}}},{"arcs":[[-33,40,-40,-19,-24]],"type":"Polygon","properties":{"srid":"4326","id":"3774666","name":"River Nile State","localname":"ولاية نهر النيل","official_name":"","boundary":"adminstrative","admin_level":"4","note":"","wikidata":"Q849297","wikipedia":"","timestamp":"2018-11-12 07:21:25","rpath":"3774666,192789,0","alltags":{"name":"ولاية نهر النيل","name:ar":"ولاية نهر النيل","name:de":"Nil-Fluss","name:en":"River Nile State","name:es":"Río Nilo","name:fr":"Nil","name:ru":"Нил","boundary":"administrative","wikidata":"Q849297","ISO3166-2":"SD-NR","admin_level":"4","is_in:country":"Sudan","is_in:continent":"Africa","is_in:country_code":"SD"}}},{"arcs":[[-17,-14,41,-1,42,43]],"type":"Polygon","properties":{"srid":"4326","id":"3774667","name":"Sennar State","localname":"ولاية سنار","official_name":"","boundary":"adminstrative","admin_level":"4","note":"","wikidata":"Q865534","wikipedia":"ar:ولاية سنار","timestamp":"2018-11-12 07:21:25","rpath":"3774667,192789,0","alltags":{"name":"ولاية سنار","name:ar":"ولاية سنار","name:de":"Sannar","name:en":"Sennar State","name:es":"Sennar","name:fr":"Sannar","boundary":"administrative","int_name":"Sennar","wikidata":"Q865534","ISO3166-2":"SD-SI","wikipedia":"ar:ولاية سنار","admin_level":"4","is_in:country":"Sudan","is_in:continent":"Africa","is_in:country_code":"SD"}}},{"arcs":[[-5,-31,-10,44]],"type":"Polygon","properties":{"srid":"4326","id":"3774662","name":"South Darfur State","localname":"ولاية جنوب دارفور","official_name":"","boundary":"adminstrative","admin_level":"4","note":"","wikidata":"Q838778","wikipedia":"","timestamp":"2018-11-12 07:21:25","rpath":"3774662,192789,0","alltags":{"name":"ولاية جنوب دارفور","name:ar":"جنوب دارفور","name:de":"Süd-Darfur","name:en":"South Darfur State","name:es":"Darfur del Sur","name:fr":"Darfour du Sud","boundary":"administrative","wikidata":"Q838778","ISO3166-2":"SD-DS","admin_level":"4","is_in:country":"Sudan","is_in:continent":"Africa","is_in:country_code":"SD"}}},{"arcs":[[-37,45,46,47]],"type":"Polygon","properties":{"srid":"4326","id":"3774663","name":"South Kordofan State","localname":"ولاية جنوب كردفان","official_name":"","boundary":"adminstrative","admin_level":"4","note":"","wikidata":"Q465490","wikipedia":"","timestamp":"2018-11-12 07:21:25","rpath":"3774663,192789,0","alltags":{"name":"ولاية جنوب كردفان","name:ar":"ولاية جنوب كردفان","name:de":"Süd-Kurdufan","name:en":"South Kordofan State","name:es":"Kordofán del Sur","name:fr":"Kordofan du Sud","name:ru":"Южный Кордофан","boundary":"administrative","wikidata":"Q465490","ISO3166-2":"SD-KS","admin_level":"4","is_in:country":"Sudan","is_in:continent":"Africa","is_in:country_code":"SD"}}},{"arcs":[[-32,-3,48]],"type":"Polygon","properties":{"srid":"4326","id":"3774664","name":"West Darfur State","localname":"ولاية غرب دارفور","official_name":"","boundary":"adminstrative","admin_level":"4","note":"","wikidata":"Q846331","wikipedia":"ar:ولاية غرب دارفور","timestamp":"2018-11-12 07:21:25","rpath":"3774664,192789,0","alltags":{"name":"ولاية غرب دارفور","name:ar":"ولاية غرب دارفور","name:de":"West-Darfur","name:en":"West Darfur State","name:es":"Darfur del Oeste","name:fr":"Darfour-Occidental","boundary":"administrative","wikidata":"Q846331","ISO3166-2":"SD-DW","wikipedia":"ar:ولاية غرب دارفور","short_name":"غرب دارفور","admin_level":"4","is_in:country":"Sudan","short_name:ar":"غرب دارفور","is_in:continent":"Africa","is_in:country_code":"SD"}}},{"arcs":[[-38,-48,49,-8,-30]],"type":"Polygon","properties":{"srid":"4326","id":"7329336","name":"West Kurdufan","localname":"ولاية غرب كردفان","official_name":"","boundary":"adminstrative","admin_level":"4","note":"","wikidata":"Q536396","wikipedia":"","timestamp":"2018-11-12 07:21:25","rpath":"7329336,192789,0","alltags":{"name":"ولاية غرب كردفان","name:ar":"ولاية غرب كردفان","name:de":"West-Kurdufan","name:en":"West Kurdufan","name:es":"Kordofán del Oeste","name:fr":"Kordofan de l’Ouest","boundary":"administrative","wikidata":"Q536396","ISO3166-2":"SD-GK","admin_level":"4","is_in:country":"Sudan","is_in:continent":"Africa","is_in:country_code":"SD"}}},{"arcs":[[-25,-18,-44,50,-46,-36]],"type":"Polygon","properties":{"srid":"4326","id":"3774676","name":"White Nile State","localname":"ولاية النيل الأبيض","official_name":"","boundary":"adminstrative","admin_level":"4","note":"","wikidata":"Q311371","wikipedia":"ar:ولاية النيل الأبيض","timestamp":"2018-11-12 07:21:25","rpath":"3774676,192789,0","alltags":{"name":"ولاية النيل الأبيض","name:ar":"ولاية النيل الأبيض","name:de":"Weißer Nil","name:en":"White Nile State","name:es":"Nilo Blanco","name:fr":"Nil Blanc","boundary":"administrative","wikidata":"Q311371","ISO3166-2":"SD-NW","wikipedia":"ar:ولاية النيل الأبيض","admin_level":"4","is_in:country":"Sudan","is_in:continent":"Africa","is_in:country_code":"SD"}}}]}}}