{"type":"Topology","arcs":[[[4117,3365],[69,56],[104,6],[75,57],[51,-9],[4,56],[87,132],[24,50],[60,8],[132,-7],[-15,54],[52,39],[31,52],[8,69],[32,49],[45,-14],[67,76],[48,131]],[[4991,4170],[40,25],[79,79],[19,2],[43,-74],[41,-35],[76,19],[109,-10],[30,19],[30,72],[11,93],[-59,49],[23,63],[3,66],[-22,56],[36,12],[42,69],[-7,35],[67,34],[27,-25],[111,7],[207,24],[66,27],[45,-12],[37,26],[48,-78],[14,-73],[80,11],[39,41],[35,93],[48,17],[72,106],[155,17],[61,37],[75,20],[57,-10],[39,31],[113,-27],[32,16],[99,-17],[45,-27],[19,-37],[50,-24],[37,22],[57,-48],[52,-18],[28,-44],[150,77],[86,-47],[108,23],[183,-11],[57,36],[39,-34]],[[7923,4843],[58,-26],[102,-17],[38,6],[219,-39],[44,78],[27,-33],[158,-67],[46,-40]],[[8615,4705],[-57,-34],[-8,-83],[-112,-111],[8,-91],[-15,-25],[33,-70],[-64,-68],[1,-118],[21,-34],[48,8],[117,-116],[37,-24],[16,-54],[57,-73],[-17,-55],[26,-84],[-18,-51],[62,-25],[28,16],[53,-42],[-56,-198],[3,-45],[-35,-65],[-40,-23],[-8,-70],[26,-26],[-8,-63],[88,-28],[0,-48],[71,0],[26,29],[39,-48],[48,21],[14,36],[42,-11],[47,24],[21,-40]],[[9109,3016],[14,-46],[-45,-17],[-89,-125],[11,-58],[-20,-67],[-26,-22],[13,-81],[-100,-126],[-2,-59],[-80,-78],[-24,-108],[-37,-29],[-66,-15],[-88,70],[-37,4],[-16,-71],[-83,-59],[-71,13],[-71,-32],[-17,-78],[-76,-64],[-29,-51],[-52,-22],[-45,-99],[-60,40],[-63,-22],[-36,-40],[-36,15],[-27,-57],[-38,-27],[-48,-63],[-79,-22],[36,97],[-34,74],[-102,34],[-65,-50],[-47,19],[-18,-53],[-30,-3],[-31,49],[57,73],[-16,48],[-92,74],[-65,12],[-38,-58],[-40,-2],[-64,49],[-35,117],[-29,-14],[-59,50],[-59,-49],[-74,-90],[-77,-44],[-45,-3],[0,-57],[-53,-52],[11,-98],[-31,-39],[-21,-114],[6,-31],[-39,-63],[-46,-32],[-29,55],[-32,-2],[-29,-46],[-64,-18],[-33,31],[-47,-22],[-96,16],[-71,-9],[-65,-60],[-53,-13],[-39,-68],[-68,43],[-54,-16],[-80,19],[-78,35],[-48,-33],[-60,30],[-67,-63],[-109,83]],[[5464,1426],[-3,64],[43,66],[43,25],[48,82],[-41,105],[50,143],[-50,38],[-45,-50],[-115,-21],[-95,-58],[-27,15],[-16,-75],[-153,11],[-58,52],[-49,15],[-18,-47],[-31,-6],[-20,94],[78,76],[-58,98],[-8,63],[22,54],[66,40],[-2,72],[32,83],[-18,61],[-31,2],[-22,48],[-20,125],[-15,31],[-67,26],[-92,160],[-30,-1],[-52,-64],[-41,-28],[-57,-157],[-44,-29],[-63,24],[-19,-26],[-61,-17],[-70,20],[-40,-83],[-60,-24],[8,77],[21,38],[55,35],[19,69],[-35,176],[-54,-3],[18,61],[-28,30],[-10,143],[19,102],[-68,43],[-75,-26],[52,94],[-35,73],[-25,20]],[[273,3312],[53,8],[-11,39],[41,18],[170,15],[27,33],[74,-20],[33,21],[54,-69],[80,19],[114,55],[79,20],[2,46],[78,36],[6,41],[36,37],[32,-2],[82,190],[62,-29],[43,-61],[16,-102],[-84,-110],[-46,-32],[-15,-46],[-97,-75],[73,-48],[13,-38],[88,-85],[-50,-90],[-36,-13],[-31,-45],[37,-60],[74,2],[38,-55],[70,1],[-4,-75],[39,-11],[35,-53],[9,-76],[41,-68],[38,18],[64,-90],[-11,-45],[-60,-91],[56,-79],[79,-50],[27,-38],[-78,-108],[-24,-73],[117,-47],[-48,-76],[52,-45],[-18,-79],[-35,-28],[-37,16],[-46,-82],[-87,-33],[-41,38],[-35,77],[-71,-49],[15,-63],[-3,-60],[-97,-49],[-68,-13],[-16,-66],[49,-43],[42,29],[16,-45],[-35,-17],[-54,-86],[-39,-11],[7,-51],[-50,-9],[-86,-127]],[[1021,1155],[-14,43],[-38,-25],[-63,16],[-103,-56],[-43,56],[-42,3],[-42,42],[-51,-47],[-57,48],[52,59],[-41,43],[12,124],[41,55],[-38,26],[-51,156],[-53,-17],[-151,134],[1,68],[-48,156],[-27,32],[26,120],[-29,29],[-54,5],[-60,111],[-13,60],[36,46],[-91,52],[-3,49],[-72,10],[-5,80],[36,101],[-13,52],[30,40],[-27,73],[-4,58],[99,109],[22,88],[40,13],[19,81],[46,2],[25,62]],[[8615,4705],[53,8],[17,96],[28,33],[46,-3],[44,70],[-20,38],[-90,8],[5,42],[78,88],[89,62],[25,-2],[65,46],[34,-13],[72,38],[55,-16],[38,-49],[69,52],[-10,27],[36,75],[16,-80],[67,-42],[64,-76],[94,27],[39,-106],[108,21],[11,64],[82,36],[58,-61],[29,34],[60,-33],[13,81],[33,50],[76,-51],[12,-47],[64,-21],[61,25],[67,-54],[52,2],[76,-67],[56,53],[34,-5],[11,-95],[58,-55],[17,-66],[40,-14],[56,10],[51,-37],[143,20],[53,-26],[21,-54],[42,-47],[39,57],[67,-55],[92,11],[11,-55],[-53,-37],[6,-93],[30,-36],[69,-36],[50,21],[27,81],[55,14],[74,-6],[41,82],[-24,93],[51,19],[28,-21],[114,-35],[62,47],[22,-58],[34,-8],[-11,-65],[37,-63],[31,-9],[24,-47],[-9,-42],[51,-82],[74,-5],[100,-72],[56,27],[54,-1],[10,-30],[55,-41],[70,7],[191,112],[44,62],[-36,63],[14,60],[-28,87],[17,28],[-25,70],[5,52],[35,31],[54,-10],[15,-43],[50,21],[54,-5],[110,-45],[80,-47],[7,-76],[31,-16],[81,-1],[0,-32],[94,-5],[108,35],[151,-10],[-14,178],[77,23],[9,47],[60,62],[11,38],[102,-6],[14,-83],[50,-110],[8,-62],[80,18],[31,-8],[63,28],[24,-20],[99,-1],[18,-32]],[[13934,4656],[-18,-116],[20,-39],[8,-105],[-34,-68],[-58,-45],[-18,-84],[43,-38],[4,-48],[-41,-100],[-15,-91],[-93,-31],[-51,-61],[-68,-54],[-37,-85],[-63,-27],[-30,-40],[-35,-6],[-46,-93],[-26,-83],[-7,-166],[-52,-389],[2,-74],[35,-77],[-79,-72],[-65,-5],[-47,41],[-55,-40],[-84,62],[-67,-62],[-105,9],[-66,-73],[-42,26],[-122,-50],[-15,41],[-51,-20],[6,-74],[-30,-37],[-67,34],[-87,-14],[-47,39],[-40,2],[-44,35],[-24,93],[-47,34],[-38,4],[-7,92],[-87,196],[-23,28],[-2,107],[-69,88],[-36,-36],[-96,36],[-41,38],[-17,100],[-24,32],[-58,22],[-116,104],[-46,-43],[-12,-64],[-54,17],[-39,-22],[-130,6],[-41,-79],[8,-37],[-45,-40],[-113,43],[-89,-2],[-95,-55],[-44,14],[-47,-54],[-36,-67],[-68,9],[-9,68],[-79,61],[-81,5],[-47,22],[-148,-44],[-1,51],[-54,29],[-14,51],[-32,28],[-98,-39],[-55,66],[-12,60],[-36,6],[-93,-34],[-184,-21],[-33,4],[-86,-41],[-63,4],[-23,-36],[-53,-8],[-93,-62],[-101,35],[-22,-67],[-47,39],[-31,-12],[6,-78],[-11,-104],[-40,-60],[-62,-49]],[[2173,113],[62,70],[-10,74],[17,52],[85,4],[10,28],[55,26],[19,54],[-10,87],[25,59],[67,24],[34,70],[102,76],[-39,72],[35,60],[-1,49],[-27,29],[16,109],[-26,78],[-4,65],[40,48],[-32,77],[-45,6],[-39,37],[-59,9],[-31,43],[44,117],[-17,38],[-90,107],[-57,36],[58,40],[56,-40],[41,29],[11,69],[-51,56],[50,63],[58,-49],[84,48],[12,59],[-71,66],[-18,62],[11,62],[41,72],[-27,39],[-42,2],[-15,39],[34,35],[6,104],[28,21],[-13,55],[37,28],[29,74],[57,88],[42,132],[104,150],[-61,46],[-56,69],[-66,49],[-73,18],[-38,51],[49,46],[-3,48],[19,70],[32,35],[29,92],[72,-44],[72,6],[54,33],[28,41],[-16,47]],[[2861,3628],[42,21],[59,90],[-29,77],[-43,195],[40,35],[46,-3],[8,-44],[140,-29],[56,2],[91,-112],[14,-57],[42,-50],[50,15],[37,-57],[70,-14],[68,-82],[0,-19],[-100,-115],[34,-43],[0,-48],[68,5],[78,-62],[55,-110],[9,-71],[79,-28],[112,44],[68,83],[68,31],[94,83]],[[5464,1426],[-45,-39],[-15,-44],[-156,-3],[-49,-24],[-58,26],[-28,-42],[-73,22],[-31,-17],[-17,-67],[-28,-45],[14,-56],[-26,-73],[-37,-19],[-73,-3],[-29,-51],[43,-41],[3,-98],[-41,-85],[18,-150],[-4,-38],[148,-89],[15,-66],[70,-34],[-18,-39],[-142,26],[-134,-41],[-19,-72],[-123,-115],[-91,-35],[-90,-4],[-91,28],[-89,-2],[-88,-45],[-45,3],[-33,33],[-47,12],[-51,-35],[-99,-20],[-51,-27],[-132,-42],[-77,-15],[-59,24],[-129,21],[-111,-3],[-95,36],[-119,25],[-123,5],[-85,-47],[-80,48],[-59,-51],[-137,-26],[-85,25],[-90,-21],[-59,16],[-57,-18],[-33,36],[-133,28],[-18,15]],[[7650,6064],[47,38],[2,70],[40,23],[131,-24],[26,7],[68,-48],[30,-77],[50,-18],[88,-75],[32,3],[-3,116],[37,62],[-10,49],[12,76],[65,96],[5,79],[41,93],[31,-47],[42,30],[49,116],[118,34],[61,-14],[66,18],[68,-19],[25,182],[-11,49],[92,-20],[35,40],[17,-69],[64,9],[30,50],[111,44],[99,-50],[16,-43],[92,-33],[69,-37],[68,52],[27,101],[121,-42],[83,68],[76,-1],[58,-33],[22,-39],[-15,-54],[78,-58],[4,-55],[52,-26],[60,-86],[35,2],[37,51],[28,1],[80,-93],[71,-119],[172,68],[-15,44],[21,39],[119,134],[126,-1],[25,47],[-124,113],[-19,54],[24,19],[100,32],[44,-23],[25,52],[71,-39],[101,-107],[88,66],[-8,40],[89,82],[45,59],[74,-52],[76,13],[175,-103],[69,-59],[113,15],[42,57],[39,-41],[48,63],[55,-8],[30,34],[49,-31],[45,6],[33,39],[41,11],[70,-126],[65,-22],[32,28],[66,-31],[6,-48],[94,-64],[12,-77],[25,-36],[48,92],[108,54],[48,-95],[41,21],[45,-67],[62,-13],[31,-30],[77,9],[42,-97],[15,-64],[73,-88],[54,-41],[-3,-57],[22,-31],[-28,-132],[119,-67],[103,-33],[143,-73],[39,-38],[46,35],[53,-7],[14,-108],[115,-51],[97,-27],[35,45],[89,-4],[22,-56],[29,-19],[60,-104],[104,7],[80,-63],[131,26],[42,-30],[-12,-101],[0,-135],[-33,-37],[19,-59],[-62,-42],[-39,13],[-71,-36],[-28,-75],[-95,-169],[-18,-195],[-67,-30],[-29,-62]],[[7923,4843],[86,16],[72,58],[-56,35],[-31,61],[10,64],[-35,32],[-44,85],[-74,66],[21,33],[96,-8],[7,87],[35,81],[-16,46],[24,45],[19,126],[-27,11],[-57,-28],[-101,34],[-29,-10],[-10,71],[39,48],[39,2],[-2,70],[-52,-52],[-79,-8],[-30,-53],[-48,7],[21,48],[47,52],[-4,71],[-59,68],[7,47],[-42,16]],[[1396,4455],[99,112],[43,26],[60,-22],[108,-118],[66,14],[28,51],[80,-14],[33,65],[47,4],[30,53],[86,-3],[40,28],[53,0],[78,78],[39,78],[81,74],[-4,35],[177,9],[46,-20],[39,21],[9,67],[25,45],[13,121],[26,50],[-6,39],[31,58],[68,21],[58,-10],[41,24],[42,-30],[43,0],[101,56],[44,47],[85,189],[-14,88],[23,38],[-32,47],[30,77],[45,34],[-17,30],[2,85],[29,33],[35,134],[-23,78],[39,49],[56,42],[-2,67],[96,35],[66,-2],[59,30],[63,9],[65,44]],[[3725,6521],[127,16],[8,-59],[38,-34],[17,-57],[59,-74],[13,-68],[94,-179],[-1,-46],[57,-48],[172,-111],[-4,-33],[54,-15],[-1,-77],[37,-53],[-81,-93],[46,-6],[59,-61],[10,-76],[-8,-124],[-75,-107],[-102,-33],[-50,-32],[-30,-77],[-87,-38],[28,-54],[129,-14],[37,38],[42,5],[22,54],[48,21],[122,-7],[81,-36],[74,13],[56,-67],[-18,-49],[-38,-13],[-4,-67],[37,-58],[-20,-61],[-4,-144],[139,-91],[-8,-23],[75,-66],[-8,-56],[83,-88],[41,-103]],[[2861,3628],[-39,-4],[-17,43],[-65,-1],[-115,34],[-34,32],[-68,-1],[-14,56],[-34,8],[-13,-56],[-98,4],[-94,45],[-39,69],[-67,59],[-98,-70],[-119,-13],[25,-73],[-120,-28],[-42,29],[-71,-75],[-62,86],[-17,72],[-34,24],[-54,122],[27,103],[36,56],[-33,28],[-14,62],[-42,3],[-85,42],[-1,50],[-30,14],[-47,-63],[-47,-2],[-11,65],[59,31],[12,76]],[[2173,113],[-20,38],[-94,88],[-74,57],[-66,79],[-89,-33],[-46,66],[-20,90],[-57,63],[-56,-1],[-49,44],[-62,29],[-54,147],[-51,57],[-28,61],[-48,27],[-115,149],[-27,12],[-117,-5],[-52,19],[-27,55]],[[273,3312],[-36,152],[9,45],[-12,76],[12,51],[57,72],[19,67],[-3,85],[32,59],[44,43],[-2,63],[34,33],[12,55],[67,137],[65,64],[52,28],[4,41],[39,54],[-2,63],[24,37],[96,46],[98,125],[126,-26],[178,-103],[103,-88],[25,-35],[37,23],[45,-24]],[[3725,6521],[108,39],[33,25],[49,108],[41,54],[-14,82],[103,15],[5,28],[59,34],[2,34],[40,74],[77,60],[5,29],[58,47],[-34,69],[29,66],[69,32],[60,8],[14,-54],[47,-6],[108,27],[116,1],[63,-51],[47,-7],[63,68],[83,47],[70,-6],[69,18],[74,-20],[112,18],[75,-60],[-28,-88],[25,-25],[-24,-91],[33,-13],[36,-81],[-6,-41],[-43,-35],[6,-47],[141,-33],[29,13],[38,74],[96,3],[39,-50],[76,26],[39,-26],[61,42],[50,3],[-28,71],[31,67],[51,2],[24,62],[-19,46],[41,111],[-9,37],[69,68],[52,33],[85,5],[8,-22],[104,18],[22,39],[7,92],[72,28],[25,74],[80,26],[3,44],[61,19],[4,-71],[34,-43],[69,-19],[49,-35],[3,-153],[53,-116],[5,-73],[71,-132],[39,3],[35,-48],[75,44],[-9,-70],[27,-21],[-34,-95],[127,-37],[73,-47],[38,-1],[42,66],[54,21],[58,-9],[5,-132],[24,-35],[-16,-89],[23,-106],[-31,-83],[43,-30],[33,-77],[-77,-36],[-5,-52],[-61,-85],[-7,-112],[80,-38],[31,30],[94,-43],[49,7],[49,30]]],"transform":{"scale":[0.0003977040921428073,0.00024285049671010227],"translate":[16.8413499,47.7314286]},"objects":{"sk_slim":{"type":"GeometryCollection","geometries":[{"arcs":[[0,1,2,3,4,5]],"type":"Polygon","properties":{"srid":"4326","id":"388270","name":"Region of Banská Bystrica","localname":"Banskobystrický kraj","official_name":"","boundary":"adminstrative","admin_level":"4","note":"","wikidata":"Q183640","wikipedia":"","timestamp":"2019-01-24 07:35:12","rpath":"388270,14296,0","alltags":{"ref":"SK032","name":"Banskobystrický kraj","name:ar":"إقليم بانسكا بيستريتسا","name:de":"Neusohler Landschaftsverband","name:en":"Region of Banská Bystrica","name:es":"Región de Banská Bystrica","name:fr":"Région de Banská Bystrica","name:hr":"Banskobistrički kraj","name:hu":"Besztercebányai kerület","name:pl":"Kraj bańskobystrzycki","name:ru":"Банскобистрицкий край","name:uk":"Банськобистрицький край","boundary":"administrative","wikidata":"Q183640","ISO3166-2":"SK-BC","admin_level":"4","is_in:country":"Slovakia","is_in:continent":"Europe","is_in:country_code":"SK"}}},{"arcs":[[6,7]],"type":"Polygon","properties":{"srid":"4326","id":"388265","name":"Region of Bratislava","localname":"Bratislavský kraj","official_name":"","boundary":"adminstrative","admin_level":"4","note":"","wikidata":"Q183498","wikipedia":"sk:Bratislavský kraj","timestamp":"2019-01-24 07:35:12","rpath":"388265,14296,0","alltags":{"ref":"SK010","name":"Bratislavský kraj","NUTS3":"SK010","name:ar":"إقليم براتيسلافا","name:de":"Bratislavaer Landschaftsverband","name:en":"Region of Bratislava","name:es":"Región de Bratislava","name:fr":"Région de Bratislava","name:hr":"Bratislavski kraj","name:hu":"Pozsonyi kerület","name:pl":"Kraj bratysławski","name:ru":"Братиславский край","name:uk":"Братиславський край","boundary":"administrative","wikidata":"Q183498","ISO3166-2":"SK-BL","wikipedia":"sk:Bratislavský kraj","admin_level":"4","old_name:de":"Bratislavaer Landschaftsverband","is_in:country":"Slovakia","is_in:continent":"Europe","is_in:country_code":"SK"}}},{"arcs":[[8,9,-4]],"type":"Polygon","properties":{"srid":"4326","id":"388272","name":"Region of Košice","localname":"Košický kraj","official_name":"","boundary":"adminstrative","admin_level":"4","note":"","wikidata":"Q186295","wikipedia":"","timestamp":"2019-01-24 07:35:12","rpath":"388272,14296,0","alltags":{"ref":"SK042","name":"Košický kraj","NUTS3":"SK042","name:ar":"إقليم كوشيتسه","name:de":"Kaschauer Landschaftsverband","name:en":"Region of Košice","name:es":"Región de Košice","name:fr":"Région de Košice","name:hr":"Košički kraj","name:hu":"Kassai kerület","name:pl":"Kraj koszycki","name:ro":"Regiunea Košice","name:ru":"Кошицкий край","name:sk":"Košický kraj","name:uk":"Кошицький край","boundary":"administrative","wikidata":"Q186295","ISO3166-2":"SK-KI","admin_level":"4","is_in:country":"Slovakia","is_in:continent":"Europe","is_in:country_code":"SK"}}},{"arcs":[[10,11,-6,12]],"type":"Polygon","properties":{"srid":"4326","id":"388268","name":"Region of Nitra","localname":"Nitriansky kraj","official_name":"","boundary":"adminstrative","admin_level":"4","note":"","wikidata":"Q184548","wikipedia":"sk:Nitriansky kraj","timestamp":"2019-01-24 07:35:12","rpath":"388268,14296,0","alltags":{"ref":"SK023","name":"Nitriansky kraj","NUTS3":"SK023","name:ar":"إقليم نيترا","name:de":"Neutraer Landschaftsverband","name:en":"Region of Nitra","name:es":"Región de Nitra","name:fr":"Région de Nitra","name:hr":"Nitranski kraj","name:hu":"Nyitrai kerület","name:pl":"Kraj nitrzański","name:ru":"Нитранский край","name:uk":"Нітранський край","boundary":"administrative","wikidata":"Q184548","ISO3166-2":"SK-NI","wikipedia":"sk:Nitriansky kraj","admin_level":"4","is_in:country":"Slovakia","is_in:continent":"Europe","is_in:country_code":"SK"}}},{"arcs":[[13,-9,-3,14]],"type":"Polygon","properties":{"srid":"4326","id":"388271","name":"Region of Prešov","localname":"Prešovský kraj","official_name":"","boundary":"adminstrative","admin_level":"4","note":"","wikidata":"Q189001","wikipedia":"","timestamp":"2019-01-24 07:35:12","rpath":"388271,14296,0","alltags":{"ref":"SK041","name":"Prešovský kraj","NUTS3":"SK041","name:ar":"إقليم بريشوف","name:de":"Eperieser Landschaftsverband","name:en":"Region of Prešov","name:es":"Región de Prešov","name:fr":"Région de Prešov","name:hr":"Prešovski kraj","name:hu":"Eperjesi kerület","name:pl":"Kraj preszowski","name:ru":"Прешовский край","name:uk":"Пряшівський край","boundary":"administrative","wikidata":"Q189001","ISO3166-2":"SK-PV","admin_level":"4","is_in:country":"Slovakia","is_in:continent":"Europe","is_in:country_code":"SK"}}},{"arcs":[[15,16,-1,-12,17]],"type":"Polygon","properties":{"srid":"4326","id":"388267","name":"Region of Trenčín","localname":"Trenčiansky kraj","official_name":"","boundary":"adminstrative","admin_level":"4","note":"","wikidata":"Q183139","wikipedia":"sk:Trenčiansky kraj","timestamp":"2019-01-24 07:35:12","rpath":"388267,14296,0","alltags":{"ref":"SK022","name":"Trenčiansky kraj","NUTS3":"SK022","name:ar":"إقليم ترنتشين","name:de":"Trentschiner Landschaftsverband","name:en":"Region of Trenčín","name:es":"Región de Trenčín","name:fr":"Région de Trenčín","name:hr":"Trenčinski kraj","name:hu":"Trencséni kerület","name:pl":"Kraj trenczyński","name:ru":"Тренчинский край","name:uk":"Тренчинський край","boundary":"administrative","wikidata":"Q183139","ISO3166-2":"SK-TC","wikipedia":"sk:Trenčiansky kraj","admin_level":"4","is_in:country":"Slovakia","is_in:continent":"Europe","is_in:country_code":"SK"}}},{"arcs":[[-18,-11,18,-7,19]],"type":"Polygon","properties":{"srid":"4326","id":"388266","name":"Region of Trnava","localname":"Trnavský kraj","official_name":"","boundary":"adminstrative","admin_level":"4","note":"","wikidata":"Q181342","wikipedia":"sk:Trnavský kraj","timestamp":"2019-01-24 07:35:12","rpath":"388266,14296,0","alltags":{"ref":"SK021","name":"Trnavský kraj","NUTS3":"SK021","name:ar":"إقليم ترنافا","name:de":"Tyrnauer Landschaftsverband","name:en":"Region of Trnava","name:es":"Región de Trnava","name:fi":"Trnavan alue","name:fr":"Région de Trnava","name:hr":"Trnavski kraj","name:hu":"Nagyszombati kerület","name:lt":"Trnavos kraštas","name:pl":"Kraj trnawski","name:ru":"Трнавский край","name:uk":"Трнавський край","boundary":"administrative","wikidata":"Q181342","ISO3166-2":"SK-TA","wikipedia":"sk:Trnavský kraj","admin_level":"4","is_in:country":"Slovakia","is_in:continent":"Europe","is_in:country_code":"SK"}}},{"arcs":[[20,-15,-2,-17]],"type":"Polygon","properties":{"srid":"4326","id":"388269","name":"Region of Žilina","localname":"Žilinský kraj","official_name":"","boundary":"adminstrative","admin_level":"4","note":"","wikidata":"Q184228","wikipedia":"","timestamp":"2019-01-24 07:35:12","rpath":"388269,14296,0","alltags":{"ref":"SK031","name":"Žilinský kraj","NUTS3":"SK031","name:ar":"إقليم جيلينا","name:de":"Silleiner Landschaftsverband","name:en":"Region of Žilina","name:es":"Región de Žilina","name:fr":"Région de Žilina","name:hr":"Žilinski kraj","name:hu":"Zsolnai kerület","name:pl":"Kraj żyliński","name:ru":"Жилинский край","name:uk":"Жилінський край","boundary":"administrative","wikidata":"Q184228","ISO3166-2":"SK-ZI","admin_level":"4","is_in:country":"Slovakia","is_in:continent":"Europe","is_in:country_code":"SK"}}}]}}}