{"type":"Topology","arcs":[[[0,1298],[1,28],[37,8],[102,-43],[75,9],[66,109],[284,-26],[44,61],[36,24],[89,114],[43,9],[63,67],[186,122],[79,40],[26,26],[153,66],[116,14],[78,43],[41,-7],[60,74],[100,9],[47,80],[32,27],[51,-14],[65,8],[17,-11],[26,-137],[-44,-3],[-53,-66],[18,-79],[3,-59],[16,-34],[-12,-32],[-98,-24],[23,-64],[3,-87],[29,-31],[-48,-104],[71,-96],[49,-80],[41,-143],[4,-61],[-19,-29],[-77,-68],[-7,-36],[-46,-26],[3,-26],[-49,-67],[-25,-120],[-98,-23],[-18,-34],[-36,-24],[-22,-38],[-7,-51],[16,-13],[-2,-119],[31,-29],[-37,-25],[-15,-57],[-44,-59],[-36,-130],[-215,9],[-53,-10],[-75,4],[-68,-31],[-15,-31],[-37,17],[-49,-19],[-47,7],[-58,37],[-29,62],[-29,29],[9,40],[-59,50],[-33,45],[-46,-4],[-72,-50],[-66,-27],[-49,32],[-72,-14],[-21,-37],[-138,-27],[-76,13],[-40,30],[1,23],[62,136],[-72,245],[16,82],[94,98],[4,73],[-52,90],[9,23],[-25,36],[-73,49],[-21,24],[-12,60],[7,64],[-31,109]]],"transform":{"scale":[0.00005875033871808306,0.00004549326208178391],"translate":[12.4033246,43.8937002]},"objects":{"sm_slim":{"type":"GeometryCollection","geometries":[{"arcs":[[0]],"type":"Polygon","properties":{"srid":"4326","id":"54624","name":"San Marino","localname":"San Marino","official_name":"Serenissima Repubblica di San Marino","boundary":"adminstrative","admin_level":"2","note":"","wikidata":"Q238","wikipedia":"en:San Marino","timestamp":"2019-01-24 07:31:44","rpath":"54624,0","alltags":{"flag":"http://upload.wikimedia.org/wikipedia/commons/b/b1/Flag_of_San_Marino.svg","name":"San Marino","name:be":"Сан-Марына","name:bg":"Сан Марино","name:cs":"San Marino","name:de":"San Marino","name:el":"Άγιος Μαρίνος","name:en":"San Marino","name:eo":"San-Marino","name:fi":"San Marino","name:fr":"Saint-Marin","name:fy":"San Marino","name:hr":"San Marino","name:ia":"San Marino","name:io":"San Marino","name:lt":"San Marinas","name:mi":"Hato Marino","name:nl":"San Marino","name:ru":"Сан-Марино","name:ta":"சான் மரீனோ","name:uk":"Сан-Маріно","name:vo":"Sanmarinän","boundary":"administrative","int_name":"San Marino","name:jbo":"syn.marinos","name:scn":"San Marinu","name:tzl":"San Marino","timezone":"Europe/San_Marino","wikidata":"Q238","ISO3166-1":"SM","land_area":"administrative","wikipedia":"en:San Marino","population":"32528","admin_level":"2","official_name":"Serenissima Repubblica di San Marino","is_in:continent":"Europe","ISO3166-1:alpha2":"SM","ISO3166-1:alpha3":"SMR","default_language":"it","official_name:cs":"Republika San Marino","official_name:eo":"Respubliko San-Marino","official_name:es":"Serenísima República de San Marino","official_name:fr":"République de Saint-Marin","official_name:ia":"Serenissime Republica de San Marino","official_name:ru":"Республика Сан-Марино","ISO3166-1:numeric":"674"}}}]}}}