{"type":"Topology","arcs":[[[1785,6734],[-47,-85],[-61,-84],[-121,67],[-33,6],[-22,-23],[-104,-150],[-88,-106],[-33,-62],[-14,-3]],[[1262,6294],[-15,89],[-59,31],[-19,-6],[-16,11],[-28,70],[-81,87],[-30,49],[-9,23],[-14,47],[-24,61],[-15,12],[-7,25],[6,38],[26,42],[111,154],[159,258],[30,1],[8,-18],[35,-29],[18,1],[31,-28],[9,-47],[12,-28],[19,-9],[9,-22],[45,-77],[27,-37],[0,0],[65,-74],[36,-34],[45,-37],[59,-42],[1,-1],[89,-70]],[[1042,3294],[47,54],[21,36],[10,41],[10,18],[45,33],[58,35],[112,55],[64,23],[141,37],[123,23],[67,4],[26,-4],[101,-1],[90,-8],[22,3]],[[1979,3643],[7,-34],[41,-246],[40,-197],[28,-121],[-16,-89],[5,-240]],[[2084,2716],[-66,-11]],[[2018,2705],[-27,11],[-110,-6],[-72,45],[17,28],[0,100],[-11,23],[-61,133],[-126,40],[-39,0],[-45,-21],[-26,-19],[-39,-72],[-55,-61],[-93,-23],[-159,56]],[[1172,2939],[11,100],[-28,54],[-110,192],[-3,9]],[[2353,2003],[67,88]],[[2420,2091],[38,11],[79,8]],[[2537,2110],[-112,-70],[-72,-37]],[[5051,5537],[0,0],[-1,1],[-68,62],[-66,11],[-22,-33],[-28,-39],[-33,111],[-55,28],[-126,6],[-83,52],[-66,48],[-38,73],[-17,133]],[[4448,5990],[-11,240]],[[4437,6230],[-11,435],[-5,240],[-44,182],[-18,74],[0,1]],[[4359,7162],[1,0],[23,0],[55,15],[114,23],[19,15],[65,0],[31,22],[18,5],[25,37],[12,2],[0,0],[46,5],[20,9],[31,-11],[39,1],[67,31],[29,-7],[42,3],[40,22],[63,20],[20,18],[30,12],[0,0],[50,26],[33,37],[24,70],[45,37],[33,-2],[63,24],[20,-15],[74,-20],[40,-24],[53,-2],[51,-21],[19,4],[7,-19],[-21,-53],[5,-19],[-18,-28],[-36,-41],[-18,-30],[0,-1],[0,-31],[-24,-66],[-3,-47],[18,-45],[40,-13],[-20,-37],[-11,-34],[-4,-57],[6,-71],[1,-55],[22,-60],[-36,-15],[4,-26],[-14,-20],[-30,-6],[10,-24],[50,11],[52,1],[-22,26],[18,20],[51,-25],[39,4],[12,-19],[-23,-42],[-46,3],[-10,20],[-21,8],[-78,-10],[-38,-12],[-47,-24],[-21,-17],[3,-62],[-9,-48],[7,-67],[-12,-41],[0,-1],[-15,-35],[-15,-112],[-12,-36],[1,-41],[22,-36],[-20,-40],[-33,-48],[-18,-10],[-32,-39],[-5,-15],[0,-49],[-13,-20],[-62,-54],[-35,-35],[-20,-36],[-2,-25],[-13,-48],[-21,-24],[-10,-31],[3,-28],[-19,-34],[-32,-31],[-35,-61],[0,0]],[[776,1980],[63,361],[15,85],[32,178],[181,-16],[94,11],[0,11],[0,98],[11,231]],[[2018,2705],[17,-112],[-28,-134],[11,-33],[-22,-151],[16,-137],[1,-8],[-107,-47],[-305,-137],[-174,-71],[-151,-77],[-181,-92]],[[1095,1706],[-16,12],[-28,22],[-209,201],[-66,39]],[[2431,3980],[239,235],[366,314],[6,6]],[[3042,4535],[10,-8],[583,-132],[-137,-295],[65,-101],[75,-207],[2,-5],[-60,-388],[0,-3],[179,-86]],[[3759,3310],[-53,-66],[-80,-84],[-50,-66],[-30,-34],[-121,-119],[-77,-89],[-24,-24]],[[3324,2828],[-355,234]],[[2969,3062],[6,189],[-2,2],[-136,110],[-22,173],[55,112],[11,73],[-104,-23],[-182,44],[-28,38],[-136,200]],[[776,1980],[-418,-6],[-121,-379]],[[237,1595],[-235,-17]],[[2,1578],[-1,528],[0,74],[-1,290],[87,87],[90,86],[145,215],[156,215],[30,48],[16,11],[2,22],[30,21],[48,48],[58,0],[114,8],[69,5],[33,8],[46,18],[36,9],[44,0],[38,23]],[[1979,3643],[49,-5],[29,3],[136,-3],[11,13],[227,329]],[[2969,3062],[-170,-179],[-28,-28],[-49,-150],[-354,-27],[-80,4],[-44,23]],[[2244,2705],[-160,11]],[[574,321],[-4,0],[-1,0],[0,1],[0,0],[-1,0],[0,0],[0,1],[2,3],[0,0],[4,-5]],[[237,1595],[395,25],[160,8],[105,-318],[5,-17],[53,-219],[2,-9],[252,9]],[[1209,1074],[-2,-3],[-1,-1],[-1,-1],[-1,-1],[-4,-4],[-1,-1],[0,-1],[-1,-1],[-1,-1],[-1,-1],[-1,-1],[-9,-10],[-1,-1],[-4,-4],[-1,-1],[-1,-2],[-1,-1],[-3,-3],[-2,-2],[-1,-2],[-1,-1],[-2,-2],[-4,-5],[-1,-1],[-7,-8],[-2,-2],[-8,-10],[-1,0],[-3,-3],[-1,-2],[-1,-1],[-4,-4],[-5,-5],[-8,-10],[-4,-3],[-3,-4],[-1,-1],[-4,-4],[-4,-4],[-3,-3],[-3,-4],[-2,-2],[-1,-1],[-3,-3],[-4,-4],[-9,-11],[-4,-5],[-7,-8],[-4,-4],[-2,-3],[-2,-2],[-1,-1],[-1,-1],[0,0],[-1,0],[0,-1],[0,0],[-4,-4],[-2,-2],[-2,-2],[-1,-2],[-5,-5],[0,-1],[-1,0],[0,0],[0,0],[-1,-1],[0,0],[-94,-95],[-56,-53],[-19,-22],[-17,-36],[-17,-4],[-17,-24],[0,0],[-8,-9],[0,0],[-78,-91],[-48,-66],[0,0],[-37,-51],[-36,-20],[-27,-8],[0,0],[4,0],[0,0],[17,0],[0,0],[0,0],[0,-1],[-10,-22],[-30,-33],[0,-10],[-34,-22],[5,-12],[-27,-54],[-27,-36],[0,0],[-1,0],[11,0],[1,0],[1,0],[0,0],[-26,-11],[-11,-15],[1,-1],[1,-2],[-1,0],[-28,-50],[-53,-74],[-24,-43],[-21,-26],[0,-1],[-26,0],[-155,213],[-156,214],[0,353],[1,213],[0,187],[0,231],[-1,167]],[[2244,2705],[27,-117],[117,-173],[-1,0],[5,-6],[-5,-301],[33,-17]],[[2353,2003],[-86,-40],[-1,0],[-109,-65],[-135,-90],[-95,-74],[-96,-75],[-121,-114],[-35,-29],[-8,-16],[-37,-23],[-9,-12],[-89,-67],[-12,-15],[-44,-35],[-85,-79]],[[1391,1269],[-99,145],[-43,61],[-154,231]],[[1391,1269],[-75,-76],[-107,-119]],[[3324,2828],[-59,-61],[-46,-60],[-50,-54],[-1,-1],[-45,-50],[-49,-47],[-67,-53],[-26,-28],[-41,-32],[-23,-39],[-53,-42],[-18,-27],[-21,-17],[-11,-20],[-56,-53],[-58,-40],[-60,-31],[-103,-63]],[[3042,4535],[193,210],[255,265],[121,100]],[[3611,5110],[518,-85],[17,10],[275,158],[11,-1],[77,-5],[137,-67],[33,-5],[80,-94]],[[4759,5021],[-38,-56],[-55,-73],[-33,-56],[-13,-14],[-58,-93],[-44,-82],[-30,-73],[-36,-97],[-8,-46],[3,-27],[-14,-48],[-40,-88],[-33,-67],[-64,-102],[-42,-64],[-44,-76],[-60,-78],[-5,-13],[-54,-68],[-17,-25],[-61,-78],[-52,-80],[-25,-54],[-37,-66],[-34,-52],[-21,-40],[-21,-29],[-64,-66]],[[3611,5110],[234,244],[-35,0]],[[3810,5354],[116,118],[-44,16],[280,302],[94,0],[192,200]],[[5051,5537],[0,0],[-15,-23],[-12,-51],[-33,-31],[-46,-26],[-80,-79],[-13,-23],[-5,-45],[14,-18],[-4,-33],[-32,-45],[-2,-16],[-46,-98],[-18,-28]],[[2760,6515],[12,386]],[[2772,6901],[0,0],[49,-4],[47,10],[21,-2],[48,-44],[37,-10],[32,2],[41,17],[66,13],[74,40],[0,1],[45,26],[35,31],[32,8],[15,19],[46,13],[27,42],[144,64],[75,0],[42,-32],[41,-16],[52,16],[45,-4],[18,5],[0,0],[29,-4],[108,10],[47,42],[30,6],[31,28],[31,9],[32,-1],[24,13],[47,1],[33,10],[67,-20],[76,-28],[0,0]],[[4437,6230],[-264,-16],[-275,-22],[-323,-20],[-215,-13],[-105,-7],[-38,-5],[-223,180],[-212,171]],[[2782,6498],[-22,17]],[[3810,5354],[-499,1]],[[3311,5355],[49,312],[-55,106],[-44,5],[0,13],[-402,21],[17,100],[-39,246],[-55,340]],[[2035,5785],[0,300],[77,307],[36,45],[112,128],[444,-40],[56,-10]],[[3311,5355],[-10,0],[-409,142],[-343,115],[-184,62],[-330,111]],[[1785,6734],[17,-15],[52,-25],[32,-6],[18,6],[58,-12],[46,4],[58,18],[77,-8],[33,2],[34,18],[4,12],[39,26],[29,4],[51,25],[46,53],[77,4],[63,32],[13,23],[40,11],[79,47],[58,-27],[29,-20],[34,-5],[0,0]],[[2035,5785],[-170,58],[-128,41],[-46,22],[-23,22],[-24,7],[-9,15],[-64,52],[-21,22],[-52,40],[-16,6],[-31,37],[-32,23],[-38,12],[-8,15],[-30,19],[-14,40],[-42,32],[-17,2],[-8,44]]],"transform":{"scale":[0.0018188573272854161,0.0017926090681098204],"translate":[40.98918,-1.5985737]},"objects":{"so_slim":{"type":"GeometryCollection","geometries":[{"arcs":[[0,1]],"type":"Polygon","properties":{"srid":"4326","id":"1720051","name":"Awdal","localname":"عدل ‎‎ Awdal","official_name":"","boundary":"adminstrative","admin_level":"4","note":"","wikidata":"Q791667","wikipedia":"ar:عدل (الصومال)","timestamp":"2018-11-12 07:23:07","rpath":"1720051,3586169,192799,0","alltags":{"name":"عدل ‎‎ Awdal","name:ar":"عدل‎‎","name:de":"Awdal","name:en":"Awdal","name:es":"Awdal","name:fr":"Awdal","name:ru":"Авдал","boundary":"administrative","wikidata":"Q791667","ISO3166-2":"SO-AW","wikipedia":"ar:عدل (الصومال)","admin_level":"4","is_in:country":"Somalia","is_in:continent":"Africa","is_in:country_code":"SO"}}},{"arcs":[[2,3,4,5,6]],"type":"Polygon","properties":{"srid":"4326","id":"1720052","name":"Bakool","localname":"Bakool باكول","official_name":"","boundary":"adminstrative","admin_level":"4","note":"","wikidata":"Q282471","wikipedia":"ar:باكول‎‎","timestamp":"2018-11-12 07:23:07","rpath":"1720052,192799,0","alltags":{"name":"Bakool باكول","name:ar":"باكول‎‎","name:de":"Bakool","name:en":"Bakool","name:es":"Bakool","name:fr":"Bakool","name:ru":"Баколь","boundary":"administrative","wikidata":"Q282471","ISO3166-2":"SO-BK","wikipedia":"ar:باكول‎‎","admin_level":"4","is_in:country":"Somalia","is_in:continent":"Africa","is_in:country_code":"SO"}}},{"arcs":[[7,8,9]],"type":"Polygon","properties":{"srid":"4326","id":"1720053","name":"Banaadir","localname":"Banadir بنادر","official_name":"","boundary":"adminstrative","admin_level":"4","note":"","wikidata":"Q806070","wikipedia":"ar:بنادر","timestamp":"2018-11-12 07:23:07","rpath":"1720053,192799,0","alltags":{"name":"Banadir بنادر","name:ar":"بنادر","name:de":"Banaadir","name:en":"Banaadir","name:es":"Benadir","name:fr":"Banaadir","name:ru":"Бенадир","boundary":"administrative","wikidata":"Q806070","ISO3166-2":"SO-BN","wikipedia":"ar:بنادر","admin_level":"4","is_in:country":"Somalia","is_in:continent":"Africa","is_in:country_code":"SO"}}},{"arcs":[[10,11,12,13]],"type":"Polygon","properties":{"srid":"4326","id":"1720054","name":"Bari","localname":"‎‎ Bariباري","official_name":"","boundary":"adminstrative","admin_level":"4","note":"","wikidata":"Q729170","wikipedia":"ar:باري (الصومال)","timestamp":"2018-11-12 07:23:07","rpath":"1720054,192799,0","alltags":{"name":"‎‎ Bariباري","name:ar":"باري‎‎","name:de":"Bari","name:en":"Bari","name:es":"Bari","name:fr":"Bari","name:ru":"Бари","boundary":"administrative","wikidata":"Q729170","ISO3166-2":"SO-BR","wikipedia":"ar:باري (الصومال)","admin_level":"4","is_in:country":"Somalia","is_in:continent":"Africa","is_in:country_code":"SO"}}},{"arcs":[[14,-6,15,16]],"type":"Polygon","properties":{"srid":"4326","id":"1720055","name":"Bay","localname":"Bay باي","official_name":"","boundary":"adminstrative","admin_level":"4","note":"","wikidata":"Q812064","wikipedia":"ar:باي (الصومال)","timestamp":"2018-11-12 07:23:07","rpath":"1720055,192799,0","alltags":{"name":"Bay باي","name:ar":"باي‎‎","name:de":"Bay","name:en":"Bay","name:es":"Bay","name:fr":"Bay","name:it":"Bai","name:ru":"Бей","boundary":"administrative","wikidata":"Q812064","ISO3166-2":"SO-BY","wikipedia":"ar:باي (الصومال)","admin_level":"4","is_in:country":"Somalia","is_in:continent":"Africa","is_in:country_code":"SO"}}},{"arcs":[[17,18,19,20,21]],"type":"Polygon","properties":{"srid":"4326","id":"1720056","name":"Galgaduud","localname":"Galgaduud جلجدود","official_name":"","boundary":"adminstrative","admin_level":"4","note":"","wikidata":"Q876772","wikipedia":"ar:جلجدود","timestamp":"2018-11-12 07:23:07","rpath":"1720056,192799,0","alltags":{"name":"Galgaduud جلجدود","name:ar":"جلجدود‎‎","name:de":"Galguduud","name:en":"Galgaduud","name:es":"Galguduud","name:fr":"Galguduud","name:ru":"Галгудуд","boundary":"administrative","wikidata":"Q876772","ISO3166-2":"SO-GA","wikipedia":"ar:جلجدود","admin_level":"4","is_in:country":"Somalia","is_in:continent":"Africa","is_in:country_code":"SO"}}},{"arcs":[[-7,-15,22,23,24]],"type":"Polygon","properties":{"srid":"4326","id":"1720057","name":"Gedo","localname":"Gedo جدو","official_name":"","boundary":"adminstrative","admin_level":"4","note":"","wikidata":"Q856719","wikipedia":"ar:جدو","timestamp":"2018-11-12 07:23:07","rpath":"1720057,192799,0","alltags":{"name":"Gedo جدو","name:ar":"جدو","name:de":"Gedo","name:en":"Gedo","name:es":"Gedo","name:fr":"Gedo","name:it":"Ghedo","name:ru":"Гедо","boundary":"administrative","wikidata":"Q856719","ISO3166-2":"SO-GE","wikipedia":"ar:جدو","admin_level":"4","is_in:country":"Somalia","is_in:continent":"Africa","is_in:country_code":"SO"}}},{"arcs":[[25,-22,26,27,-4]],"type":"Polygon","properties":{"srid":"4326","id":"1720058","name":"Hiiraan","localname":"Hiiraan هيران","official_name":"","boundary":"adminstrative","admin_level":"4","note":"","wikidata":"Q660040","wikipedia":"ar:هيران","timestamp":"2018-11-12 07:23:07","rpath":"1720058,192799,0","alltags":{"name":"Hiiraan هيران","name:ar":"هيران","name:de":"Hiiraan","name:en":"Hiiraan","name:es":"Hiiraan","name:fr":"Hiiraan","name:ru":"Хиран","boundary":"administrative","wikidata":"Q660040","ISO3166-2":"SO-HI","wikipedia":"ar:هيران","admin_level":"4","is_in:country":"Somalia","is_in:continent":"Africa","is_in:country_code":"SO"}}},{"arcs":[[[28]],[[-24,29,30]]],"type":"MultiPolygon","properties":{"srid":"4326","id":"1720059","name":"Lower Juba","localname":"Jubbada Hoose جوبا السفلى","official_name":"","boundary":"adminstrative","admin_level":"4","note":"","wikidata":"Q877042","wikipedia":"ar:جوبا السفلى","timestamp":"2018-11-12 07:23:07","rpath":"1720059,192799,0","alltags":{"name":"Jubbada Hoose جوبا السفلى","name:ar":"جوبا السفلى","name:de":"Unter-Jubba","name:en":"Lower Juba","name:es":"Jubbada Hoose","name:fr":"Jubbada Hoose","name:it":"Basso Giuba","name:ru":"Нижняя Джубба","boundary":"administrative","wikidata":"Q877042","ISO3166-2":"SO-JH","wikipedia":"ar:جوبا السفلى","admin_level":"4","is_in:country":"Somalia","is_in:continent":"Africa","is_in:country_code":"SO"}}},{"arcs":[[-16,-5,-28,31,-8,32,33]],"type":"Polygon","properties":{"srid":"4326","id":"1720060","name":"Lower Shebelle","localname":"Shabeellaha Hoose شبيلي السفلى","official_name":"","boundary":"adminstrative","admin_level":"4","note":"","wikidata":"Q877028","wikipedia":"ar:شبيلي السفلى","timestamp":"2018-11-12 07:23:07","rpath":"1720060,192799,0","alltags":{"name":"Shabeellaha Hoose شبيلي السفلى","name:ar":"شبيلي السفلى","name:de":"Unter-Shabelle","name:en":"Lower Shebelle","name:es":"Shabeellaha Hoose","name:fr":"Shabeellaha Hoose","name:it":"Basso Scebeli","name:ru":"Нижняя Шабелле","boundary":"administrative","wikidata":"Q877028","ISO3166-2":"SO-SH","wikipedia":"ar:شبيلي السفلى","admin_level":"4","is_in:country":"Somalia","is_in:continent":"Africa","is_in:country_code":"SO"}}},{"arcs":[[-23,-17,-34,34,-30]],"type":"Polygon","properties":{"srid":"4326","id":"1720061","name":"Middle Juba","localname":"Jubbada Dhexe جوبا الوسطى","official_name":"","boundary":"adminstrative","admin_level":"4","note":"","wikidata":"Q1046324","wikipedia":"ar:جوبا الوسطى","timestamp":"2018-11-12 07:23:07","rpath":"1720061,192799,0","alltags":{"name":"Jubbada Dhexe جوبا الوسطى","name:ar":"جوبا الوسطى","name:de":"Mittel-Jubba","name:en":"Middle Juba","name:es":"Jubbada Dhexe","name:fr":"Jubbada Dhexe","name:it":"Medio Giuba","name:ru":"Средняя Джубба","boundary":"administrative","wikidata":"Q1046324","ISO3166-2":"SO-JD","wikipedia":"ar:جوبا الوسطى","admin_level":"4","is_in:country":"Somalia","is_in:continent":"Africa","is_in:country_code":"SO"}}},{"arcs":[[-27,-21,35,-9,-32]],"type":"Polygon","properties":{"srid":"4326","id":"1720062","name":"Middle Shebelle","localname":"Shabeellaha Dhexe شبيلي الوسطى","official_name":"","boundary":"adminstrative","admin_level":"4","note":"","wikidata":"Q678435","wikipedia":"ar:شبيلي الوسطى","timestamp":"2018-11-12 07:23:07","rpath":"1720062,192799,0","alltags":{"name":"Shabeellaha Dhexe شبيلي الوسطى","name:ar":"شبيلي الوسطى","name:de":"Mittel-Shabelle","name:en":"Middle Shebelle","name:es":"Shabeellaha Dhexe","name:fr":"Shabeellaha Dhexe","name:it":"Medio Scebeli","name:ru":"Средняя Шабелле","boundary":"administrative","wikidata":"Q678435","ISO3166-2":"SO-SD","wikipedia":"ar:شبيلي الوسطى","admin_level":"4","is_in:country":"Somalia","is_in:continent":"Africa","is_in:country_code":"SO"}}},{"arcs":[[36,37,38,-19]],"type":"Polygon","properties":{"srid":"4326","id":"1720063","name":"Mudug","localname":"Mudug مدج","official_name":"","boundary":"adminstrative","admin_level":"4","note":"","wikidata":"Q877034","wikipedia":"ar:مدج","timestamp":"2018-11-12 07:23:07","rpath":"1720063,192799,0","alltags":{"name":"Mudug مدج","name:ar":"مدج","name:de":"Mudug","name:en":"Mudug","name:es":"Mudug","name:fr":"Mudug","name:ru":"Мудуг","boundary":"administrative","wikidata":"Q877034","ISO3166-2":"SO-MU","wikipedia":"ar:مدج","admin_level":"4","is_in:country":"Somalia","is_in:continent":"Africa","is_in:country_code":"SO"}}},{"arcs":[[39,40,-11,41,-38]],"type":"Polygon","properties":{"srid":"4326","id":"1720064","name":"Nugaal","localname":"Nugaal نوجال","official_name":"","boundary":"adminstrative","admin_level":"4","note":"","wikidata":"Q1046329","wikipedia":"ar:نوجال","timestamp":"2018-11-12 07:23:07","rpath":"1720064,192799,0","alltags":{"name":"Nugaal نوجال","name:ar":"نوجال","name:de":"Nugaal","name:en":"Nugaal","name:es":"Nugaal","name:fr":"Nugaal","name:ru":"Нугал","boundary":"administrative","wikidata":"Q1046329","ISO3166-2":"SO-NU","wikipedia":"ar:نوجال","admin_level":"4","is_in:country":"Somalia","is_in:continent":"Africa","is_in:country_code":"SO"}}},{"arcs":[[42,43,-13,44,45]],"type":"Polygon","properties":{"srid":"4326","id":"1720065","name":"Sanaag","localname":"سناج Sanaag","official_name":"","boundary":"adminstrative","admin_level":"4","note":"","wikidata":"Q751387","wikipedia":"ar:سناج (محافظة)","timestamp":"2018-11-12 07:23:07","rpath":"1720065,3586169,192799,0","alltags":{"name":"سناج Sanaag","name:ar":"سناج","name:de":"Sanaag","name:en":"Sanaag","name:es":"Sanaag","name:fr":"Sanaag","name:ru":"Санаг","boundary":"administrative","wikidata":"Q751387","ISO3166-2":"SO-SA","wikipedia":"ar:سناج (محافظة)","admin_level":"4","is_in:country":"Somalia","is_in:continent":"Africa","is_in:country_code":"SO"}}},{"arcs":[[-45,-12,-41,46,47]],"type":"Polygon","properties":{"srid":"4326","id":"1720066","name":"Sool","localname":"Sool سول","official_name":"","boundary":"adminstrative","admin_level":"4","note":"","wikidata":"Q848864","wikipedia":"ar:صول (الصومال)","timestamp":"2018-11-12 07:23:07","rpath":"1720066,3586169,192799,0","alltags":{"name":"Sool سول","name:ar":"سول‎‎","name:de":"Sool","name:en":"Sool","name:es":"Sool","name:fr":"Sool","name:ru":"Соль","boundary":"administrative","wikidata":"Q848864","ISO3166-2":"SO-SO","wikipedia":"ar:صول (الصومال)","admin_level":"4","is_in:country":"Somalia","is_in:continent":"Africa","is_in:country_code":"SO"}}},{"arcs":[[48,-46,-48,49]],"type":"Polygon","properties":{"srid":"4326","id":"1720067","name":"Togdheer","localname":"توجدير Togdheer","official_name":"","boundary":"adminstrative","admin_level":"4","note":"","wikidata":"Q865590","wikipedia":"ar:توجدير","timestamp":"2018-11-12 07:23:07","rpath":"1720067,3586169,192799,0","alltags":{"name":"توجدير Togdheer","name:ar":"توجدير","name:de":"Togdheer","name:en":"Togdheer","name:es":"Togdheer","name:fr":"Togdheer","name:ru":"Тогдер","boundary":"administrative","wikidata":"Q865590","ISO3166-2":"SO-TO","wikipedia":"ar:توجدير","admin_level":"4","is_in:country":"Somalia","is_in:continent":"Africa","is_in:country_code":"SO"}}},{"arcs":[[-1,50,-43,-49,51]],"type":"Polygon","properties":{"srid":"4326","id":"1720068","name":"Woqooyi Galbeed","localname":"وقويي جالبيد Woqooyi Galbeed","official_name":"","boundary":"adminstrative","admin_level":"4","note":"","wikidata":"Q877021","wikipedia":"ar:وقويي جالبيد","timestamp":"2018-11-12 07:23:07","rpath":"1720068,3586169,192799,0","alltags":{"name":"وقويي جالبيد Woqooyi Galbeed","name:ar":"وقويي جالبيد","name:de":"Woqooyi Galbeed","name:en":"Woqooyi Galbeed","name:es":"Woqooyi Galbeed","name:fr":"Woqooyi Galbeed","name:ru":"Вокуй-Гальбид","alt_name":"Maroodi Jeex","boundary":"administrative","wikidata":"Q877021","ISO3166-2":"SO-WO","wikipedia":"ar:وقويي جالبيد","admin_level":"4","is_in:country":"Somalia","is_in:continent":"Africa","is_in:country_code":"SO"}}}]}}}