{"type":"Topology","arcs":[[[6080,1094],[44,64],[19,16],[67,78],[64,63],[29,16],[40,4],[34,-7],[52,-34],[56,-65],[21,-3],[36,23],[100,80],[77,66],[184,107],[68,51],[49,73],[5,57],[-2,147],[16,62],[57,102],[18,63],[9,60],[-5,47],[-21,41],[-39,39],[-111,72],[-89,101],[-91,88],[-78,68],[-67,63]],[[6622,2636],[164,14],[79,152],[391,-345],[462,13],[53,-5],[59,23]],[[7830,2488],[71,10],[127,-10],[113,-5],[80,-12],[166,-8]],[[8387,2463],[2,-99],[-36,-62],[-64,-72],[-12,-27],[0,-30],[29,-115],[-4,-56],[-27,-74],[-12,-52],[0,-45],[24,-127],[24,-96],[35,-101],[26,-47],[34,-46],[17,-42],[6,-75],[-9,-29],[-38,-64],[-51,-64],[-31,-56],[-15,-56],[-16,-96],[-22,-56],[-22,-80],[-28,-36],[-30,-25],[-90,-40],[-34,-26],[-25,-37],[-28,-88],[-20,-95],[0,-49],[11,-61]],[[7981,339],[-4,-25],[-55,-46],[-19,-8],[-15,-24],[-34,-9],[-91,-34],[-29,-26],[-42,-13],[6,33],[-63,30],[-86,48],[-59,45],[-103,-2],[-74,-45],[-34,-8],[-9,-24],[-39,-25],[-12,12],[-32,-16],[-25,-41],[2,-18],[-58,-81],[-21,-62],[-16,22],[14,33],[-13,36],[-24,0],[-20,13],[-9,27],[3,35],[-20,26],[-40,-41],[-8,-18],[-37,20],[-66,-39],[-34,8],[-26,15],[17,44],[4,85],[-24,61],[-4,32],[-21,10],[-54,-23],[-19,30],[-38,5],[-16,27],[-46,32],[-18,-6],[-48,40],[-39,-23],[-24,6],[-17,45],[9,18],[-7,23],[-32,25],[2,69],[-39,-4],[-61,21],[-32,49],[2,26],[-66,19],[-13,24],[20,49],[-60,53],[-62,-10],[-8,19],[-29,17],[-2,66],[12,64],[-11,8],[26,54],[-11,2]],[[8387,2463],[107,-14],[1821,-93],[83,25],[115,47],[94,27],[146,63],[98,21],[183,54]],[[11034,2593],[6,-33],[-13,-50],[17,-28],[-4,-29],[33,-53],[85,-154],[-4,-64],[172,-124],[3,-41],[-14,-38],[-5,-50],[12,-29],[18,-14],[54,24],[32,5],[57,45],[33,16],[60,-12],[16,7],[13,-20],[18,5],[10,-22],[22,12],[67,-7],[48,-38],[66,-15],[22,-36],[-34,-40],[0,-17],[26,-33],[11,-30],[-9,-34],[-37,-51],[0,-334],[125,-147],[-5,-12],[-234,-1],[0,60],[-18,15],[-30,-1],[-24,-22],[-15,-52],[-95,-1],[-83,158],[53,135],[-7,18],[-152,-13],[22,80],[12,22],[-18,16],[-22,-3],[-103,-66],[-42,33],[-137,-79],[-283,-116],[-200,-59],[-26,-16],[-83,-116],[-141,-150],[-177,-187],[-65,-49],[-58,-62],[-394,-429],[-18,-1],[-303,26],[-145,117],[-120,-79],[-173,-49],[-291,-23],[-209,-149],[20,-38],[-23,-55],[-99,27],[-6,26],[-29,29],[-88,-18],[-9,59],[8,19],[-31,59],[-60,86],[-36,30],[-22,6]],[[7154,6179],[90,-34],[101,-63],[97,-26],[86,-32],[149,-13],[79,-34],[84,-120],[38,-71],[34,-50],[47,-88],[40,-84],[27,-36],[30,-23],[39,-50],[56,-73],[42,46],[43,61],[56,57],[21,35],[74,68],[43,29],[106,53],[3,-39],[36,-27],[-11,-89],[97,-40],[8,-256],[24,-88],[29,-46],[50,-47],[76,-23],[72,-9],[39,-30],[19,-52],[2,-65],[-5,-54],[-33,-85],[-8,-48],[4,-49],[20,-58],[28,-29],[62,-48],[75,-22]],[[9123,4527],[6,-60],[49,-63],[116,-7],[24,-8],[44,-3],[5,-13],[37,-16],[28,-43],[64,36],[28,-5],[15,19],[19,-16],[62,-13],[20,-25],[39,-15],[44,7],[37,-10],[9,-13],[46,-17],[14,-29],[45,-42],[43,-23],[33,-6],[31,-23],[1,-24],[69,-71],[31,-26],[3,-36],[28,-28],[-6,-27],[9,-59],[-15,-29],[48,-26],[30,-49],[22,-4],[11,-20],[19,1],[29,-16],[-1,-46],[5,-48],[20,-5],[4,-19],[49,-15],[31,-31],[7,-22],[59,-38],[20,11],[64,-4],[67,-70],[12,-37],[-7,-11],[-5,-51],[26,-21],[30,-6],[34,15],[26,-11],[24,-33],[26,-9],[14,-40],[65,-64],[29,17],[33,3],[37,-9],[-1,-22],[36,-24],[51,-58],[27,-25],[13,-41],[-9,-27],[-21,-15],[9,-45],[-14,-38],[-12,-5],[-9,-51],[-13,-12],[22,-44],[-9,-68],[9,-37],[26,-21],[-6,-38],[6,-17]],[[7830,2488],[-38,72],[-32,79],[-52,76],[-18,58],[-8,76],[-8,33],[-38,51],[-30,61],[-17,53],[-32,34],[-20,40],[-18,55],[-53,82],[-48,86],[-37,26],[-66,71],[-63,63],[-42,34],[-43,17],[-20,32],[-95,58],[-17,17]],[[7035,3662],[-84,82],[-20,40],[-9,42],[-42,82],[-26,95],[-59,69],[-10,89],[-22,55],[-34,37],[-5,66],[24,58],[11,47],[-13,35],[-23,28],[-42,81],[-22,27],[-22,81],[-17,35],[-50,48],[-9,25],[12,36],[0,59],[-6,29],[5,22],[-12,87],[18,51],[-15,69],[-42,56],[-19,49],[45,83],[-65,82],[6,46],[-3,32],[-31,105],[-3,49],[22,40],[28,36],[21,39],[16,43],[62,72],[6,42],[-6,43],[-16,36],[16,65],[24,59],[44,39],[43,46],[74,4],[147,-14],[153,-5],[69,-5]],[[4829,3039],[290,-95],[114,25],[90,118],[-6,139],[-4,86],[-65,112],[-39,157],[-48,64],[-20,116],[148,71],[188,235],[271,339],[209,28]],[[5957,4434],[211,-36],[30,-25],[21,-51],[38,-69],[49,-123],[47,-75],[45,-110],[41,-107],[37,-103],[20,-75],[20,-10],[132,3],[48,1],[141,-5],[198,13]],[[6622,2636],[-121,-10],[-105,282],[-169,-7],[-139,-5],[19,-185],[-155,-188],[-55,-329],[-569,59],[-248,209],[-250,378],[-1,199]],[[2512,6721],[36,-60],[93,-85],[86,-264],[11,-27],[29,-39],[46,-31],[147,-43],[148,-34],[45,8],[90,34],[172,75],[113,24],[103,2],[239,-5],[238,-17],[69,-1],[80,7]],[[4257,6265],[128,-271],[-175,-404],[-21,-53],[-9,-74],[3,-88],[-12,-49],[-18,-42],[-40,-110],[-50,-110],[-23,-65],[-33,-56]],[[4007,4943],[-107,-89],[-107,-65],[-86,-63],[-87,-45],[-143,-84],[-87,-46],[-86,-53],[-138,-62],[-71,9],[-73,30],[-81,53],[-94,41],[-57,59],[-106,64],[-81,93],[-24,101],[9,181],[9,102],[-12,92],[-24,57],[-42,70],[-15,61],[-27,66],[18,183],[17,1023]],[[5302,6327],[25,43],[20,22],[21,-6],[47,19],[401,0],[0,340],[385,211],[57,0],[217,-144],[289,-191],[290,-255],[4,39],[96,0]],[[7154,6405],[0,-226]],[[5957,4434],[-18,304],[8,216],[-10,97],[-8,36],[-57,48],[-85,50],[-68,47],[-112,83],[-58,121],[-41,72],[-38,73],[-40,69],[-27,40],[-38,40],[-81,10],[-105,3],[-100,-5],[-21,255],[-8,57],[42,58],[16,45],[174,147],[20,27]],[[7154,6405],[231,0],[97,10],[42,23],[37,35],[182,231],[171,217],[42,36],[59,93],[142,277],[153,89],[252,269],[55,44],[-75,141],[0,538],[-282,251],[158,0],[462,0],[10,27],[3,37],[-7,33],[4,22],[-16,74],[5,64],[-12,35],[253,-8],[284,-10],[-28,-28],[-11,-43],[-70,-409],[-40,-320],[62,-210],[65,-414],[-24,-51],[124,-66],[135,-73],[55,-72],[90,-133],[129,-109],[95,-168],[64,-26],[1,-55],[23,-30],[4,-58],[-12,-42],[3,-48],[-17,-45],[-8,-69],[-27,-36],[-19,-7],[-11,-36],[-12,-89],[-13,-132],[-1,-15],[219,0],[23,-302],[14,-176],[0,-435],[-14,-9],[-29,-44],[-53,-27],[-22,-42],[-48,14],[-38,-7],[-30,-12],[-23,-29],[8,-22],[-8,-23],[-64,-10],[-40,-35],[-17,12],[-34,-8],[-24,16],[-13,60],[-53,27],[-18,-20],[-30,-2],[-8,23],[-69,-10],[-35,-17],[-28,6],[-24,-27],[-45,25],[-14,-3],[-26,19],[-19,-27],[-14,22],[-28,-14],[-3,-18],[-26,-3],[-26,-45],[16,-53],[-6,-33],[-24,2],[4,-48],[21,-6],[0,-33],[-26,-14],[20,-67],[-71,-31],[4,-40],[-36,6],[-6,-51],[-37,-15],[-2,-42],[-38,-23],[2,-31]],[[4257,6265],[-72,164],[3,403],[281,0],[278,0],[257,0],[298,0],[0,-505]],[[4829,3039],[32,394],[-8,136],[-9,100],[6,99],[35,183],[-27,73],[-23,29],[-57,58],[31,39],[6,39],[-111,73],[-91,46],[-53,46],[-74,48],[-96,31],[-86,20],[-70,41],[-74,109],[-51,79],[-45,94],[-26,72],[-31,95]],[[4829,3039],[-24,287],[-164,-38],[-134,0],[-108,51],[-123,77],[-135,-22],[-180,-32],[-114,-10],[-198,-22],[-338,-31],[-145,-17],[-188,-27],[-61,-12],[-71,-20]],[[2846,3223],[-10,17],[-62,12],[-33,13],[-34,25],[-44,56],[-75,74],[-29,37],[-48,31],[-19,21],[-25,68],[-55,24],[-47,73],[-23,11],[-59,12],[-20,12],[-32,40],[-29,16],[-43,-2],[-39,20],[-29,31],[-47,15],[-26,20],[-56,1],[-25,9],[-92,71],[-23,29],[1,43],[-7,19],[-57,53],[-34,-7],[-36,24],[-13,20],[1,66],[23,45],[55,51],[7,26],[-15,102],[-28,45],[-34,41],[-47,30],[-22,1],[-31,-15],[-17,1],[-45,45],[-44,19],[-31,25],[-18,36],[-39,24],[-23,57],[-21,77],[-56,27],[-36,-9],[-38,24],[-41,0],[-44,11],[-91,-16],[-53,30],[-12,35],[-71,5],[-43,-25],[-17,17],[-42,5],[-56,14],[-32,17],[-33,31],[-21,46],[14,43],[7,57],[18,16],[17,33],[28,34],[36,25],[1,13],[-37,39],[24,46],[-4,19],[-40,-6],[-38,11],[-39,-14],[-51,5],[-56,15],[-18,-8],[-38,17],[-29,5],[-41,-11],[-51,20],[-46,-2],[-46,-21],[-33,16],[-30,-4],[-32,22],[-35,-3],[-37,-31],[-31,4],[-28,66],[11,40],[39,36],[30,56],[2,95],[-22,10],[-25,-45],[-42,6],[-31,25],[-8,36],[11,24],[10,77],[21,51],[19,8],[37,-2],[20,13],[33,36],[11,24],[30,25],[-9,72],[13,30],[11,62],[-32,14],[5,40],[-10,59],[34,58],[32,70],[341,-4],[15,-9],[30,5],[19,30],[-6,32],[42,14],[8,-9],[34,6],[26,42],[61,12],[20,-1],[35,15],[17,-13],[40,-4],[28,34],[25,-1],[41,17],[27,-29],[15,-6],[35,13],[65,-19],[37,17],[20,28],[27,-30],[50,-18],[11,26],[37,0],[74,57],[18,2],[5,24],[20,7],[14,54],[32,13],[-7,21],[36,33],[-13,39],[42,30],[-5,39],[-41,40],[26,43],[4,60],[21,16],[14,35],[21,-5],[18,17],[42,-6],[26,36],[27,-2],[30,-16],[7,11],[51,15],[7,13],[37,-7],[10,18],[29,2],[51,-19],[71,26],[37,-1],[65,9],[37,-3],[20,17],[117,3],[9,-17],[38,-4],[25,-22],[22,-1],[-1,-205],[53,-18],[48,-38],[20,-25],[19,-43]],[[6080,1094],[-19,-1],[-27,25],[-16,-16],[-30,25],[-12,26],[-20,1],[-61,39],[-18,-9],[-48,21],[-17,-16],[-41,41],[-17,-48],[2,-57],[-25,-26],[-3,-48],[-40,-49],[-33,-1],[-13,-24],[-8,-52],[-42,-13],[-33,13],[-18,-46],[-27,-11],[-41,39],[-39,51],[-55,5],[-36,39],[-7,19],[-34,4],[-28,-16],[-58,-3],[-34,16],[-36,-13],[-26,22],[6,19],[-13,38],[-13,8],[-21,-19],[-34,-1],[-15,-32],[-18,-11],[-9,-44],[-18,-32],[-37,-10],[-26,0],[-17,-35],[-20,4],[-44,-9],[-25,-55],[-25,-31],[-44,-15],[-35,4],[-14,55],[-11,15],[-52,8],[-42,-12],[-49,3],[-30,37],[-27,8],[4,30],[-34,22],[-25,-13],[-17,9],[-32,37],[4,53],[-23,24],[-37,2],[-34,18],[-20,-39],[-35,7],[-42,48],[-28,16],[-19,1],[3,28],[-16,47],[-12,11],[15,38],[-10,33],[0,33],[-40,8],[-22,18],[-31,62],[-25,19],[-85,-4],[-12,19],[-38,29],[5,23],[-23,11],[-36,32],[-7,17],[11,35],[-8,27],[-24,36],[-63,58],[-61,64],[-17,24],[-3,52],[-31,54],[-3,56],[32,50],[5,37],[19,48],[-6,21],[-53,47],[-2,69],[-22,39],[-68,58],[-57,8],[-57,60],[-46,19],[-45,27],[-82,91],[-70,22],[-70,-14],[-27,6],[-46,46],[-16,32],[-27,11],[-37,-16],[-23,29],[11,16],[40,19],[22,25],[10,24],[-17,37],[-41,11],[-22,46],[-29,24],[-59,-4],[-18,36],[-49,23],[-13,21],[5,59],[-12,48],[39,47],[-19,47],[20,39],[54,25],[6,21]]],"transform":{"scale":[0.0010469102177554437,0.0009767316500949614],"translate":[23.448889,3.493664]},"objects":{"ss_slim":{"type":"GeometryCollection","geometries":[{"arcs":[[0,1,2,3,4]],"type":"Polygon","properties":{"srid":"4326","id":"2190479","name":"Central Equatoria","localname":"Central Equatoria","official_name":"","boundary":"adminstrative","admin_level":"4","note":"","wikidata":"Q487709","wikipedia":"en:Central Equatoria","timestamp":"2018-11-12 07:26:56","rpath":"2190479,1656678,0","alltags":{"name":"Central Equatoria","place":"state","name:ar":"الاستوائية الوسطى","name:de":"Zentral-Äquatoria","name:en":"Central Equatoria","name:es":"Ecuatoria Central","name:fr":"Équatoria-Central","name:pl":"Ekwatoria Środkowa","name:ru":"Центральная Экватория","name:uk":"Центральна Екваторія","boundary":"administrative","wikidata":"Q487709","ISO3166-2":"SS-EC","wikipedia":"en:Central Equatoria","admin_level":"4","is_in:country":"South Sudan","is_in:continent":"Africa","is_in:country_code":"SS"}}},{"arcs":[[5,6,-4]],"type":"Polygon","properties":{"srid":"4326","id":"2190482","name":"Eastern Equatoria","localname":"Eastern Equatoria","official_name":"","boundary":"adminstrative","admin_level":"4","note":"","wikidata":"Q488519","wikipedia":"en:Eastern Equatoria","timestamp":"2018-11-12 07:26:56","rpath":"2190482,1656678,0","alltags":{"name":"Eastern Equatoria","place":"state","name:ar":"شرق الاستوائية","name:de":"Ost-Äquatoria","name:en":"Eastern Equatoria","name:es":"Ecuatoria Oriental","name:fr":"Équatoria-Oriental","name:pl":"Ekwatoria Wschodnia","name:ru":"Восточная Экватория","name:uk":"Східна Екваторія","boundary":"administrative","wikidata":"Q488519","ISO3166-2":"SS-EE","wikipedia":"en:Eastern Equatoria","admin_level":"4","is_in:country":"South Sudan","is_in:continent":"Africa","is_in:country_code":"SS"}}},{"arcs":[[7,8,-6,-3,9,10]],"type":"Polygon","properties":{"srid":"4326","id":"2190481","name":"Jonglei","localname":"Jonglei","official_name":"","boundary":"adminstrative","admin_level":"4","note":"","wikidata":"Q488904","wikipedia":"en:Jonglei","timestamp":"2018-11-12 07:26:56","rpath":"2190481,1656678,0","alltags":{"name":"Jonglei","place":"state","name:ar":"جونقلي","name:de":"Jonglei","name:en":"Jonglei","name:es":"Junqali","name:fr":"Jonglei","name:pl":"Jonglei","name:ru":"Джонглий","name:uk":"Джонглей","boundary":"administrative","wikidata":"Q488904","ISO3166-2":"SS-JG","wikipedia":"en:Jonglei","admin_level":"4","is_in:country":"South Sudan","is_in:continent":"Africa","is_in:country_code":"SS"}}},{"arcs":[[11,12,-10,-2,13]],"type":"Polygon","properties":{"srid":"4326","id":"2190480","name":"Lakes","localname":"Lakes","official_name":"","boundary":"adminstrative","admin_level":"4","note":"","wikidata":"Q491096","wikipedia":"en:Lakes, Sudan","timestamp":"2018-11-12 07:26:56","rpath":"2190480,1656678,0","alltags":{"name":"Lakes","place":"state","name:ar":"البحيرات","name:de":"Seen","name:en":"Lakes","name:es":"Lagos","name:fr":"Lacs","name:pl":"Lakes","name:ru":"Озёрный","name:uk":"Озерний","boundary":"administrative","wikidata":"Q491096","ISO3166-2":"SS-LK","wikipedia":"en:Lakes, Sudan","admin_level":"4","is_in:country":"South Sudan","is_in:continent":"Africa","is_in:country_code":"SS"}}},{"arcs":[[14,15,16]],"type":"Polygon","properties":{"srid":"4326","id":"2190520","name":"Northern Bahr el Ghazal","localname":"Northern Bahr el Ghazal","official_name":"","boundary":"adminstrative","admin_level":"4","note":"","wikidata":"Q491111","wikipedia":"en:Northern Bahr el Ghazal","timestamp":"2018-11-12 07:26:56","rpath":"2190520,1656678,0","alltags":{"name":"Northern Bahr el Ghazal","place":"state","name:ar":"شمال بحر الغزال","name:de":"Northern Bahr el Ghazal","name:en":"Northern Bahr el Ghazal","name:es":"Bahr al-Gazal del Norte","name:fr":"Bahr el Ghazal du Nord","name:pl":"Bahr el Ghazal Północny","name:ru":"Северный Бахр-эль-Газаль","name:uk":"Північний Бахр-ель-Газаль","boundary":"administrative","wikidata":"Q491111","ISO3166-2":"SS-BN","wikipedia":"en:Northern Bahr el Ghazal","admin_level":"4","is_in:country":"South Sudan","is_in:continent":"Africa","is_in:country_code":"SS"}}},{"arcs":[[17,18,-11,-13,19]],"type":"Polygon","properties":{"srid":"4326","id":"2190519","name":"Unity","localname":"Unity","official_name":"","boundary":"adminstrative","admin_level":"4","note":"","wikidata":"Q319965","wikipedia":"en:Unity State","timestamp":"2018-11-12 07:26:56","rpath":"2190519,1656678,0","alltags":{"name":"Unity","place":"state","name:ar":"الوحدة‎","name:de":"Unity","name:en":"Unity","name:es":"Unidad","name:fr":"Unité","name:pl":"Unity","name:ru":"Эль-Вахда","name:uk":"Ель-Вахда","boundary":"administrative","wikidata":"Q319965","ISO3166-2":"SS-UY","wikipedia":"en:Unity State","admin_level":"4","is_in:country":"South Sudan","is_in:continent":"Africa","is_in:country_code":"SS"}}},{"arcs":[[-19,20,-8]],"type":"Polygon","properties":{"srid":"4326","id":"2190518","name":"Upper Nile","localname":"Upper Nile","official_name":"","boundary":"adminstrative","admin_level":"4","note":"","wikidata":"Q487702","wikipedia":"en:Upper Nile (state)","timestamp":"2018-11-12 07:26:56","rpath":"2190518,1656678,0","alltags":{"name":"Upper Nile","place":"state","name:ar":"أعالي النيل","name:de":"Obernil","name:en":"Upper Nile","name:es":"Alto Nilo","name:fr":"Nil Supérieur","name:pl":"Nil Górny","name:ru":"Верхний Нил","name:uk":"Верхній Ніл","boundary":"administrative","wikidata":"Q487702","ISO3166-2":"SS-NU","wikipedia":"en:Upper Nile (state)","admin_level":"4","is_in:country":"South Sudan","is_in:continent":"Africa","is_in:country_code":"SS"}}},{"arcs":[[-16,21,-20,-12,22]],"type":"Polygon","properties":{"srid":"4326","id":"2190521","name":"Warrap","localname":"Warrap","official_name":"","boundary":"adminstrative","admin_level":"4","note":"","wikidata":"Q491138","wikipedia":"en:Warrap (state)","timestamp":"2018-11-12 07:26:56","rpath":"2190521,1656678,0","alltags":{"name":"Warrap","place":"state","name:ar":"واراب","name:de":"Warrap","name:en":"Warrap","name:es":"Warab","name:fr":"Warab","name:pl":"Warrap","name:ru":"Вараб","name:uk":"Вараб","boundary":"administrative","wikidata":"Q491138","ISO3166-2":"SS-WR","wikipedia":"en:Warrap (state)","admin_level":"4","is_in:country":"South Sudan","is_in:continent":"Africa","is_in:country_code":"SS"}}},{"arcs":[[-17,-23,23,24]],"type":"Polygon","properties":{"srid":"4326","id":"2190484","name":"Western Bahr el Ghazal","localname":"Western Bahr el Ghazal","official_name":"","boundary":"adminstrative","admin_level":"4","note":"","wikidata":"Q332095","wikipedia":"en:Western Bahr el Ghazal","timestamp":"2018-11-12 07:26:56","rpath":"2190484,1656678,0","alltags":{"name":"Western Bahr el Ghazal","place":"state","name:ar":"غرب بحر الغزال","name:de":"Western Bahr el Ghazal","name:en":"Western Bahr el Ghazal","name:es":"Bahr al-Gazal Occidental","name:fr":"Bahr el Ghazal occidental","name:pl":"Bahr el Ghazal Zachodni","name:ru":"Западный Бахр-эль-Газаль","name:uk":"Західний Бахр-ель-Газаль","boundary":"administrative","wikidata":"Q332095","ISO3166-2":"SS-BW","wikipedia":"en:Western Bahr el Ghazal","admin_level":"4","is_in:country":"South Sudan","is_in:continent":"Africa","is_in:country_code":"SS"}}},{"arcs":[[-24,-14,-1,25]],"type":"Polygon","properties":{"srid":"4326","id":"2190483","name":"Western Equatoria","localname":"Western Equatoria","official_name":"","boundary":"adminstrative","admin_level":"4","note":"","wikidata":"Q319979","wikipedia":"en:Western Equatoria","timestamp":"2018-11-12 07:26:56","rpath":"2190483,1656678,0","alltags":{"name":"Western Equatoria","place":"state","name:ar":"غرب الاستوائية","name:de":"West-Äquatoria","name:en":"Western Equatoria","name:es":"Ecuatoria Occidental","name:fr":"Équatoria-Occidental","name:pl":"Ekwatoria Zachodnia","name:ru":"Западная Экватория","name:uk":"Західна Екваторія","boundary":"administrative","wikidata":"Q319979","ISO3166-2":"SS-EW","wikipedia":"en:Western Equatoria","admin_level":"4","is_in:country":"South Sudan","is_in:continent":"Africa","is_in:country_code":"SS"}}}]}}}