{"type":"Topology","arcs":[[[5222,10357],[2,-52],[19,-34],[-16,-33],[25,-36],[26,-4],[14,-65],[-22,-25],[-66,-19],[-10,16],[-51,22],[-31,-57],[13,-83],[25,-26],[32,6],[60,54],[37,7],[14,-27],[4,-141],[17,-59],[-23,-31],[-24,-72],[2,-34],[36,-13],[-10,-34],[-28,-36],[18,-25],[1,-35],[-40,-40],[-17,-75],[13,-10],[8,-64],[-16,-28],[13,-29],[-31,-24],[7,-48],[-107,-51],[-1,54],[-49,5],[-32,-99],[32,-27],[0,-35],[-38,-32],[-25,-1],[-7,72],[-50,8],[-117,-16],[17,-45],[36,-41],[-13,-79],[-52,-14],[-48,11],[-5,38],[-26,57],[-22,11],[-35,56],[35,68],[-41,54],[-49,-20],[-81,7],[-50,17],[-44,-42],[-119,-62],[-31,-31],[-36,-60],[-20,-57],[-51,-79],[-6,-70],[12,-86],[27,-43],[54,-51],[52,-82],[79,-67],[0,-37],[-39,-97],[-31,-32],[0,-28],[-26,-68],[-7,-41],[31,-14],[14,18],[49,-8],[-47,-91],[53,-26],[-23,-121],[72,-41],[-4,-148],[32,-80],[0,-27],[173,-82],[-3,-82],[-45,-70],[-35,-84],[-68,-75]],[[4508,7237],[-41,-119],[-259,71],[-200,48],[-266,28],[-44,91],[-95,0],[0,-37],[-239,-6],[-182,19],[-5,68],[-20,48],[-75,65],[-45,18],[-62,-45],[4,-64],[-31,15],[-39,-18],[-31,11],[-9,68],[-67,-3],[-7,-17],[-60,2],[-18,49],[-34,9],[-10,-33]],[[2673,7505],[-89,41],[-28,35],[-46,20],[-21,49],[-43,22],[-3,65],[-27,34],[-30,122],[55,36],[22,31],[0,45],[-19,23],[-49,26],[-35,48],[-65,14],[-36,57],[-29,24],[-8,50],[-33,40],[-3,26],[-105,160],[-9,126],[-22,40],[-48,27],[-110,44],[-61,46],[-3,36],[-41,53],[15,28],[70,54],[97,103],[33,53],[-8,32],[-31,33],[-31,51],[-48,37],[-16,73],[-30,10],[-58,-26],[-57,9],[-44,-3]],[[1679,9299],[-14,27],[-27,-4],[-21,21],[-50,-30],[-6,41],[34,18],[-34,26],[10,47],[-34,6],[-36,102],[-19,17],[-1,73],[-20,63],[51,62],[19,93],[16,39],[-25,52],[-8,119],[63,41],[42,83],[-34,73],[50,59],[10,39],[30,16],[16,37],[-3,45],[27,-8],[57,5],[64,-19],[74,-52],[104,-22],[61,-20],[71,17],[84,-51],[48,3],[-1,-58],[72,-10],[20,-38],[-14,-38],[-43,-17],[8,-69],[28,-3],[39,-23],[-1,-22],[52,-25],[23,33],[13,53],[33,-14],[32,27],[37,-47],[97,42],[111,-25],[10,13],[57,-11],[146,-40],[52,-9],[34,-26],[49,4],[30,40],[1,33],[65,50],[176,86],[31,27],[34,29],[42,-12],[34,31],[53,-13],[86,-6],[40,33],[51,14],[84,40],[49,11],[42,45],[28,18],[45,7],[50,24],[57,-4],[20,71],[59,12],[19,24],[60,12],[19,22],[73,23],[3,19],[88,-2],[52,36],[40,-21],[144,-35],[85,5],[288,-130],[33,-49],[27,6],[14,-45],[68,-58]],[[6678,10159],[94,7],[98,32],[91,21],[77,3],[130,59],[191,14],[39,20],[28,27],[138,49],[121,58],[53,8],[49,44],[9,22],[92,31],[63,5],[64,17],[71,55],[30,31],[54,17],[69,39],[62,47],[26,6],[41,39],[39,69],[37,20],[197,26],[76,49],[32,29],[49,5],[112,66],[32,26],[108,17],[13,34],[62,-14],[24,15],[23,-35],[23,-9],[23,36],[41,14],[82,7],[120,-36],[53,-1],[148,-34],[39,-14],[47,6],[38,-6],[63,-35],[-1,-37],[36,-4],[34,32],[101,12],[106,-5],[168,2],[131,-4],[58,18],[86,45],[121,30],[46,-9],[187,33],[55,23],[59,7],[131,40],[33,-3],[82,41],[13,13],[61,3],[37,36],[62,27],[7,26],[162,153],[23,59],[19,15],[32,-21],[-32,-42],[-4,-25],[53,6],[39,-26],[46,24],[20,-49],[23,-2],[19,-30],[50,-40],[-10,-47],[-31,-56],[16,-65],[41,-63],[-4,-92],[44,-30],[-10,-51],[-27,-6],[-214,-243],[-424,-485],[-53,-88],[-52,-33],[-101,-115],[-123,-114],[-205,-41],[-198,-37],[-345,-69],[-15,-20],[-180,-349],[11,-35],[-25,-36],[-3,-88],[-21,-257],[-31,-290],[205,-501],[16,-321],[6,-185],[-104,-165]],[[10075,7511],[-46,0],[-168,26],[-95,-3],[-151,2],[-121,9],[-107,20],[-108,39],[-68,12],[-66,25],[-94,59],[-33,49],[-49,34],[-574,598],[-402,413],[-449,457],[-50,63],[-60,113],[-52,83],[-36,74],[-10,34]],[[7336,9618],[-19,66],[-63,54],[-69,32],[-92,33],[-83,41],[-100,-24],[-39,6],[-54,43],[-44,69],[-41,52],[-15,64],[-32,68],[-7,37]],[[250,2320],[43,-33],[-19,-32],[61,-67],[74,-9],[7,-19],[-4,-91]],[[412,2069],[-15,-116],[36,-26],[13,-37],[-24,-42],[-28,-71],[1,-36],[-12,-81],[42,-87],[28,-38],[-27,-25],[-58,-2],[11,-105],[-40,-53],[-72,-41]],[[267,1309],[85,122],[5,34],[-40,79],[-31,34],[2,131],[-11,51],[56,-1],[16,15],[-23,47],[29,72],[-13,56],[-73,59],[9,61],[-6,57],[-53,114],[31,80]],[[5222,10357],[104,-107],[76,-59],[30,-10],[266,-13],[223,22],[71,-10],[127,-45],[145,-41],[99,14],[175,39],[140,12]],[[7336,9618],[-359,-997],[-163,-454],[-246,-682],[-245,-680]],[[6323,6805],[-106,47],[-105,40],[-101,25],[-89,12],[-108,36],[-112,44],[-130,25],[-136,33],[-121,24],[-201,21],[-87,15],[-149,7],[-125,-2],[-125,-19]],[[4628,7113],[-29,50],[-91,74]],[[1509,2047],[116,9],[90,20],[99,9],[75,26],[58,12],[21,-10],[53,-55],[58,-33],[30,-42],[8,-44],[75,-84],[15,-74],[37,-35],[123,-16],[56,-26],[51,-46],[0,-41],[61,-98],[40,-15],[55,-37],[64,37],[40,-21],[36,-47],[8,-35],[6,-83],[20,-57],[65,-73],[93,-95],[52,-45],[43,-60],[65,-41],[51,-64]],[[3173,883],[-15,-7],[-21,-49],[-54,-59],[-35,-83],[-82,-35],[-35,-74],[-31,12],[-51,-17],[-23,18],[-60,-2],[-23,17],[-88,-34],[-42,-65],[-39,-31],[-73,-108],[-29,-34],[-72,-61],[-101,-8],[-84,35],[-127,-198],[-20,-48],[-40,-34],[-37,-18],[-93,22],[-83,2],[-55,-12],[-37,42],[-78,19],[-181,29],[-58,5]],[[1406,107],[15,94],[-10,80],[18,82],[-5,54],[-52,65],[3,28],[22,30],[-5,34],[-19,16],[-35,-4],[-28,28],[-46,-6],[-62,8],[10,71],[-17,30],[44,31],[50,47],[-6,60],[-28,12],[-55,5],[-70,24],[-9,76],[25,27],[-21,73],[-9,85],[19,56],[-32,61],[-16,97],[16,36],[-7,63],[150,124],[86,12],[111,-8],[23,6],[-20,52],[-2,56],[-29,20],[-37,-13],[-19,22],[-3,54],[-25,74],[6,41],[-9,34],[12,35],[60,54],[86,-8],[23,22]],[[836,2811],[12,21],[50,18],[88,51],[97,3],[39,-19],[-5,-26],[-50,-139],[-40,-42],[-37,-21],[-19,27],[-61,19],[-29,-23],[-27,2],[6,39],[-3,69],[-21,21]],[[118,1025],[17,40],[55,65],[27,51],[50,128]],[[412,2069],[39,-15],[19,-38],[35,-11],[58,17],[40,36],[63,16],[68,-10],[46,24],[65,14],[18,12],[25,78],[-10,38],[26,39],[42,-56],[30,-25],[22,-45],[43,-7],[18,-34],[37,-35],[55,-15],[28,12],[12,52],[35,36],[121,87],[49,43],[16,-15],[23,-65],[52,-61],[17,-34],[5,-60]],[[1406,107],[-71,32],[-64,0],[-57,13],[-61,51],[-122,140],[-123,94],[-45,-12],[-10,57],[-30,7],[-48,-18],[-13,21],[-60,2],[-79,-26],[-7,79],[-22,66],[-60,49],[-10,39],[5,91],[-44,19],[-63,2],[-39,53],[-17,76],[-42,11],[-56,-19],[-24,42],[-61,-14],[-16,16],[-39,5],[-10,42]],[[10075,7511],[7,-21],[-82,-136],[-37,-70],[-11,-88],[34,-77],[-58,-230],[-31,-188],[-13,-167],[9,-195],[-8,-78],[16,-94],[-11,-40],[6,-31],[-3,-115],[16,-84],[-8,-26],[14,-60],[-13,-97],[-191,-288],[-190,-476],[-60,-83],[-10,-34],[-52,-17],[-40,-1],[-35,-22],[-270,-86],[-212,-66],[-353,-225],[-507,-329]],[[7982,4087],[-12,22],[-281,450],[-170,262],[-316,481],[-536,811],[19,185],[-150,332],[-17,22],[-104,88],[-92,65]],[[936,6745],[-5,108],[-44,175],[-2,56],[-22,48],[-21,89],[37,252],[6,159],[-5,63],[-15,54],[-30,52],[12,31],[33,7],[28,48],[-6,44],[11,33],[27,15]],[[940,7979],[12,-24],[35,-19],[34,1],[38,22],[27,-6],[20,-60],[13,-8],[92,-2],[19,-20],[-3,-51],[-27,-44],[-6,-118],[10,-29],[-7,-151],[52,-12],[49,-57],[13,-4],[-4,-62],[29,-4],[-1,-33],[52,-15],[1,-35],[40,-15],[-5,-33],[17,-25],[36,-6],[129,0],[23,-5],[23,-33],[50,21],[202,34],[35,28],[41,0],[21,-36],[61,-39],[-5,-38],[45,1],[54,29],[34,-7],[36,56],[48,26],[79,-16],[74,6],[45,41],[0,91],[70,-22],[28,31],[25,66],[-8,32],[29,5],[14,38],[44,27]],[[4628,7113],[4,-161],[-9,-148],[-40,-105],[-55,-88],[-16,-84],[10,-96],[-125,-50],[-144,-72],[-73,-72],[-4,-33],[-37,-70],[1,-39],[-18,-51],[-35,-43],[-32,-7],[-96,136],[-142,126],[-21,109],[-41,67],[-83,21],[-33,39],[-25,11],[-59,-10],[-93,-27],[-89,-34],[-56,-4],[-67,-52],[-45,-26],[-23,-40],[-5,-41],[33,-128],[-30,-5],[-8,29],[-40,16],[-93,8],[-30,-24],[-57,-5],[-35,31],[-2,-48],[-72,5],[-6,-43],[-40,-20],[10,-45],[-62,-34],[-36,27],[-16,48],[-85,16],[-23,-46],[-67,3],[-29,-12],[-4,-41],[-75,5],[-10,-43],[-36,5],[-77,-70],[-44,-7],[-12,86],[-28,45],[-2,33],[-25,72],[-34,43],[-104,6],[-41,-29],[-47,-4],[-37,-34],[-67,4],[-51,-7],[-25,-26],[-80,-25],[-40,-30],[-63,-5],[-31,15],[-63,-34],[-32,-2],[-17,40],[-37,17],[15,37],[-25,30],[-39,-16],[-21,-46],[-28,-17],[-19,-39],[-44,-16],[-23,-71],[-38,-21],[-42,35],[-42,-50],[-23,12],[-6,38],[-37,19],[24,23],[-14,27]],[[1045,6001],[-26,35],[-43,31],[-33,97],[-105,-15],[-76,14],[-26,13],[-8,59],[27,13],[34,-7],[71,38],[35,2],[43,39],[24,91],[-16,111],[-10,223]],[[7982,4087],[-235,-150],[-90,-60],[-455,-294],[-195,-130],[-571,-375],[-290,-193],[-140,-91],[-246,-166],[-245,-164],[-43,-39],[-67,-42],[-195,-130],[-126,-92],[-222,-142],[-61,-31],[-62,-15],[-23,-50],[-58,-43]],[[4658,1880],[-74,77],[-162,128],[-41,42],[-87,75],[-52,35],[-84,69],[-98,102],[-11,3],[-63,71],[-125,89],[-40,37],[-36,19],[-94,23],[-50,21],[-68,44],[-33,34],[-94,73],[-112,158],[-55,159],[-104,124],[-143,118],[-20,31],[-41,37],[-54,65],[-44,28],[-32,34],[-117,223],[-90,-4],[-217,128],[-60,47],[-39,59],[-30,63],[-69,122],[-131,167],[-45,63],[-45,-10],[-79,-48],[-26,-9],[-99,3],[-68,40],[-70,-2],[-49,-34]],[[1607,4384],[-59,59],[-21,111],[35,39],[-9,48],[-30,0],[-35,20],[-49,125],[46,59],[-16,57],[-41,10],[-32,40],[-80,35],[-26,39],[-13,58],[-36,-15],[-75,19],[-45,-20],[-20,20],[-4,46],[100,62],[14,35],[8,97],[35,-11],[20,-30],[25,6],[11,67],[-15,20],[-30,-18],[-32,-1],[-66,19],[-27,20],[-26,40],[8,53],[-31,22],[-49,-21],[-16,-36],[11,-29],[-20,-46],[-32,-14],[-66,16],[-26,-15],[-71,18],[-34,-20],[-54,13],[-24,18],[-23,-20]],[[687,5379],[3,69],[54,107],[55,85],[14,49],[24,17],[30,53],[37,20],[9,27],[54,44],[10,42],[0,63],[15,22],[53,24]],[[750,8102],[22,6],[21,55],[4,71],[-11,40],[12,88],[15,30],[43,44],[61,19],[33,0],[37,-28],[32,31],[-23,48],[1,58],[24,5],[71,-52],[49,31],[18,23],[-9,30],[27,45],[-9,49],[16,39],[-21,27],[14,20],[-28,35],[33,66],[-39,32],[10,44],[49,35],[-21,56],[12,17],[60,-40],[51,-1],[77,37],[5,43],[57,7],[36,-49],[15,31],[41,-26],[71,-28],[7,59],[50,-25],[45,12],[25,26],[-28,60],[5,62],[-47,1],[3,44],[13,20]],[[940,7979],[53,35],[4,49],[-30,11],[-122,-8],[-43,-16],[-47,11],[-5,41]],[[936,6745],[-80,45],[-51,-29],[-79,-15],[-128,0],[-77,-13],[-61,56],[-54,32],[-45,3]],[[361,6824],[-24,49],[-1,200],[-1,7],[4,31],[-17,68],[4,20],[-44,58],[-6,7],[-57,57],[-94,75],[-72,7],[-2,1],[20,61],[-37,31],[0,0],[1,1],[1,0],[0,-1],[2,0],[0,1],[-38,35],[21,24],[8,36],[26,49],[21,-4],[17,57],[-11,35],[-1,6],[-18,44],[24,27],[30,8],[32,58],[26,13],[8,53],[19,28],[-16,86],[0,1],[-30,96],[-19,25],[16,29],[49,-5],[59,47],[18,75],[22,42],[31,16],[1,1],[24,-19],[56,20],[24,23],[56,4],[20,-46],[-35,-86],[89,-9],[37,-25],[80,-17],[41,-48],[7,-59],[18,-15]],[[302,2621],[55,50],[40,55],[-2,42],[-24,34],[23,30],[50,18],[29,-9],[60,26],[54,70],[-43,24],[-29,56],[-82,39],[0,25],[-50,-9],[-19,20],[8,38],[58,71],[-6,50],[44,45],[19,46],[30,41],[30,3],[34,64],[21,55],[39,-11],[50,41],[35,3],[30,38],[39,-38],[50,-13],[59,25],[20,36],[50,-12],[25,-31],[19,7],[45,-25],[51,-9],[81,10],[-9,48],[-64,63],[-55,-6],[-44,51],[-30,15],[-2,24],[30,44],[51,95],[40,45],[95,86],[2,34],[65,22],[25,-23],[39,5],[55,37],[4,64],[15,30],[60,60],[25,3],[15,52],[25,18],[16,57],[54,34]],[[4658,1880],[-193,-133],[-212,-147],[-267,-183],[-79,-57],[-23,-11],[-38,23],[-89,4],[-59,-28],[-29,-34],[13,-63],[-26,-147],[-38,-61],[-60,-9],[-38,-24],[-71,-7],[-118,-25],[-35,-21],[-75,-16],[-23,-42],[-25,-16]],[[250,2320],[-3,105],[17,70],[48,54],[5,40],[-15,32]],[[687,5379],[-45,-10],[-49,15],[-47,-16],[-55,31],[-28,3],[-40,22],[-64,193],[-7,98],[-24,65],[-1,2],[-36,94],[-19,46],[-3,2],[-2,1],[-1,1],[0,2],[0,-1],[0,0],[3,0],[0,7],[-1,1],[-2,1],[0,8],[0,1],[-2,4],[-8,22],[-1,2],[2,0],[0,1],[-3,7],[-8,11],[-1,0],[-1,1],[2,1],[17,46],[1,69],[-9,37],[6,57],[37,46],[-23,129],[10,52],[0,0],[-8,29],[15,41],[19,8],[14,47],[25,40],[1,44],[42,29],[-5,87],[-27,69]],[[118,1025],[-22,-14],[-54,-6],[47,67],[32,19],[29,55],[38,51],[15,58],[-3,39],[12,46],[40,78],[40,49],[-43,85],[-38,280],[-60,25],[2,33],[47,93],[-12,59],[-37,24],[-4,97],[-56,48],[-11,25],[64,93],[-72,44],[77,81],[20,79],[89,48],[44,40]]],"transform":{"scale":[0.0005549260528074864,0.0004317214088635973],"translate":[35.7332137,32.311354]},"objects":{"sy_slim":{"type":"GeometryCollection","geometries":[{"arcs":[[0,1,2,3]],"type":"Polygon","properties":{"srid":"4326","id":"184879","name":"Aleppo","localname":"حلب","official_name":"","boundary":"adminstrative","admin_level":"4","note":"","wikidata":"Q214064","wikipedia":"ar:محافظة حلب","timestamp":"2018-11-12 07:33:09","rpath":"184879,184840,0","alltags":{"name":"حلب","name:ar":"حلب","name:cs":"Aleppo","name:de":"Aleppo","name:en":"Aleppo","name:es":"Gobernación de Alepo","name:fr":"Gouvernorat d'Alep","name:pl":"Aleppo","name:ru":"Алеппо","name:uk":"Халеб мухафаза","name:zh":"阿勒颇省","boundary":"administrative","wikidata":"Q214064","ISO3166-2":"SY-HL","wikipedia":"ar:محافظة حلب","admin_level":"4"}}},{"arcs":[[4,5,6]],"type":"Polygon","properties":{"srid":"4326","id":"184856","name":"Al-Hasakah","localname":"الحسكة","official_name":"","boundary":"adminstrative","admin_level":"4","note":"","wikidata":"Q233914","wikipedia":"ar:محافظة الحسكة","timestamp":"2018-11-12 07:33:09","rpath":"184856,184840,0","alltags":{"name":"الحسكة","name:ar":"الحسكة","name:de":"Al-Hasaka","name:en":"Al-Hasakah","name:es":"Gobernación de Hasaka","name:fr":"Gouvernorat d'al-Hasaka","name:pl":"Al-Hasaka","name:ru":"Хасеке","name:zh":"哈塞克省","boundary":"administrative","wikidata":"Q233914","ISO3166-2":"SY-HA","wikipedia":"ar:محافظة الحسكة","admin_level":"4"}}},{"arcs":[[7,8,9]],"type":"Polygon","properties":{"srid":"4326","id":"184885","name":"Al-Qunaitra","localname":"القنيطرة","official_name":"","boundary":"adminstrative","admin_level":"4","note":"","wikidata":"Q219690","wikipedia":"ar:محافظة القنيطرة","timestamp":"2018-11-12 07:33:09","rpath":"184885,184840,0","alltags":{"name":"القنيطرة","name:ar":"القنيطرة","name:de":"Al-Qunaitra","name:en":"Al-Qunaitra","name:es":"Gobernación de Quneitra","name:fr":"Gouvernorat de Qouneitra","name:pl":"Al-Kunajtira","name:ru":"Эль-Кунейтра","name:zh":"库奈特拉省","boundary":"administrative","wikidata":"Q219690","ISO3166-2":"SY-QU","wikipedia":"ar:محافظة القنيطرة","admin_level":"4","long_name:ar":"محافظة القنيطرة","official_name:ar":"محافظة القنيطرة"}}},{"arcs":[[10,-7,11,12,13,-1]],"type":"Polygon","properties":{"srid":"4326","id":"184878","name":"Ar-Raqqah","localname":"الرقة","official_name":"","boundary":"adminstrative","admin_level":"4","note":"","wikidata":"Q235563","wikipedia":"ar:محافظة الرقة","timestamp":"2018-11-12 07:33:09","rpath":"184878,184840,0","alltags":{"name":"الرقة","name:ar":"الرقة","name:de":"Ar-Raqqa","name:en":"Ar-Raqqah","name:es":"Gobernación de Ar-Raqqa","name:fr":"Gouvernorat de Racca","name:pl":"Ar-Rakka","name:ru":"Эр-Ракка","name:zh":"拉卡省","boundary":"administrative","wikidata":"Q235563","ISO3166-2":"SY-RA","wikipedia":"ar:محافظة الرقة","admin_level":"4"}}},{"arcs":[[14,15,16]],"type":"Polygon","properties":{"srid":"4326","id":"184887","name":"As-Suwayda","localname":"السويداء","official_name":"","boundary":"adminstrative","admin_level":"4","note":"","wikidata":"Q236797","wikipedia":"ar:محافظة السويداء","timestamp":"2018-11-12 07:33:09","rpath":"184887,184840,0","alltags":{"name":"السويداء","name:ar":"السويداء","name:de":"As-Suwaida","name:en":"As-Suwayda","name:es":"Gobernación de Sueida","name:fr":"Gouvernorat de Suweyda","name:pl":"Suwajda","name:ru":"Эс-Сувайда","name:zh":"苏韦达省","boundary":"administrative","wikidata":"Q236797","ISO3166-2":"SY-SU","wikipedia":"ar:محافظة السويداء","admin_level":"4"}}},{"arcs":[[17]],"type":"Polygon","properties":{"srid":"4326","id":"7328462","name":"Damascus","localname":"دمشق","official_name":"","boundary":"adminstrative","admin_level":"4","note":"","wikidata":"Q2007044","wikipedia":"en:Damascus Governorate","timestamp":"2018-11-12 07:33:09","rpath":"7328462,184840,0","alltags":{"name":"دمشق","name:ar":"دمشق","name:cs":"Damašek","name:de":"Damaskus","name:en":"Damascus","name:es":"Gobernación de Damasco","name:fr":"Gouvernorat de Damas","name:zh":"大马士革省","boundary":"administrative","wikidata":"Q2007044","ISO3166-2":"SY-DI","wikipedia":"en:Damascus Governorate","admin_level":"4"}}},{"arcs":[[18,-9,19,-17,20]],"type":"Polygon","properties":{"srid":"4326","id":"184886","name":"Daraa","localname":"درعا","official_name":"","boundary":"adminstrative","admin_level":"4","note":"","wikidata":"Q1689560","wikipedia":"ar:محافظة درعا","timestamp":"2018-11-12 07:33:09","rpath":"184886,184840,0","alltags":{"name":"درعا","name:ar":"درعا","name:de":"Dar'a","name:en":"Daraa","name:es":"Gobernación de Dar'a","name:fr":"Gouvernorat de Deraa","name:lt":"Dara","name:pl":"Dara","name:ru":"Даръа","name:zh":"德拉省","boundary":"administrative","wikidata":"Q1689560","ISO3166-2":"SY-DR","wikipedia":"ar:محافظة درعا","admin_level":"4"}}},{"arcs":[[-12,-6,21,22]],"type":"Polygon","properties":{"srid":"4326","id":"184867","name":"Deir Ezzor","localname":"دير الزور","official_name":"","boundary":"adminstrative","admin_level":"4","note":"","wikidata":"Q232387","wikipedia":"ar:محافظة دير الزور","timestamp":"2018-11-12 07:33:09","rpath":"184867,184840,0","alltags":{"name":"دير الزور","name:ar":"دير الزور","name:de":"Deir Ezzor","name:en":"Deir Ezzor","name:es":"Gobernación de Deir ez-Zor","name:fr":"Gouvernorat de Deir ez-Zor","name:pl":"Dajr az-Zaur","name:ru":"Дайр-эз-Заур","name:zh":"代尔祖尔省","boundary":"administrative","wikidata":"Q232387","ISO3166-2":"SY-DY","wikipedia":"ar:محافظة دير الزور","admin_level":"4"}}},{"arcs":[[23,24,-2,-14,25,26]],"type":"Polygon","properties":{"srid":"4326","id":"184880","name":"Hama","localname":"حماه","official_name":"","boundary":"adminstrative","admin_level":"4","note":"","wikidata":"Q232355","wikipedia":"ar:محافظة حماه","timestamp":"2018-11-12 07:33:09","rpath":"184880,184840,0","alltags":{"name":"حماه","name:ar":"حماه","name:cs":"Hamá","name:de":"Hama","name:en":"Hama","name:es":"Gobernación de Hama","name:fr":"Gouvernorat de Hama","name:pl":"Hama","name:ru":"Хама","name:uk":"Хама мухафаза","name:zh":"哈马省","boundary":"administrative","wikidata":"Q232355","ISO3166-2":"SY-HM","wikipedia":"ar:محافظة حماه","admin_level":"4"}}},{"arcs":[[-26,-13,-23,27,28,29,30]],"type":"Polygon","properties":{"srid":"4326","id":"184877","name":"Homs","localname":"حمص","official_name":"","boundary":"adminstrative","admin_level":"4","note":"","wikidata":"Q214094","wikipedia":"en:Homs Governorate","timestamp":"2018-11-12 07:33:09","rpath":"184877,184840,0","alltags":{"name":"حمص","name:ar":"حمص","name:cs":"Homs","name:de":"Homs","name:en":"Homs","name:es":"Gobernación de Homs","name:fr":"Gouvernorat de Homs","name:pl":"Hims","name:ru":"Хомс","name:uk":"Хімс мухафаза","name:zh":"霍姆斯省","boundary":"administrative","wikidata":"Q214094","ISO3166-2":"SY-HI","wikipedia":"en:Homs Governorate","admin_level":"4"}}},{"arcs":[[31,-3,-25,32]],"type":"Polygon","properties":{"srid":"4326","id":"184881","name":"Idlib","localname":"إدلب","official_name":"","boundary":"adminstrative","admin_level":"4","note":"","wikidata":"Q233218","wikipedia":"ar:محافظة إدلب","timestamp":"2018-11-12 07:33:09","rpath":"184881,184840,0","alltags":{"name":"إدلب","name:ar":"إدلب","name:de":"Idlib","name:en":"Idlib","name:es":"Gobernación de Idlib","name:fr":"Gouvernorat d'Idleb","name:ku":"Îdlîb","name:pl":"Idlib","name:ru":"Идлиб","name:tr":"İdlib","name:zh":"伊德利卜省","boundary":"administrative","wikidata":"Q233218","ISO3166-2":"SY-ID","wikipedia":"ar:محافظة إدلب","admin_level":"4"}}},{"arcs":[[-33,-24,33,34]],"type":"Polygon","properties":{"srid":"4326","id":"184883","name":"Latakia","localname":"اللاذقية","official_name":"","boundary":"adminstrative","admin_level":"4","note":"","wikidata":"Q233236","wikipedia":"ar:محافظة اللاذقية","timestamp":"2018-11-12 07:33:09","rpath":"184883,184840,0","alltags":{"name":"اللاذقية","name:ar":"اللاذقية","name:de":"Latakia","name:en":"Latakia","name:es":"Gobernación de Latakia","name:fr":"Gouvernorat de Lattaquié","name:pl":"Latakia","name:ru":"Латакия","name:uk":"Провінція Латакія","name:zh":"拉塔基亚省","boundary":"administrative","wikidata":"Q233236","ISO3166-2":"SY-LA","wikipedia":"ar:محافظة اللاذقية","admin_level":"4"}}},{"arcs":[[35,-29,36,-15,-20,-8,37],[-18]],"type":"Polygon","properties":{"srid":"4326","id":"184884","name":"Rif Dimashq","localname":"ريف دمشق","official_name":"محافظة ريف دمشق","boundary":"adminstrative","admin_level":"4","note":"","wikidata":"Q232399","wikipedia":"ar:محافظة ريف دمشق","timestamp":"2018-11-12 07:33:09","rpath":"184884,184840,0","alltags":{"name":"ريف دمشق","name:ar":"ريف دمشق","name:de":"Rif Dimaschq","name:en":"Rif Dimashq","name:es":"Gobernacion de Rif Dimashq","name:fr":"Gouvernorat de Rif Dimachq","name:pl":"Damaszek","name:ru":"Дамаск","name:zh":"大马士革农村省","boundary":"administrative","wikidata":"Q232399","ISO3166-2":"SY-RD","wikipedia":"ar:محافظة ريف دمشق","admin_level":"4","official_name":"محافظة ريف دمشق","official_name:ar":"محافظة ريف دمشق"}}},{"arcs":[[-34,-27,-31,38]],"type":"Polygon","properties":{"srid":"4326","id":"184882","name":"Tartus","localname":"طرطوس","official_name":"","boundary":"adminstrative","admin_level":"4","note":"","wikidata":"Q232382","wikipedia":"ar:محافظة طرطوس","timestamp":"2018-11-12 07:33:09","rpath":"184882,184840,0","alltags":{"name":"طرطوس","name:ar":"طرطوس","name:de":"Tartus","name:en":"Tartus","name:es":"Gobernación de Tartus","name:fr":"Gouvernorat de Tartous","name:pl":"Tartus","name:ru":"Тартус","name:zh":"塔尔图斯省","boundary":"administrative","wikidata":"Q232382","ISO3166-2":"SY-TA","wikipedia":"ar:محافظة طرطوس","admin_level":"4"}}},{"arcs":[[-38,-10,-19,39]],"type":"Polygon","properties":{"srid":"4326","id":"184888","name":"United Nations Disengagement Observer Force","localname":"قوة الأمم المتحدة لمراقبة فض الاشتباك","official_name":"","boundary":"adminstrative","admin_level":"4","note":"","wikidata":"Q1428532","wikipedia":"","timestamp":"2018-11-12 07:33:09","rpath":"184888,184840,0","alltags":{"name":"قوة الأمم المتحدة لمراقبة فض الاشتباك","name:ar":"قوة الأمم المتحدة لمراقبة فض الاشتباك","name:de":"Beobachtertruppe der Vereinten Nationen für die Truppenentflechtung","name:en":"United Nations Disengagement Observer Force","name:fr":"Force des Nations unies chargée d´observer le dégagement","name:ru":"Зона Сил ООН по наблюдению за разъединением","boundary":"administrative","wikidata":"Q1428532","admin_level":"4","short_name:ar":"أندوف","short_name:en":"UNDOF"}}}]}}}