{"type":"Topology","arcs":[[[1584,4269],[569,-241],[62,-91],[41,-40]],[[2256,3897],[-87,-319],[-142,-513],[-155,-48],[-18,-114],[3,-105],[-39,-54]],[[1818,2744],[-68,28],[-61,-23],[-27,13],[-41,-22],[-106,-10],[-39,-17],[-53,8],[-89,-14],[-90,11],[-15,37],[-28,25]],[[1201,2780],[9,17],[3,118],[-29,79],[9,35],[-5,30],[-54,5],[-6,-9],[-57,-2],[-22,7],[9,137],[45,16],[46,39],[147,157],[20,37],[19,140],[168,553],[81,130]],[[2256,3897],[93,-55],[50,-17],[77,-9],[76,3],[74,19],[62,30],[81,63],[32,40],[31,52],[17,45],[14,88],[-4,42],[40,6],[23,-13],[40,-78],[38,-38],[93,-14],[58,-20],[87,-15]],[[3238,4026],[1,-39],[9,-766]],[[3248,3221],[-3,-61],[104,-62],[14,-35],[-14,-69],[48,-93],[2,-44],[-5,-132]],[[3394,2725],[-14,-28],[-141,-32]],[[3239,2665],[-132,46],[-86,-44],[-191,-110],[-15,-13],[-350,3],[-71,-36],[-116,-64],[-15,-17],[-90,-2],[-155,-120],[15,-36]],[[2033,2272],[-46,16],[-29,-2],[-17,15],[-11,41],[-39,37],[-8,68],[-19,7],[-52,53],[-28,84],[-58,36],[-8,11],[19,28],[65,53],[16,25]],[[976,4560],[26,27],[1,25]],[[1003,4612],[499,907],[1111,3],[61,-76],[145,-10]],[[2819,5436],[301,-309],[350,6],[15,-40],[-40,-459],[-30,-137],[213,-470]],[[3628,4027],[-20,-3],[-66,-48],[-28,-10],[-52,18],[-88,-18],[-33,6],[-69,43],[-34,11]],[[1584,4269],[-608,291]],[[765,2334],[41,3],[74,16],[56,34],[66,-68],[29,25],[59,31],[72,3],[72,-3],[35,22],[21,24],[104,-38],[94,-28],[86,-33],[29,-46],[-9,-67],[18,-31],[23,-13],[18,-87],[15,-24],[24,4],[56,-8],[34,-20],[25,-29],[50,-24],[45,-33]],[[1902,1944],[-13,-106],[12,-75],[15,-68],[1,-68],[-5,-60],[-12,-47],[27,-18],[33,-8],[46,-34]],[[2006,1460],[-27,-135],[-53,-168]],[[1926,1157],[-61,7],[-34,15],[-12,23],[-61,13],[-48,0],[-22,21],[-64,20],[-27,17],[-25,3],[-18,36],[-1,43],[-20,15],[-49,-32],[-125,1],[-18,4]],[[1341,1343],[-10,27],[-22,23],[-4,74],[14,117],[-16,29],[-34,-7],[-26,13],[-43,0],[-80,22],[-48,36],[-51,20],[-20,32],[-33,27],[-20,73],[-82,-1],[-65,-39]],[[801,1789],[-15,35],[-7,41],[8,22],[-5,41],[42,71],[-21,11],[-19,63],[29,37],[-14,28],[-21,4],[-5,27],[17,32],[-8,37]],[[782,2238],[47,6],[13,13],[-28,35],[-48,24],[-1,18]],[[4211,4144],[18,149],[46,17],[90,115],[-30,54],[30,16],[11,23],[-5,1761]],[[4371,6279],[242,-125],[329,-173],[247,-132],[0,-210],[0,-259],[0,-404],[0,-291],[0,-178],[0,-259],[0,-243],[-93,26],[-73,11],[-55,-3],[-76,-34],[-30,-2],[-64,12],[-47,-2]],[[4751,4013],[-34,41],[-25,11],[-45,-11],[-51,21],[-31,-12],[-65,-10],[-26,7],[-13,38],[-54,14],[-44,-14],[-55,28],[-15,-7],[-28,16],[-54,9]],[[2819,5436],[154,2],[3,655],[485,-1],[261,518]],[[3722,6610],[314,-159],[335,-172]],[[4211,4144],[-59,-27],[-74,16],[-37,-15],[-88,-16],[-66,-19],[-41,7],[-32,20],[-38,10],[-61,-29],[-43,-40],[-44,-24]],[[1902,1944],[23,44],[23,22],[59,42],[67,4],[-23,56],[-44,56],[-1,19],[27,85]],[[3239,2665],[59,-47],[33,-19],[6,-17],[-34,-18],[-30,-55],[20,-40],[-35,-18],[-40,-53],[-30,-67],[-25,-81],[8,-19]],[[3171,2231],[-77,6],[-84,15],[-57,19],[-74,-68],[13,-62],[-42,-63],[-20,-42],[-62,-19],[-17,43],[-75,2],[-14,-104],[14,-71],[32,-9],[17,-19],[128,-58],[71,-24],[36,-27],[106,-23],[6,-29],[16,-15],[-15,-18],[9,-76],[-11,-63]],[[3071,1526],[-42,-30],[-17,-23],[-43,9],[-33,-13],[-42,-61],[5,-22],[-35,-36],[-60,-34],[-41,-81],[-125,0],[-15,-53],[-28,0],[-52,20],[5,51],[-72,78],[-57,30],[-45,7],[-40,29],[-51,21],[-19,-7],[-51,23],[-49,48],[-158,-22]],[[512,2694],[159,-1],[91,1],[11,56],[0,29],[-20,27],[13,13],[36,-16],[44,-10],[35,-51],[14,22],[21,-2],[33,26],[-42,24],[-27,29],[-14,36],[74,10],[23,-37],[73,-34]],[[1036,2816],[89,-41],[52,-4],[24,9]],[[765,2334],[-60,-14]],[[705,2320],[3,54],[-5,34],[-26,55],[4,27],[-11,29],[-34,6],[0,14],[-34,26],[-51,8],[-22,24],[9,57],[-26,40]],[[84,3432],[26,17],[-10,41],[34,30],[32,11],[-10,69],[39,87],[50,55],[151,210],[53,69],[111,109],[171,179],[245,251]],[[1036,2816],[-11,56],[-26,46],[-53,138],[-97,-11],[-116,-26],[-54,3],[-29,-18],[-65,117],[-52,58],[-32,47],[-66,16],[-15,28],[-37,8],[-17,33],[-28,9],[-7,33],[-33,30],[-25,2],[-14,22],[-95,1],[-15,19],[-65,5]],[[512,2694],[-22,43],[-189,0],[-222,303],[-73,315],[-6,41],[10,16],[39,15],[35,5]],[[970,786],[65,-19],[39,19],[82,-11],[54,11],[28,33],[29,-1],[56,-24],[28,37],[37,13],[42,33],[29,-28],[5,-34]],[[1464,815],[12,-30],[45,-54],[24,-6],[4,-27],[-21,-34],[-27,-15],[-5,-23],[-44,-13],[-15,-27],[-52,-4],[-75,-25],[-62,-48],[-84,-42],[-16,-34],[-58,-2],[-65,-28],[-53,50],[-31,1],[-43,33],[-11,18]],[[887,505],[-5,62],[14,44],[32,28],[4,87],[15,24],[-4,22],[27,14]],[[862,494],[25,11]],[[1464,815],[49,15],[26,-2],[29,-20],[15,3],[43,-20],[105,-11],[73,14]],[[1804,794],[8,-52],[-4,-101],[-47,-64],[41,-42],[82,-120],[-41,-68],[-51,-12],[78,-144],[5,-12]],[[1875,179],[-10,-28],[-44,-16],[-7,-24],[-23,12],[-35,-27],[-41,3],[-46,-48],[-25,-4],[-16,33],[-57,32],[0,34],[-35,16],[-6,48],[-35,-14],[-14,-27],[-23,10],[-12,-19],[8,-27],[-12,-16],[-51,-13],[-24,-21],[-94,-17],[-8,-21],[-32,-24],[-81,-21],[-33,18],[-8,20],[-89,-4],[-26,7],[36,33],[9,36],[1,51],[-40,9],[-27,45],[-28,79],[0,23],[-85,177]],[[1804,794],[44,43],[-73,46],[76,53],[0,48],[14,11],[-24,41],[21,9],[33,-1],[82,23],[34,-21]],[[2011,1046],[33,-27],[23,-45],[48,-6],[30,-68],[113,-51],[72,-7],[-26,-49],[-23,-27],[-37,-11],[-15,-19],[12,-56],[19,-23],[-5,-66],[15,-46],[19,-9],[5,-37],[20,-45],[5,-39],[-4,-43],[23,-91]],[[2338,281],[-91,-5],[-54,-25],[-128,12],[-9,-18],[-36,-14],[-18,4],[-12,-26],[-19,14],[-55,-22],[-41,-22]],[[619,1216],[36,-6],[77,23],[50,-18],[44,23],[49,-2],[57,-15],[25,-12],[53,9],[82,20],[-101,60],[-22,39],[-44,46],[-22,9],[-15,49],[-29,40],[-29,16],[1,42],[-12,38],[-33,62],[12,23],[-6,42],[-17,24],[23,14],[9,27],[-6,20]],[[1341,1343],[22,-15],[2,-45],[10,-27],[-30,-58],[-32,-49],[-52,-52],[-33,-20],[-25,-3],[-16,22],[-43,12],[-33,-24],[-7,-36],[-15,-8],[-9,-39],[-49,-42],[-40,-48],[-31,-53]],[[960,858],[-74,30],[-66,42],[-23,39],[-1,40],[-30,36],[3,32],[-41,18],[-44,-12],[-55,-2],[-10,135]],[[960,858],[10,-72]],[[862,494],[-56,97],[-62,14],[3,19],[-44,42],[-28,-1],[-136,98],[-38,21],[-13,28],[-28,16],[-29,29],[12,42],[-16,7],[-17,30],[-18,-6],[-59,70],[-22,7],[-32,41],[-31,18],[23,43],[53,45],[21,40],[16,48],[127,0],[131,-26]],[[3071,1526],[-34,-145],[28,-10],[-21,-54],[3,-29],[-21,-14],[34,-51],[153,-427]],[[3213,796],[-56,-14],[-45,-3],[-51,-16],[-55,7],[-30,-5],[-122,-1],[-42,5],[-15,-8],[-37,3],[-46,-37],[-33,-8],[-25,-22],[23,-13],[62,-58],[33,-15],[3,-18],[-30,-34],[-6,-32],[-17,-7],[-34,-37],[-6,-24],[-34,-20],[-8,-27],[-23,-18],[-56,-20],[-21,-32],[3,-27],[-17,-21],[-190,-13]],[[2011,1046],[19,37],[-64,54],[-40,20]],[[782,2238],[-13,26],[-25,-10],[-33,25],[-14,11],[8,30]],[[3248,3221],[40,44],[46,63],[55,40],[68,-2],[49,17],[85,-20],[50,-30],[79,-82],[42,-6],[35,-41],[37,-2],[81,41],[34,-1],[38,-12],[49,1],[71,-26],[145,-40],[43,-28]],[[4295,3137],[-50,-63],[27,-27],[-3,-26],[46,-50],[6,-54],[24,-31],[-9,-34],[-43,-44],[-11,-19],[-64,-23],[-44,-46],[-46,-102],[-13,-19]],[[4115,2599],[-15,-2],[-37,26],[-105,-43],[-65,-58],[-47,9],[-86,-22],[-45,16],[-28,21],[3,48],[-15,24],[-71,15],[-4,58],[-93,3],[-74,9],[-39,22]],[[3171,2231],[3,-37],[34,26],[105,9],[51,-8],[345,-169],[37,-35],[58,3],[55,-3],[279,49],[34,-24],[70,-13],[152,-323]],[[4394,1706],[-67,-22],[-24,-21],[-13,-27],[-63,8],[-16,-11],[-4,-27],[-49,-19],[-23,-21],[-25,4],[-47,-21],[-7,-58],[23,-53],[-16,-56],[-24,-26],[-26,-11],[-39,-1],[-30,-31],[-21,-53],[-44,-39],[-33,11],[-25,-19],[-18,-30],[-36,-28],[-6,-24],[-43,-17],[-15,-61],[-14,-3],[-30,-41],[-35,-31],[3,-14],[-46,-28],[-30,-5],[-5,-30],[-64,10],[-19,-20],[-5,-33],[-27,-35],[-31,-14],[-58,3],[-23,12],[-29,-14],[-42,11],[-35,-25]],[[4115,2599],[40,-59],[37,-19],[48,1],[45,15],[28,37],[55,-38],[65,-23],[-39,-81],[22,-25],[2,-24],[32,-86],[-11,-71],[29,13],[51,7],[-13,-33],[-30,-161],[4,-24],[40,-51],[65,-27],[8,-29],[69,7],[22,-97],[-51,-144],[-43,6],[-9,11],[-56,6],[-26,9],[-35,-4],[-31,12],[-39,-21]],[[1003,4612],[7,186],[10,192],[15,259],[14,252],[32,234],[43,324],[120,204],[-159,166],[-49,34],[-10,42],[7,28],[29,22],[-169,238],[-41,24],[-4,244],[-59,298],[-37,188],[292,144],[200,97],[247,-112],[263,-119],[296,-137],[380,-178],[293,-140],[201,-97],[284,-139],[241,-119],[273,-137]],[[4751,4013],[-61,-64],[-25,-9],[-9,-34],[34,-38],[8,-85],[-31,-60],[-29,-14],[-64,-57],[4,-30],[-46,-22],[5,-47],[12,-36],[-114,-30],[-33,-18],[-9,-36],[24,-11],[7,-54],[-6,-34],[21,-34],[38,-6],[6,-33],[-8,-21],[-37,-10],[-21,-24],[-18,1],[-26,-19],[-55,-23],[-23,-28]]],"transform":{"scale":[0.0020286220851801887,0.0020616884951206982],"translate":[13.47348,7.441069999999999]},"objects":{"td_slim":{"type":"GeometryCollection","geometries":[{"arcs":[[0,1,2,3]],"type":"Polygon","properties":{"srid":"4326","id":"3106619","name":"Bahr el Gazel","localname":"Barh el Gazel بحر الغزال","official_name":"","boundary":"adminstrative","admin_level":"4","note":"","wikidata":"Q1050621","wikipedia":"ar:بحر الغزال (تشاد)","timestamp":"2018-11-09 07:13:42","rpath":"3106619,2361304,0","alltags":{"name":"Barh el Gazel بحر الغزال","name:ar":"بحر الغزال","name:en":"Bahr el Gazel","name:fr":"Barh el Gazel","name:pl":"Barh El Gazel","name:ru":"Бахр-эль-Газаль","alt_name":"Bahr el Gazel","boundary":"administrative","wikidata":"Q1050621","ISO3166-2":"TD-BG","wikipedia":"ar:بحر الغزال (تشاد)","population":"260865","admin_level":"4","long_name:ar":"منطقة بحر الغزال","population:date":"2009-06-20"}}},{"arcs":[[-2,4,5,6,7,8,9]],"type":"Polygon","properties":{"srid":"4326","id":"3106605","name":"Batha","localname":"Batha البطحة","official_name":"","boundary":"adminstrative","admin_level":"4","note":"","wikidata":"Q180414","wikipedia":"en:Batha Region","timestamp":"2018-11-09 07:13:42","rpath":"3106605,2361304,0","alltags":{"name":"Batha البطحة","name:ar":"البطحة","name:de":"Batha","name:en":"Batha","name:es":"Batha","name:fr":"Batha","name:pl":"Batha","name:ru":"Батха","name:uk":"Батха","boundary":"administrative","wikidata":"Q180414","ISO3166-2":"TD-BA","wikipedia":"en:Batha Region","population":"527031","admin_level":"4","population:date":"2009-06-20"}}},{"arcs":[[10,11,12,13,-5,-1,14]],"type":"Polygon","properties":{"srid":"4326","id":"2537744","name":"Borkou","localname":"Borkou بوركو","official_name":"","boundary":"adminstrative","admin_level":"4","note":"","wikidata":"Q1139666","wikipedia":"en:Borkou Region","timestamp":"2018-11-09 07:13:42","rpath":"2537744,2361304,0","alltags":{"name":"Borkou بوركو","name:ar":"بوركو","name:de":"Borkou","name:en":"Borkou","name:es":"Borkou","name:fr":"Borkou","name:pl":"Borku","name:ru":"Борку","name:uk":"Борку","boundary":"administrative","wikidata":"Q1139666","ISO3166-2":"TD-BO","wikipedia":"en:Borkou Region","population":"97251","admin_level":"4","long_name:ar":"مقاطعة بوركو","population:date":"2009-06-20"}}},{"arcs":[[15,16,17,18,19,20,21]],"type":"Polygon","properties":{"srid":"4326","id":"3106626","name":"Chari-Baguirmi","localname":"Chari-Baguirmi شاري باقرمي","official_name":"","boundary":"adminstrative","admin_level":"4","note":"","wikidata":"Q843975","wikipedia":"fr:Chari-Baguirmi","timestamp":"2018-11-09 07:13:42","rpath":"3106626,2361304,0","alltags":{"name":"Chari-Baguirmi شاري باقرمي","name:ar":"شاري باقرمي","name:en":"Chari-Baguirmi","name:es":"Chari-Baguirmi","name:fr":"Chari-Baguirmi","name:pl":"Szari-Bagirmi","name:ru":"Шари-Багирми","name:uk":"Шарі-Багірмі","boundary":"administrative","wikidata":"Q843975","ISO3166-2":"TD-CB","wikipedia":"fr:Chari-Baguirmi","population":"621785","admin_level":"4","population:date":"2009-06-20"}}},{"arcs":[[22,23,24]],"type":"Polygon","properties":{"srid":"4326","id":"7016937","name":"Ennedi-Est","localname":"Ennedi Est إنيدي الشرقية","official_name":"","boundary":"adminstrative","admin_level":"4","note":"","wikidata":"Q16632169","wikipedia":"fr:Ennedi Est (région)","timestamp":"2018-11-09 07:13:42","rpath":"7016937,2361304,0","alltags":{"name":"Ennedi Est إنيدي الشرقية","name:ar":"إنيدي الشرقية","name:de":"Ost-Ennedi","name:en":"Ennedi-Est","name:es":"Ennedi Est","name:fr":"Ennedi Est","name:pl":"Ennedi Est","name:ru":"Эннеди","name:uk":"Еннеді","boundary":"administrative","wikidata":"Q16632169","ISO3166-2":"TD-EE","wikipedia":"fr:Ennedi Est (région)","population":"113862","admin_level":"4","long_name:ar":"مقاطعة إنيدي الشرقية","population:date":"2009-06-20"}}},{"arcs":[[25,26,-23,27,-13]],"type":"Polygon","properties":{"srid":"4326","id":"2537745","name":"Ennedi-Ouest","localname":"Ennedi Ouest إنيدي الغربية","official_name":"","boundary":"adminstrative","admin_level":"4","note":"","wikidata":"Q16632172","wikipedia":"fr:Ennedi Ouest (région)","timestamp":"2018-11-09 07:13:42","rpath":"2537745,2361304,0","alltags":{"name":"Ennedi Ouest إنيدي الغربية","name:ar":"إنيدي الغربية","name:de":"West-Ennedi","name:en":"Ennedi-Ouest","name:es":"Ennedi Ouest","name:fr":"Ennedi Ouest","name:pl":"Ennedi","name:ru":"Эннеди","name:uk":"Еннеді","boundary":"administrative","wikidata":"Q16632172","ISO3166-2":"TD-EO","wikipedia":"fr:Ennedi Ouest (région)","population":"59744","admin_level":"4","long_name:ar":"مقاطعة إنيدي الغربية","population:date":"2009-06-20"}}},{"arcs":[[28,-9,29,30,31,-17]],"type":"Polygon","properties":{"srid":"4326","id":"3106508","name":"Guéra","localname":"Guéra قيرا","official_name":"","boundary":"adminstrative","admin_level":"4","note":"","wikidata":"Q175706","wikipedia":"fr:Guéra","timestamp":"2018-11-09 07:13:42","rpath":"3106508,2361304,0","alltags":{"name":"Guéra قيرا","name:ar":"قيرا","name:en":"Guéra","name:es":"Guéra","name:fr":"Guéra","name:pl":"Guéra","name:ru":"Гера","name:uk":"Гера","boundary":"administrative","wikidata":"Q175706","ISO3166-2":"TD-GR","wikipedia":"fr:Guéra","population":"553795","admin_level":"4","is_in:country":"تشاد","population:date":"2009-06-20"}}},{"arcs":[[32,33,-3,-10,-29,-16,34,35]],"type":"Polygon","properties":{"srid":"4326","id":"3106606","name":"Hadjer-Lamis","localname":"Hadjer-Lamis حجر لميس","official_name":"","boundary":"adminstrative","admin_level":"4","note":"","wikidata":"Q1042437","wikipedia":"fr:Hadjer-Lamis","timestamp":"2018-11-09 07:13:42","rpath":"3106606,2361304,0","alltags":{"name":"Hadjer-Lamis حجر لميس","name:ar":"حجر لميس","name:en":"Hadjer-Lamis","name:es":"Hadjer-Lamis","name:fr":"Hadjer-Lamis","name:pl":"Hadjer-Lamis","name:ru":"Хаджер-Ламис","name:uk":"Хаджер-Ламі","alt_name":"Hadjer Lamis","boundary":"administrative","wikidata":"Q1042437","ISO3166-2":"TD-HL","wikipedia":"fr:Hadjer-Lamis","population":"562957","admin_level":"4","population:date":"2009-06-20"}}},{"arcs":[[36,-15,-4,-34,37]],"type":"Polygon","properties":{"srid":"4326","id":"3106623","name":"Kanem","localname":"Kanem كانم","official_name":"","boundary":"adminstrative","admin_level":"4","note":"","wikidata":"Q849841","wikipedia":"fr:Kanem (région)","timestamp":"2018-11-09 07:13:42","rpath":"3106623,2361304,0","alltags":{"name":"Kanem كانم","name:ar":"كانم","name:en":"Kanem","name:es":"Kanem","name:fr":"Kanem","name:pl":"Kanem","name:ru":"Канем","name:uk":"Канем","boundary":"administrative","wikidata":"Q849841","ISO3166-2":"TD-KA","wikipedia":"fr:Kanem (région)","population":"354603","admin_level":"4","long_name:ar":"منطقة كانم","population:date":"2009-06-20"}}},{"arcs":[[-38,-33,38]],"type":"Polygon","properties":{"srid":"4326","id":"3217119","name":"Lac","localname":"Lac البحيرة","official_name":"","boundary":"adminstrative","admin_level":"4","note":"","wikidata":"Q867869","wikipedia":"fr:Lac (région)","timestamp":"2018-11-09 07:13:42","rpath":"3217119,2361304,0","alltags":{"name":"Lac البحيرة","name:ar":"البحيرة","name:de":"Region See","name:en":"Lac","name:es":"Lac","name:fr":"Lac","name:pl":"Lac","name:ru":"Лак","name:uk":"Лак","boundary":"administrative","wikidata":"Q867869","ISO3166-2":"TD-LC","wikipedia":"fr:Lac (région)","population":"451369","admin_level":"4","long_name:ar":"منطقة البحيرة","population:date":"2009-06-20"}}},{"arcs":[[39,40,41]],"type":"Polygon","properties":{"srid":"4326","id":"3218248","name":"Logone Occidental","localname":"لوقون الغربية Logone Occidental","official_name":"","boundary":"adminstrative","admin_level":"4","note":"","wikidata":"Q305257","wikipedia":"fr:Logone Occidental","timestamp":"2018-11-09 07:13:42","rpath":"3218248,2361304,0","alltags":{"name":"لوقون الغربية Logone Occidental","name:ar":"لوقون الغربية","name:de":"Logone West","name:en":"Logone Occidental","name:es":"Logone Occidental","name:fr":"Logone Occidental","name:pl":"Logon Zachodni","name:ru":"Западный Логон","name:uk":"Західний Логон","boundary":"administrative","wikidata":"Q305257","ISO3166-2":"TD-LO","wikipedia":"fr:Logone Occidental","population":"683293","admin_level":"4","population:date":"2009-06-20"}}},{"arcs":[[42,-41,43,44,45]],"type":"Polygon","properties":{"srid":"4326","id":"3218249","name":"Logone Oriental","localname":"Logone Oriental لوقون الشرقية","official_name":"","boundary":"adminstrative","admin_level":"4","note":"","wikidata":"Q167514","wikipedia":"fr:Logone Oriental","timestamp":"2018-11-09 07:13:42","rpath":"3218249,2361304,0","alltags":{"name":"Logone Oriental لوقون الشرقية","name:ar":"لوقون الشرقية","name:de":"Logone Ost","name:en":"Logone Oriental","name:es":"Logone Oriental","name:fr":"Logone Oriental","name:pl":"Logon Wschodni","name:ru":"Восточный Логон","name:uk":"Східний Логон","boundary":"administrative","wikidata":"Q167514","ISO3166-2":"TD-LR","wikipedia":"fr:Logone Oriental","population":"796453","admin_level":"4","population:date":"2009-06-20"}}},{"arcs":[[46,47,48,-45]],"type":"Polygon","properties":{"srid":"4326","id":"3218250","name":"Mandoul","localname":"Mandoul ماندول","official_name":"","boundary":"adminstrative","admin_level":"4","note":"","wikidata":"Q597410","wikipedia":"fr:Mandoul","timestamp":"2018-11-09 07:13:42","rpath":"3218250,2361304,0","alltags":{"name":"Mandoul ماندول","name:ar":"ماندول","name:en":"Mandoul","name:es":"Mandoul","name:fr":"Mandoul","name:pl":"Mandoul","name:ru":"Мандуль","name:uk":"Мандул","boundary":"administrative","wikidata":"Q597410","ISO3166-2":"TD-MA","wikipedia":"fr:Mandoul","population":"637086","admin_level":"4","long_name:ar":"منطقة ماندول","population:date":"2009-06-20"}}},{"arcs":[[49,-20,50,51]],"type":"Polygon","properties":{"srid":"4326","id":"3218251","name":"Mayo-Kebbi Est","localname":"Mayo-Kebbi Est مايو كيبي الشرقية","official_name":"","boundary":"adminstrative","admin_level":"4","note":"","wikidata":"Q911421","wikipedia":"fr:Mayo-Kebbi Est","timestamp":"2018-11-09 07:13:42","rpath":"3218251,2361304,0","alltags":{"name":"Mayo-Kebbi Est مايو كيبي الشرقية","name:ar":"مايو كيبي الشرقية","name:de":"Mayo-Kebbi Ost","name:en":"Mayo-Kebbi Est","name:es":"Mayo-Kebbi Este","name:fr":"Mayo-Kebbi Est","name:pl":"Mayo-Kebbi Est","name:ru":"Восточное Майо-Кеби","name:uk":"Східний Майо-Кебі","boundary":"administrative","wikidata":"Q911421","ISO3166-2":"TD-ME","wikipedia":"fr:Mayo-Kebbi Est","population":"769198","admin_level":"4","long_name:ar":"منطقة مايو كيبي الشرقي","population:date":"2009-06-20","official_name:ar":"منطقة مايو كيبي الشرقي"}}},{"arcs":[[-52,52,-42,-43,53]],"type":"Polygon","properties":{"srid":"4326","id":"3218252","name":"Mayo-Kebbi Ouest","localname":"Mayo-Kebbi Ouest مايو كيبي الغربية","official_name":"","boundary":"adminstrative","admin_level":"4","note":"","wikidata":"Q910393","wikipedia":"fr:Mayo-Kebbi Ouest","timestamp":"2018-11-09 07:13:42","rpath":"3218252,2361304,0","alltags":{"name":"Mayo-Kebbi Ouest مايو كيبي الغربية","name:ar":"مايو كيبي الغربية","name:de":"Mayo-Kebbi West","name:en":"Mayo-Kebbi Ouest","name:es":"Mayo-Kebbi Oeste","name:fr":"Mayo-Kebbi Ouest","name:pl":"Mayo-Kebbi Ouest","name:ru":"Западное Майо-Кеби","name:uk":"Західний Майо-Кебі","boundary":"administrative","wikidata":"Q910393","ISO3166-2":"TD-MO","wikipedia":"fr:Mayo-Kebbi Ouest","population":"569087","admin_level":"4","long_name:ar":"منطقة مايو كيبي الغربي","population:date":"2009-06-20","official_name:ar":"منطقة مايو كيبي الغربي"}}},{"arcs":[[-18,-32,54,55,-48,56]],"type":"Polygon","properties":{"srid":"4326","id":"3218253","name":"Moyen-Chari","localname":"Moyen-Chari شاري الأوسط","official_name":"","boundary":"adminstrative","admin_level":"4","note":"","wikidata":"Q177799","wikipedia":"fr:Moyen-Chari","timestamp":"2018-11-09 07:13:42","rpath":"3218253,2361304,0","alltags":{"name":"Moyen-Chari شاري الأوسط","name:ar":"شاري الأوسط","name:de":"Region Mittel-Schari","name:en":"Moyen-Chari","name:es":"Moyen-Chari","name:fr":"Moyen-Chari","name:pl":"Szari Środkowe","name:ru":"Среднее Шари","name:uk":"Середнє Шарі","boundary":"administrative","wikidata":"Q177799","ISO3166-2":"TD-MC","wikipedia":"fr:Moyen-Chari","population":"598284","admin_level":"4","population:date":"2009-06-20"}}},{"arcs":[[-35,-22,57]],"type":"Polygon","properties":{"srid":"4326","id":"3718330","name":"N'Djamena Region","localname":"N'Djaména انجمينا","official_name":"","boundary":"adminstrative","admin_level":"4","note":"","wikidata":"Q3659","wikipedia":"ar:انجمينا","timestamp":"2018-11-09 07:13:42","rpath":"3718330,2361304,0","alltags":{"name":"N'Djaména انجمينا","name:ar":"انجمينا","name:en":"N'Djamena Region","name:es":"Yamena","name:fr":"N'Djaména","name:pl":"Ndżamena","name:ru":"Нджамена","name:uk":"Нджамена","boundary":"administrative","wikidata":"Q3659","ISO3166-2":"TD-ND","wikipedia":"ar:انجمينا","population":"1092066","admin_level":"4","alt_name:ar":"نجامينا","population:date":"2012"}}},{"arcs":[[58,59,60,-7]],"type":"Polygon","properties":{"srid":"4326","id":"3106500","name":"Ouaddaï","localname":"Ouaddaï وداي","official_name":"","boundary":"adminstrative","admin_level":"4","note":"","wikidata":"Q841338","wikipedia":"fr:Ouaddaï","timestamp":"2018-11-09 07:13:42","rpath":"3106500,2361304,0","alltags":{"name":"Ouaddaï وداي","name:ar":"وداي","name:de":"Region Wadai","name:en":"Ouaddaï","name:es":"Ouaddaï","name:fr":"Ouaddaï","name:pl":"Wadaj","name:ru":"Ваддай","name:uk":"Вадаї","boundary":"administrative","wikidata":"Q841338","ISO3166-2":"TD-OD","wikipedia":"fr:Ouaddaï","population":"731679","admin_level":"4","alt_name:es":"Waddaí","long_name:ar":"مقاطعة وداي","population:date":"2009-06-20"}}},{"arcs":[[61,62,-55,-31]],"type":"Polygon","properties":{"srid":"4326","id":"3106489","name":"Salamat","localname":"Salamat سلامات","official_name":"","boundary":"adminstrative","admin_level":"4","note":"","wikidata":"Q385584","wikipedia":"fr:Salamat","timestamp":"2018-11-09 07:13:42","rpath":"3106489,2361304,0","alltags":{"name":"Salamat سلامات","name:ar":"سلامات","name:en":"Salamat","name:es":"Salamat","name:fr":"Salamat","name:pl":"Salamat","name:ru":"Саламат","name:uk":"Саламат","boundary":"administrative","wikidata":"Q385584","ISO3166-2":"TD-SA","wikipedia":"fr:Salamat","population":"308605","admin_level":"4","long_name:ar":"منطقة سلامات","population:date":"2009-06-20"}}},{"arcs":[[-8,-61,63,-62,-30]],"type":"Polygon","properties":{"srid":"4326","id":"3106495","name":"Sila","localname":"Sila سيلا","official_name":"","boundary":"adminstrative","admin_level":"4","note":"","wikidata":"Q1149611","wikipedia":"fr:Sila (Tchad)","timestamp":"2018-11-09 07:13:42","rpath":"3106495,2361304,0","alltags":{"name":"Sila سيلا","name:ar":"سيلا","name:en":"Sila","name:es":"Sila","name:fr":"Sila","name:pl":"Sila","name:ru":"Сила","alt_name":"Dar Sila","boundary":"administrative","name:ar1":"دار سيلا","wikidata":"Q1149611","ISO3166-2":"TD-SI","wikipedia":"fr:Sila (Tchad)","population":"289776","admin_level":"4","alt_name:fr":"Dar Sila","long_name:ar":"منطقة سيلا","population:date":"2009-06-20"}}},{"arcs":[[-51,-19,-57,-47,-44,-40,-53]],"type":"Polygon","properties":{"srid":"4326","id":"3218254","name":"Tandjilé","localname":"Tandjilé تانجلي","official_name":"","boundary":"adminstrative","admin_level":"4","note":"","wikidata":"Q867856","wikipedia":"fr:Tandjilé","timestamp":"2018-11-09 07:13:42","rpath":"3218254,2361304,0","alltags":{"name":"Tandjilé تانجلي","name:ar":"تانجلي","name:en":"Tandjilé","name:pl":"Tandjilé","name:ru":"Танджиле","name:uk":"Танджиле","boundary":"administrative","wikidata":"Q867856","ISO3166-2":"TD-TA","wikipedia":"fr:Tandjilé","population":"682817","admin_level":"4","population:date":"2009-06-20"}}},{"arcs":[[-26,-12,64]],"type":"Polygon","properties":{"srid":"4326","id":"2537732","name":"Tibesti","localname":"Tibesti تيبستي","official_name":"","boundary":"adminstrative","admin_level":"4","note":"","wikidata":"Q737711","wikipedia":"fr:Tibesti","timestamp":"2018-11-09 07:13:42","rpath":"2537732,2361304,0","alltags":{"name":"Tibesti تيبستي","name:ar":"تيبستي","name:en":"Tibesti","name:es":"Tibesti","name:fr":"Tibesti","name:pl":"Tibesti","name:ru":"Тибести","name:uk":"Тібесті","boundary":"administrative","wikidata":"Q737711","ISO3166-2":"TD-TI","wikipedia":"fr:Tibesti","population":"21970","admin_level":"4","long_name:ar":"مقاطعة تيبستي","population:date":"2009-06-20"}}},{"arcs":[[-14,-28,-25,65,-59,-6]],"type":"Polygon","properties":{"srid":"4326","id":"2537750","name":"Wadi Fira","localname":"Wadi Fira وادي فيرا","official_name":"","boundary":"adminstrative","admin_level":"4","note":"","wikidata":"Q860813","wikipedia":"fr:Wadi Fira","timestamp":"2018-11-09 07:13:42","rpath":"2537750,2361304,0","alltags":{"name":"Wadi Fira وادي فيرا","name:ar":"وادي فيرا","name:en":"Wadi Fira","name:es":"Wadi Fira","name:fr":"Wadi Fira","name:pl":"Wadi Fira","name:ru":"Вади-Фера","name:uk":"Ваді-Фіра","alt_name":"Ouaddi Fira","boundary":"administrative","wikidata":"Q860813","ISO3166-2":"TD-WF","wikipedia":"fr:Wadi Fira","population":"494993","admin_level":"4","alt_name:fr":"Ouaddi Fira","long_name:ar":"مقاطعة وادي فيرا","population:date":"2009-06-20"}}}]}}}