{"type":"Topology","arcs":[[[1938,360],[0,59],[-145,1],[-37,69],[-23,7],[-32,55],[-6,43],[-137,-2],[-40,49],[-89,30],[-49,37],[-7,41],[-37,46],[17,21]],[[1353,816],[62,9],[58,34],[72,67],[27,76],[-12,117],[278,-14],[58,-45],[100,-48],[124,98],[70,30],[64,-13],[79,14],[48,58],[26,12]],[[2407,1211],[36,-20],[-15,-110],[33,-68],[-37,-7],[-13,-38],[30,-36],[7,-46],[64,-33],[50,-46],[-6,-37],[63,-32],[61,-159],[2,-39],[-95,-20],[-144,-38],[-150,-26],[-119,-26],[-236,-70]],[[958,4465],[10,39],[-28,24],[-49,11],[9,49],[-16,32],[24,122],[-44,55],[-94,74],[-44,17],[-66,6],[-34,102],[-101,36],[-25,43],[-125,32],[-23,61],[5,67],[65,70],[-10,35],[27,64],[2,51],[49,16],[-11,88],[-37,48],[-61,-23],[-60,4],[-49,22],[8,30],[218,-41],[329,-53],[244,-43],[7,-38],[-15,-44],[201,70],[318,-2],[-30,-80],[20,-45],[-20,-17],[-11,-64],[-87,-76],[-12,-48],[10,-78],[-9,-59],[-19,-28],[-11,-155],[278,-165]],[[1691,4674],[-23,-45],[-26,-13],[-128,23],[-53,-30],[-27,27],[-38,-5],[-31,-59],[-52,-68],[-15,-94],[-49,-73],[-96,-15],[-27,14],[-23,45],[-120,28],[-25,56]],[[2452,2736],[-440,7],[-25,-31],[-6,-49],[43,-137],[-14,-69],[3,-54],[-70,-79],[-154,-26],[-62,-1],[-80,29],[-103,-24],[-68,-2],[-69,-20],[-51,5],[-60,-38],[-77,-4]],[[1219,2243],[-29,86],[7,36],[-22,75],[26,48],[17,81],[24,47],[44,-1],[17,22],[53,9],[-1,54],[-24,13],[-19,53],[-54,20],[-6,72],[-70,27],[-36,32],[-61,17],[-51,38],[-110,147]],[[924,3119],[-4,55],[77,-2],[63,12],[5,40],[30,33]],[[1095,3257],[23,-11],[77,72],[32,41],[0,31],[56,0],[65,63],[42,-7],[58,-33],[62,-20],[96,9],[41,12],[12,34],[40,9],[-22,43],[7,104],[101,31],[123,-18],[76,5],[140,39],[25,-4],[82,49]],[[2231,3706],[72,-74],[95,-65],[43,-64],[17,-58],[-3,-82],[15,-95],[-4,-350],[45,-53],[-37,-48],[-22,-81]],[[1938,360],[-67,-24],[-77,-44],[-104,-117],[-7,-63],[-18,-40],[-65,-54],[-153,-17],[-130,-1],[-87,22],[-12,37],[11,39],[-136,137],[-55,-5],[-119,-31],[-65,-27],[0,51],[-45,25],[5,58],[-14,31],[-58,16],[-66,-14],[-55,18],[-67,41],[26,71],[-19,49],[-35,18],[1,31],[42,46],[34,74],[-33,81],[-28,31],[13,58],[38,47],[106,72],[12,32],[-13,75],[-25,63],[-14,122],[-18,68],[11,65],[44,146],[11,58],[-30,101],[-85,29],[-33,180],[6,19],[-56,23],[-19,41],[-6,89],[-103,13],[-39,23],[-35,81],[-31,159],[-19,13],[-62,-11],[-115,104],[-61,1],[-19,29],[15,57],[80,27],[69,-22],[98,63],[7,36],[68,27],[81,-5],[40,-14],[128,-82],[91,15],[18,48],[-14,40],[65,16],[-12,54],[-69,0],[-77,-15],[-31,21],[8,104],[-8,37],[24,51],[77,34],[-31,19],[2,38],[45,55],[42,33],[122,-22],[37,-16],[49,21]],[[1219,2243],[9,-40],[-19,-123],[17,-43],[-44,-6],[-5,-85],[-77,-35],[-5,-75],[19,-96],[42,-36],[54,20],[39,-11],[-4,-31],[20,-55],[-15,-30],[-14,-87],[-48,-90],[20,-17],[-28,-113],[-82,-26],[2,-33],[51,-20],[-12,-40],[-25,-10],[16,-43],[34,-32],[7,-45],[48,-7],[28,-29],[8,-56],[-17,-34],[35,-38],[46,-17],[34,5],[0,-49]],[[1691,4674],[121,-74],[68,-30],[251,-132],[11,-178],[6,-241],[-38,-57],[27,-54],[41,-12],[18,-141],[35,-49]],[[1095,3257],[-13,48],[-66,125],[5,38],[33,42],[-11,37],[41,18],[27,48],[-34,48],[60,68],[16,90],[-73,33],[-9,41],[-56,23],[-114,1],[-32,-48],[-78,-27],[-58,39],[99,38],[-32,26],[-49,-2],[-6,50],[167,8],[-22,48],[-65,-30],[-48,60],[17,34],[49,-36],[43,42],[-34,33],[1,52],[40,78],[3,87],[34,9],[-36,54],[2,40],[62,-7]],[[2452,2736],[27,-18],[4,-537],[5,-238],[17,-92],[-15,-112],[1,-114],[-3,-338],[-103,2],[22,-78]]],"transform":{"scale":[0.0008054511565921693,0.0009520565483498703],"translate":[-0.36161580000000004,5.769898067306731]},"objects":{"admin_level_4":{"type":"GeometryCollection","geometries":[{"arcs":[[0,1,2]],"type":"Polygon","properties":{"admin_level":"4","name:ru":"Приморская область","name:en":"Maritime Region","boundary":"administrative","ISO3166-2":"TG-M","name":"Région Maritime","name:de":"Region Maritime","name:uk":"Марітіме","wikipedia":"en:Maritime Region","wikidata":"Q316291","name:fr":"Région Maritime"},"id":3338188},{"arcs":[[3,4]],"type":"Polygon","properties":{"admin_level":"4","name:lt":"Savanų regionas","name":"Région des Savanes","name:uk":"Саванн","name:ru":"Саванн","name:de":"Region Savanes","wikipedia":"en:Savanes Region, Togo","name:en":"Savanes Region","ISO3166-2":"TG-S","name:fr":"Région des Savanes","wikidata":"Q279945","boundary":"administrative"},"id":402968},{"arcs":[[5,6,7,8,9]],"type":"Polygon","properties":{"admin_level":"4","name:ru":"Центральная область","name:en":"Centrale Region","boundary":"administrative","ISO3166-2":"TG-C","name":"Région Centrale","name:de":"Region Centrale","name:uk":"Центральний регіон","wikipedia":"en:Centrale Region, Togo","wikidata":"Q316220","name:fr":"Région Centrale"},"id":3338091},{"arcs":[[-1,10,-7,11]],"type":"Polygon","properties":{"admin_level":"4","name:ru":"Вольта","name:en":"Volta Region","ISO3166-2":"GH-TV","name":"Volta Region","name:uk":"Вольта","wikipedia":"en:Volta Region","wikidata":"Q712832","boundary":"administrative"},"id":3328699},{"arcs":[[12,-9,13,-5]],"type":"Polygon","properties":{"admin_level":"4","name:ru":"Кара","name:en":"Kara Region","boundary":"administrative","ISO3166-2":"TG-K","name":"Région de la Kara","name:de":"Region Kara","name:uk":"Кара","wikipedia":"en:Kara Region","wikidata":"Q316216","name:fr":"Région de la Kara"},"id":3338038},{"arcs":[[-2,-12,-6,14]],"type":"Polygon","properties":{"admin_level":"4","name:ru":"Плато","name:en":"Plateaux Region","boundary":"administrative","ISO3166-2":"TG-P","name":"Région des Plateaux","name:de":"Region Plateaux","name:uk":"Плато","wikipedia":"en:Plateaux Region, Togo","wikidata":"Q316306","name:fr":"Région des Plateaux"},"id":3338185}]}}}