{"type":"Topology","arcs":[[[6277,3850],[-35,31],[-83,-12],[-73,-39],[-40,-55],[-40,9],[-63,-44],[-15,-88],[7,-121],[-33,5],[-116,94],[-56,27]],[[5730,3657],[-37,27],[-49,3],[-26,29],[-37,-47],[-55,27],[-74,7],[-18,95],[-64,13],[-26,66],[-33,0],[-86,46]],[[5225,3923],[-123,8],[-68,56],[15,54],[74,-32],[15,112],[34,18],[-20,100],[-66,39],[-8,55],[-53,18],[-22,61],[12,66],[-31,57],[-49,35],[17,49],[-59,17],[-30,50]],[[4863,4686],[-8,45],[21,48]],[[4876,4779],[72,24],[19,36],[57,-22],[40,-41],[108,11],[80,41],[74,83]],[[5326,4911],[26,-11],[80,35],[67,-52],[74,9],[104,-26],[82,66],[74,-33],[68,15],[3,-64],[60,-53],[12,-42],[53,-26],[30,-44],[-23,-39],[26,-43],[60,-9],[73,43],[45,-10]],[[6240,4627],[11,-61],[-52,-68],[43,-68],[134,-54],[-6,-64],[28,-48],[76,-11],[31,-76],[-37,-8],[26,-61],[-48,-28],[-37,-117],[-96,3],[-54,-39],[18,-77]],[[6382,1246],[-125,-23],[-86,37],[1,70],[-64,52],[-53,21],[-46,-36],[-67,87],[-69,5],[-184,106],[-36,-13],[-59,31],[10,-62],[-31,-34],[-16,-70],[-374,-144]],[[5183,1273],[-159,34],[-97,39],[-81,21],[-92,38],[-144,33],[-67,29],[-74,73],[-32,77],[-2,103],[-38,5]],[[4397,1725],[108,-2],[219,-42],[-11,98],[18,14],[46,119],[72,25],[-6,36],[70,32],[17,38],[212,33],[5,-31],[122,28],[1,68],[57,59],[-68,46],[-10,30],[26,54],[74,12],[-4,58],[16,108],[-22,123]],[[5339,2631],[114,-43],[78,16],[46,44],[4,-76],[27,-14],[144,25],[6,-42],[91,12]],[[5849,2553],[51,-34],[24,-124],[91,32],[20,-163],[50,-102],[55,-9],[8,-64],[29,-40],[-37,-62],[-11,-100],[22,-54],[65,11],[-1,-44],[80,-19],[10,-141],[99,-27],[93,-92]],[[6497,1521],[-69,-125],[-86,-42],[40,-108]],[[5633,5],[-106,52],[-89,59],[-82,113],[-17,85],[24,82],[51,53],[2,66],[22,71]],[[5438,586],[126,-78],[30,-99],[54,3],[-5,-64],[54,-48],[47,-115],[-79,-26],[-32,-154]],[[5438,586],[-50,8],[-80,44],[-68,63],[-28,48],[-98,-30],[-122,41],[-32,24],[-42,72],[-13,73],[14,84],[58,97],[117,74],[89,89]],[[6382,1246],[51,-85],[45,-50],[15,-44],[57,-55],[25,65],[52,46],[66,10],[54,-23],[174,43],[161,-35],[6,-132],[-9,-75],[-29,-39],[-4,-44],[-31,-41],[38,-201],[-49,-50],[-143,-44],[-55,11],[-34,-18],[-123,-11],[-72,41],[-48,-57],[-67,-29],[-46,-68],[-70,-45],[-48,-6],[-64,20],[-59,-5],[-69,-44],[-54,-110],[-155,-134],[-139,-37],[-125,5]],[[8254,2857],[-95,5],[-44,-47],[-8,-101],[-50,10],[-26,-42],[-78,0],[-51,-21],[-32,-56],[8,-118],[-40,-68],[20,-52],[-15,-92],[53,-107],[-97,-93],[-253,-24],[-89,-89],[-69,-21],[-62,17]],[[7326,1958],[-72,169],[34,31],[-5,61],[-76,96],[10,109],[67,3],[11,47],[43,-2],[26,64],[-44,-1],[-66,76],[-63,-6],[-30,62],[-52,5],[-26,126],[-42,42]],[[7041,2840],[-21,45],[21,39],[-1,93],[35,14],[87,-46],[31,33],[-12,83],[32,7],[-12,89],[-47,3],[6,134],[-44,109]],[[7116,3443],[-1,61],[-23,56],[80,18],[69,-10],[51,50],[45,-29],[15,74],[51,10],[-15,41],[43,57],[97,60],[-40,42],[33,40],[111,-23],[38,24]],[[7670,3914],[25,-69],[55,-14],[28,-99],[-45,-40],[94,-15],[58,-149],[-24,-55],[15,-134],[22,-42],[44,8],[-3,-131],[68,-7],[22,-52],[102,-67],[-9,-36],[29,-43],[87,-6],[24,-52],[-8,-54]],[[4397,1725],[9,168],[-10,160],[-56,51],[-12,51],[109,21],[31,44],[-17,96],[-55,7],[6,66],[-74,-21],[-10,39],[-44,-9],[-27,175],[-38,33],[1,60],[-56,-18],[-24,28],[-68,-14],[-25,13],[-15,85],[-27,50],[-17,87],[-26,36],[-7,79],[36,56]],[[3981,3068],[30,26],[121,-15],[15,23],[138,-15],[25,43],[89,0],[36,-81],[121,9],[6,-32],[66,36],[30,-32],[28,-113],[45,13],[11,-110],[91,-4],[44,-52],[42,8],[3,42],[61,-20],[144,24],[-3,79],[19,47],[99,3],[-6,32],[53,16],[7,-46]],[[5296,2949],[5,-61],[28,-132],[-49,-13],[11,-72],[48,-40]],[[7670,3914],[34,54],[-33,19],[9,59],[-25,33],[1,58],[63,71],[19,52],[-31,40],[50,41],[-10,90]],[[7747,4431],[92,61],[-21,78],[73,5],[11,-61],[67,-34],[46,11],[69,-39],[111,-101],[56,15],[55,56],[51,-103],[46,-13],[48,14],[55,-30],[34,-80],[71,-44],[71,30],[90,16],[16,-38],[-63,-37],[-5,-52],[81,-85],[-5,-49],[-53,-73],[-22,-5],[-46,-75],[-119,-26],[78,-124],[100,11],[11,-26],[-51,-60],[-82,35],[-40,-67],[-28,-101],[91,-47],[-4,-68],[30,-40],[14,-187],[-30,-48],[4,-60],[-30,-45],[-41,-120],[-84,6],[-87,27],[-71,-3],[-45,-19],[-37,21]],[[7326,1958],[-71,-55],[-17,-69],[-47,-51],[-39,-17],[-82,12],[-48,45],[-91,-92],[-47,-63],[-89,-28],[-70,28],[-45,57],[-128,-114],[-55,-90]],[[5849,2553],[79,32],[82,10],[50,23],[182,-25],[-19,112],[24,30],[-30,37],[-15,92],[27,42],[-24,38],[22,84],[59,6],[33,26],[86,10],[119,-54],[88,51],[55,-58],[73,22],[42,-27],[24,-168],[108,-3],[61,-11],[66,18]],[[1701,3479],[-21,-29],[18,-198],[-88,18],[-63,-27],[-66,-95],[-32,-15],[-23,-74],[-74,-80],[4,-63],[37,-70],[-36,-100]],[[1357,2746],[-49,62],[-75,49],[-20,54],[-31,22]],[[1182,2933],[30,61],[-59,83],[12,44],[-54,95],[-63,36],[-68,8],[-19,111],[-64,-53],[-34,13],[10,55],[-61,23],[-7,45],[-40,-1],[-40,53],[-38,15]],[[687,3521],[15,41],[-6,152],[52,48],[8,44],[36,24],[70,-20],[31,30],[129,5],[99,41],[-45,34],[27,94],[-13,52],[13,51],[38,38],[74,-34],[44,-3]],[[1259,4118],[53,-86],[-1,-78],[52,-43],[-38,-40],[21,-38],[42,-10],[-8,-81],[67,-25],[15,-84],[112,-9],[94,-49],[37,-35],[-4,-61]],[[4876,4779],[-47,41],[-12,44],[20,64],[-52,2],[-48,68],[-83,-53],[-28,-32],[-103,-15],[-80,32],[-31,139],[-59,32],[-146,11],[3,67],[-45,29],[-20,78],[-69,15],[8,69],[-13,42],[24,79]],[[4095,5491],[38,16],[18,68],[-70,169],[68,123],[5,48],[71,102],[67,61],[-6,36],[101,25],[56,-47],[72,77],[156,-35],[95,0],[21,-35],[52,-13],[109,53],[51,111],[-19,63],[95,-1],[65,-47],[152,5],[85,78],[126,-21]],[[5503,6327],[-41,-156],[71,-48],[-84,-50],[38,-45],[-102,-37],[-53,-106],[42,-65],[-3,-95],[-39,-178],[-5,-66],[-52,-71],[-8,-56],[47,-7],[47,-92],[31,0],[-23,-132],[23,-54],[-66,-158]],[[5296,2949],[16,35],[57,39],[79,26],[0,31],[55,10],[57,50],[-35,74],[7,85],[-9,73],[68,51],[75,21],[-4,42],[-85,66],[45,37],[87,-9],[21,77]],[[6277,3850],[21,18],[63,-22],[108,-103],[47,-24],[43,4],[100,-33],[92,19],[26,-41],[-12,-47],[69,-55],[-8,-47],[67,-52],[-14,-28],[50,-63],[62,96],[53,-47],[72,18]],[[5503,6327],[44,7],[20,-41],[57,41],[78,5],[49,-86],[87,-85],[-17,-54],[30,-80],[133,-110],[10,-72],[-134,-36],[3,-32],[62,-87],[1,-40],[-36,-41],[30,-42],[-23,-64],[46,-40],[25,26],[51,-23],[86,1],[21,-54],[54,-5],[65,44],[92,-7],[-7,-44],[31,-82],[60,21],[46,-26],[-37,-43],[28,-54],[11,-89],[38,-24],[-14,-68],[-33,-37],[41,-118],[54,-32],[-2,-41],[36,-34]],[[6589,4781],[-78,-46],[-81,20],[-34,-65],[-55,6],[-52,-60],[-49,-9]],[[1450,4731],[-86,45],[-82,-5],[-55,55],[-68,113],[-56,27],[-83,-5],[-65,42]],[[955,5003],[-68,122],[69,64],[-49,39],[-86,183],[-91,120],[30,65],[-16,135],[-29,31],[87,39],[47,-46],[56,-21],[61,67],[97,65],[-12,38],[46,63],[158,11],[47,13],[61,-16],[81,48],[79,12],[72,-37],[89,2]],[[1684,6000],[56,-23],[-33,-34],[21,-73],[-54,-160],[63,-129],[68,-8],[52,-109],[58,-43],[-38,-42],[50,-56],[8,-35],[-52,-54],[-5,-54],[-43,-27],[-16,-112],[-62,-13],[-24,42],[-106,-40],[-43,1],[5,-52],[-62,-58],[-39,15],[-25,-96],[34,-40],[-47,-69]],[[3591,4237],[-61,-24],[-51,6],[-31,-30],[-90,2],[-31,63],[-5,131],[-54,15],[-133,-67],[-20,36],[-53,2],[-160,-39],[-54,6],[-80,-35]],[[2768,4303],[-55,27],[-40,54],[-37,125],[31,4],[2,62],[29,53],[-47,81],[-24,-26],[-55,39],[-81,91],[24,78],[-50,53]],[[2465,4944],[7,59],[31,57],[-20,99],[12,44],[-27,82],[57,40],[22,70],[52,76],[-14,53],[61,82],[6,48],[44,31]],[[2696,5685],[35,-31],[31,41],[25,80],[44,-59],[83,20],[28,47],[55,-16],[36,-51],[54,28],[80,-15],[25,-101],[106,112],[47,-12],[58,65],[70,-82],[-6,-43],[53,-85]],[[3520,5583],[19,-50],[-64,-43],[22,-98],[55,-11],[42,-50],[-49,-59],[53,-90],[-15,-44],[52,-66],[-74,-82],[29,-53],[-22,-28],[64,-110],[41,-42],[8,-71],[-23,-38],[2,-57],[43,-126],[-56,-71],[-87,-40],[31,-117]],[[3816,3324],[-88,-79],[-3,-125]],[[3725,3120],[-44,-12],[-10,-55],[-56,-19],[-78,12],[-40,-21],[-87,51],[-92,3],[-11,-48],[-35,-12]],[[3272,3019],[-9,39],[-140,31],[-97,7],[-2,53],[-60,-31],[-18,38],[-49,-14],[-6,63],[-48,4],[-48,63],[-57,40],[-39,-13],[-69,23]],[[2630,3322],[-27,29],[-13,69],[-38,27]],[[2552,3447],[20,56],[3,69],[-19,167],[75,99],[50,25],[50,-22],[61,58],[-19,161],[-40,23],[32,149],[-24,41],[27,30]],[[3591,4237],[19,-128],[22,-24],[-41,-45],[65,-116],[47,-13]],[[3703,3911],[-8,-76],[-51,-69],[40,-32],[-22,-49],[54,-70],[2,-47],[45,-22],[-1,-35],[59,-61],[-10,-39],[31,-35],[-26,-52]],[[1701,3479],[85,-2],[35,-54],[46,14],[113,-71],[33,11],[42,-26],[43,24]],[[2098,3375],[81,-34],[88,47],[55,-4],[30,21],[71,-16],[53,8],[76,50]],[[2630,3322],[-121,-76],[-97,32],[-45,-41],[-107,45],[-5,-50],[-33,-20],[-63,-84],[-95,-17],[-77,-112],[-15,-45],[-157,-19],[-42,-24],[-89,-1],[-137,-19],[-95,-113],[-37,-33],[-58,1]],[[3981,3068],[-127,10],[-17,42],[-58,-18],[-54,18]],[[3816,3324],[92,10],[113,32],[7,37],[62,-7],[20,32],[33,113],[29,12],[98,-15],[46,13],[36,-20],[90,21],[65,-30],[70,59],[32,79],[46,-7],[58,37],[54,-30],[111,5],[-6,42],[41,16],[10,58],[53,14],[11,-31],[90,-60],[49,-7],[93,21],[-9,77],[-34,69],[49,59]],[[3703,3911],[12,-39],[48,7],[47,48],[-5,40],[41,24],[78,-44],[95,-16],[14,58],[51,-2],[44,33],[49,-26],[98,18],[98,153],[45,92],[9,121],[43,47],[-7,64],[62,13],[0,-63],[25,-37],[40,9],[79,-17],[47,88],[50,-4],[-3,109],[50,82],[50,17]],[[4235,4823],[-105,-53],[-41,-36],[-83,120],[-37,1],[-7,55],[51,53],[37,0],[40,-39],[58,-1],[36,43],[45,-19],[-35,-83],[41,-41]],[[3520,5583],[66,8],[23,67],[85,37],[16,-57],[131,38],[79,5],[82,-69],[0,-57],[53,-58],[40,-6]],[[4397,1725],[-55,-25],[-57,-186],[-142,-176],[-93,-142],[-124,-124],[-62,-48],[3,-55],[46,16],[71,-10],[58,-49],[28,-75],[-10,-81],[-44,-64],[-85,-33],[-70,21],[-53,70],[-127,17],[-19,114],[-30,40],[-78,40],[-93,-7],[-95,-56],[-63,-57],[-48,38],[-12,-72],[-36,-15],[-71,18],[-109,57],[-67,113],[46,62],[103,-36],[13,62],[-19,92],[8,30],[92,33],[37,41],[-15,73],[11,34],[98,25],[13,36],[-27,34],[57,79],[-56,50],[17,64],[-27,89],[46,4],[6,34],[61,7],[32,-44],[77,-9],[30,40],[57,-64],[7,-43],[48,0],[4,51],[44,22],[14,-54],[65,12],[74,-14],[-80,93],[24,193],[-34,53],[-11,51],[-65,-19],[-9,45],[-41,0],[-25,34],[8,106],[-29,118],[22,4],[-12,88],[-42,-12],[-43,-42],[-30,54],[-9,58],[-67,3],[-32,82],[50,44],[15,108],[-15,37],[-21,151],[-73,-37],[-49,11],[-42,58],[6,34]],[[2098,3375],[-31,21],[-65,81],[0,67],[-19,32],[0,117],[-11,41],[10,74],[-9,79],[35,50],[-6,83],[-50,108],[27,76],[36,38],[-38,41],[24,28],[-21,94],[-33,25],[6,48],[39,66],[-2,104]],[[1990,4648],[32,3],[56,62],[34,-3],[86,82],[69,107],[130,37],[68,8]],[[1259,4118],[0,57],[112,35],[35,93],[78,79],[51,-7],[43,31],[13,91],[-27,15]],[[1564,4512],[41,38],[22,87],[73,-11],[113,31],[51,50],[95,-19],[31,-40]],[[687,3521],[-57,0],[-111,26],[-33,67],[-58,-1],[-58,47],[-4,78]],[[366,3738],[-12,47],[-57,116],[0,111],[-25,105],[-27,27],[101,140],[60,99],[150,192],[93,102],[54,38],[60,84],[49,23],[94,6],[46,116],[3,59]],[[1450,4731],[44,-26],[-16,-40],[13,-55],[73,-98]],[[1684,6000],[247,-10],[30,-33],[102,-4],[51,-50],[68,20],[68,-16],[96,-53],[21,26],[104,4],[3,-84],[26,-46],[61,-1],[80,24],[83,-25],[-28,-67]],[[1182,2933],[-62,2],[-44,-43],[-63,-9],[-101,49],[-62,-18],[-64,43],[-41,-12],[-62,22],[-22,-34],[-97,59],[-12,32],[-76,2],[-11,-63],[-93,-40],[-31,27],[21,50],[-34,42],[-101,-4],[-18,59],[-37,57],[-59,-6],[-26,65],[-49,74],[-38,6],[25,138],[73,57],[6,68],[62,170],[33,12],[4,57],[103,-20],[60,-37]],[[6589,4781],[39,2],[46,62],[115,13],[45,-15],[99,-112],[54,20],[85,-74],[22,40],[119,63],[82,1],[91,39],[20,27],[64,-4],[10,-58],[69,-49],[-6,-60],[68,-107],[84,-34],[52,-104]]],"transform":{"scale":[0.0020518346437904777,0.0012898922652804028],"translate":[22.137691100000005,44.184598]},"objects":{"admin_level_4":{"type":"GeometryCollection","geometries":[{"arcs":[[0,1,2,3,4,5,6]],"type":"Polygon","properties":{"ref":"ПОЛ","flag":"http://upload.wikimedia.org/wikipedia/commons/d/d3/Flag_of_Poltava_Oblast.svg","name":"Полтавська область","place":"state","koatuu":"5300000000","ref:en":"POL","ref:ru":"ПОЛ","name:ar":"بولتافا أوبلاست","name:az":"Poltava vilayəti","name:be":"Палтаўская вобласць","name:bg":"Полтавска област","name:ca":"Província de Poltava","name:cs":"Poltavská oblast","name:cv":"Полтава облаçĕ","name:de":"Oblast Poltawa","name:en":"Poltava Oblast","name:eo":"Poltava provinco","name:es":"Óblast de Poltava","name:et":"Poltava oblast","name:eu":"Poltavako oblasta","name:fa":"استان پولتاوا","name:fi":"Pultavan alue","name:fr":"Oblast de Poltava","name:gl":"Oblast de Poltava","name:hr":"Poltavska oblast","name:hu":"Poltavai terület","name:hy":"Պոլտավայի մարզ","name:id":"Oblast Poltava","name:it":"Oblast' di Poltava","name:ja":"ポルタヴァ州","name:ka":"პოლტავის ოლქი","name:ko":"폴타바 주","name:lt":"Poltavos sritis","name:lv":"Poltavas apgabals","name:mk":"Полтавска област","name:mr":"पोल्ताव्हा ओब्लास्त","name:nl":"Oblast Poltava","name:nn":"Poltava oblast","name:no":"Poltava oblast","name:pl":"Obwód połtawski","name:pt":"Oblast de Poltava","name:ro":"Regiunea Poltava","name:ru":"Полтавская область","name:sh":"Poltavska oblast","name:sk":"Poltavská oblasť","name:sr":"Полтавска област","name:sv":"Poltava oblast","name:tr":"Poltava Oblastı","name:uk":"Полтавська область","name:vi":"Poltava (tỉnh)","name:zh":"波尔塔瓦州","boundary":"administrative","name:crh":"Poltava vilâyeti","name:pnb":"پولتاوا اوبلاست","name:rue":"Полтавска область","name:sco":"Poltava Oblast","name:war":"Poltava Oblast","name:xmf":"პოლტავაშ ოლქი","timezone":"Europe/Kiev","wikidata":"Q169501","ISO3166-2":"UA-53","wikipedia":"uk:Полтавська_область","admin_level":"4","name:be-tarask":"Палтаўская вобласьць","name:zh-min-nan":"Poltava séng"},"id":91294},{"arcs":[[7,8,9,10,11,12]],"type":"Polygon","properties":{"ref":"ХРС","name":"Херсонська область","place":"state","koatuu":"6500000000","ref:en":"KHE","ref:ru":"ХРС","name:ar":"خيرسون أوبلاست","name:az":"Xerson vilayəti","name:be":"Херсонская вобласць","name:bg":"Херсонска област","name:ca":"Província de Kherson","name:cs":"Chersonská oblast","name:de":"Oblast Cherson","name:en":"Kherson Oblast","name:eo":"Ĥersona provinco","name:es":"Óblast de Jersón","name:et":"Hersoni oblast","name:eu":"Khersongo oblasta","name:fa":"استان خرسون","name:fi":"Hersonin alue","name:fr":"Oblast de Kherson","name:ga":"Cúige Kherson","name:hr":"Hersonska oblast","name:hu":"Herszoni terület","name:hy":"Խերսոնի մարզ","name:id":"Oblast Kherson","name:it":"Oblast' di Cherson","name:ja":"ヘルソン州","name:ka":"ხერსონის ოლქი","name:ko":"헤르손 주","name:lt":"Chersono sritis","name:lv":"Hersonas apgabals","name:mk":"Херсонска област","name:mr":"खेर्सन ओब्लास्त","name:ms":"Oblast Kherson","name:nl":"Oblast Cherson","name:nn":"Kherson oblast","name:no":"Kherson oblast","name:os":"Херсоны облæст","name:pl":"Obwód chersoński","name:pt":"Oblast de Kherson","name:ro":"Regiunea Herson","name:ru":"Херсонская область","name:sh":"Hersonska oblast","name:sk":"Chersonská oblasť","name:sr":"Херсонска област","name:sv":"Cherson oblast","name:tr":"Herson Oblastı","name:uk":"Херсонська область","name:vi":"Kherson (tỉnh)","name:zh":"赫尔松州","boundary":"administrative","name:crh":"Herson vilâyeti","name:diq":"Xerson","name:pnb":"خیرسون اوبلاست","name:rue":"Херсоньска область","name:sco":"Kherson Oblast","name:szl":"Chersůński uobwůd","name:war":"Kherson Oblast","timezone":"Europe/Kiev","wikidata":"Q163271","ISO3166-2":"UA-65","wikipedia":"uk:Херсонська_область","admin_level":"4","name:be-tarask":"Хэрсонская вобласьць","name:zh-min-nan":"Xerson séng"},"id":71022},{"arcs":[[13,14]],"type":"Polygon","properties":{"name":"Севастополь","note":"claimed administrative unit of Ukraine - not to be confused with administrative unit of Russia","koatuu":"8500000000","ref:uk":"СВС","name:be":"Севастопаль","name:ca":"Sebastòpol","name:cs":"Sevastopol","name:de":"Sewastopol","name:el":"Σεβαστούπολη","name:en":"Sevastopol","name:eo":"Sebastopolo","name:es":"Sebastopol","name:fr":"Sébastopol","name:hr":"Sevastopolj","name:hu":"Szevasztopol","name:it":"Sebastopoli","name:la":"Sebastopolis","name:lt":"Sevastopolis","name:lv":"Sevastopole","name:nl":"Sebastopol","name:pl":"Sewastopol","name:pt":"Sebastopol","name:ro":"Sevastopol","name:ru":"Севастополь","name:sk":"Sevastopoľ","name:tr":"Sivastopol","name:uk":"Севастополь","boundary":"administrative","int_name":"Sevastopol","name:crh":"Aqyar","timezone":"Europe/Simferopol","ISO3166-2":"UA-40","wikipedia":"ru:Территория, подчинённая Севастопольскому городскому совету","admin_level":"4","addr:country":"UA","is_in:country":"Ukraine","name:be-tarask":"Севастопаль","official_status":"uk:містo зі спеціальним статусом","is_in:country_code":"UA"},"id":1574364},{"arcs":[[-15,15,-8,16]],"type":"Polygon","properties":{"name":"Республика Крым","note":"administrative unit of Russia, not to be confused with Autonomous Republic of Crimea - claimed administrative unit of Ukraine","name:ca":"República de Crimea","name:cs":"Republika Krym","name:de":"Republik Krim","name:en":"Republic of Crimea","name:eo":"Respubliko Krimeo","name:fr":"République de Crimée","name:nl":"Republiek de Krim","name:pl":"Republika Krymu","name:ru":"Республика Крым","name:tr":"Kırım Cumhuriyeti","name:uk":"Республіка Крим","boundary":"administrative","name:crh":"Qırım Cumhuriyeti","timezone":"Europe/Simferopol","wikidata":"Q15966495","ISO3166-2":"RU-CR","wikipedia":"ru:Республика Крым","admin_level":"4","wikipedia:ru":"Республика Крым","wikipedia:uk":"Республіка Крим","is_in:country":"Russia","is_in:country_code":"RU"},"id":3795586},{"arcs":[[-15,15,-8,16]],"type":"Polygon","properties":{"flag":"http://upload.wikimedia.org/wikipedia/commons/a/aa/Flag_of_Crimea.svg","name":"Автономна Республіка Крим","note":"claimed administrative unit of Ukraine, not to be confused with Republic of Crimea - administrative unit of Russia","is_in":"Ukraine","koatuu":"0100000000","ref:en":"CRI","ref:ru":"КРЫ","ref:uk":"КРИ","name:az":"Krım Muxtar Respublikası","name:ba":"Ҡырым Автономиялы Республикаһы","name:be":"Аўтаномная Рэспубліка Крым","name:ca":"República Autònoma de Crimea","name:cs":"Autonomní republika Krym","name:cu":"Кꙑрꙑмьска Аѵтономьна Димократїꙗ","name:de":"Autonome Republik Krim","name:el":"Αυτόνομη Δημοκρατία της Κριμαίας","name:en":"Autonomous Republic of Crimea","name:eo":"Aŭtonoma Respubliko Krimeo","name:es":"República Autónoma de Crimea","name:fi":"Krimin autonominen tasavalta","name:fr":"République Autonome de Crimée","name:hu":"Krími Autonóm Köztársaság","name:hy":"Ղրիմի Ինքնավար Հանրապետություն","name:it":"Repubblica autonoma di Crimea","name:ja":"クリミア自治共和国","name:ko":"크림 반도","name:lt":"Krymo autonominė respublika","name:mk":"Автономна Република Крим","name:nl":"Autonome Republiek van de Krim","name:os":"Хъырымы Автономон Республикæ","name:pl":"Republika Autonomiczna Krymu","name:pt":"República Autônoma da Crimeia","name:ru":"Автономная Республика Крым","name:sv":"Autonoma republiken Krim","name:tr":"Kırım Özerk Cumhuriyeti","name:tt":"Кырым Автономияле Җөмһүрияте","name:uk":"Автономна Республіка Крим","name:vi":"Cộng hòa Tự trị Crưm","boundary":"administrative","name:crh":"Qırım Muhtar Cumhuriyeti","name:szl":"Autōnōmicznŏ Republika Krymu","timezone":"Europe/Simferopol","wikidata":"Q756294","ISO3166-2":"UA-43","wikipedia":"uk:Автономна Республіка Крим","admin_level":"4","alt_name:vi":"Cộng hoà Tự trị Crưm,Cộng hòa Tự trị Krym,Cộng hoà Tự trị Krym","name:be-tarask":"Аўтаномная Рэспубліка Крым","is_in:country_code":"UA"},"id":72639},{"arcs":[[13,14]],"type":"Polygon","properties":{"name":"Севастополь","note":"administrative unit of Russia, not to be confused with claimed administrative unit of Ukraine","name:ca":"Sebastòpol","name:de":"Sewastopol","name:en":"Sevastopol","name:eo":"Sebastopolo","name:pl":"Sewastopol","name:ru":"Севастополь","name:uk":"Севастополь","boundary":"administrative","timezone":"Europe/Simferopol","ISO3166-2":"RU-SEV","wikipedia":"ru:Административно-территориальное деление города федерального значения Севастополя","admin_level":"4","addr:country":"RU","is_in:country":"Russia","official_status":"ru:город федерального значения","is_in:country_code":"RU"},"id":3788485},{"arcs":[[17,18,19,20,21]],"type":"Polygon","properties":{"ref":"ДОН","flag":"http://upload.wikimedia.org/wikipedia/commons/5/5d/Flag_of_Donetsk_Oblast.svg","name":"Донецька область","place":"state","koatuu":"1400000000","ref:en":"DON","ref:ru":"ДОН","name:ar":"دونيتسك أوبلاست","name:az":"Donetsk Oblastı","name:be":"Данецкая вобласць","name:bg":"Донецка област","name:ca":"Província de Donetsk","name:cs":"Doněcká oblast","name:de":"Oblast Donezk","name:en":"Donetsk Oblast","name:eo":"Donecka provinco","name:es":"Óblast de Donetsk","name:et":"Donetski oblast","name:eu":"Donetskeko oblasta","name:fa":"استان دونتسک","name:fi":"Donetskin alue","name:fr":"Oblast de Donetsk","name:hr":"Donečka oblast","name:hu":"Donecki terület","name:hy":"Դոնեցկի մարզ","name:id":"Oblast Donetsk","name:it":"Oblast' di Donec'k","name:ja":"ドネツィク州","name:ka":"დონეცკის ოლქი","name:ko":"도네츠크 주","name:lt":"Donecko sritis","name:lv":"Doņeckas apgabals","name:mk":"Донечка област","name:mr":"दोनेत्स्क ओब्लास्त","name:nl":"Oblast Donetsk","name:nn":"Donetsk oblast","name:no":"Donetsk oblast","name:os":"Донецчы облæст","name:pl":"Obwód doniecki","name:pt":"Oblast de Donetsk","name:ro":"Regiunea Donețk","name:ru":"Донецкая область","name:sh":"Donečka oblast","name:sk":"Donecká oblasť","name:sr":"Доњечка област","name:sv":"Donetsk oblast","name:tr":"Donetsk Oblastı","name:tt":"Донецк өлкәсе","name:uk":"Донецька область","name:vi":"Donetsk (tỉnh)","name:zh":"顿涅茨克州","boundary":"administrative","name:crh":"Donetsk vilâyeti","name:pnb":"دونیتسک اوبلاست","name:rue":"Донецька область","name:sco":"Donetsk Oblast","name:szl":"Důńecki uobwůd","name:war":"Donetsk Oblast","timezone":"Europe/Kiev","wikidata":"Q2012050","ISO3166-2":"UA-14","wikipedia":"uk:Донецька область","population":"4275935","admin_level":"4","addr:postcode":"83000-87999","name:be-tarask":"Данецкая вобласьць","name:zh-min-nan":"Doneczk séng"},"id":71973},{"arcs":[[22,23,24,-10]],"type":"Polygon","properties":{"ref":"МИК","flag":"http://upload.wikimedia.org/wikipedia/commons/e/e1/Flag_of_Mykolaiv_Oblast.svg","name":"Миколаївська область","place":"state","koatuu":"4800000000","ref:en":"MYK","ref:ru":"НИК","name:ar":"ميكولايف أوبلاست","name:be":"Мікалаеўская вобласць","name:bg":"Николаевска област","name:ca":"Província de Mykolàïv","name:cs":"Mykolajivská oblast","name:de":"Oblast Mykolajiw","name:en":"Mykolaiv Oblast","name:eo":"Mikolajeva provinco","name:es":"Óblast de Mykolaiv","name:et":"Mõkolajivi oblast","name:eu":"Mykolaiveko oblasta","name:fa":"استان میکولائیف","name:fi":"Mykolajivin alue","name:fr":"Oblast de Mykolaïv","name:hr":"Mikolajivska oblast","name:hu":"Mikolajivi terület","name:hy":"Նիկոլաևի մարզ","name:id":"Oblast Mykolaiv","name:it":"Oblast' di Mykolaïv","name:ja":"ムィコラーイウ州","name:ka":"ნიკოლაევის ოლქი","name:ko":"미콜라이우 주","name:lt":"Mykolajivo sritis","name:lv":"Nikolajevas apgabals","name:mk":"Николаевска област","name:mr":"मिकोलाइव्ह ओब्लास्त","name:nl":"Oblast Mykolajiv","name:nn":"Mykolajiv oblast","name:no":"Mykolajiv oblast","name:pl":"Obwód mikołajowski","name:pt":"Oblast de Mikolaiv","name:ro":"Regiunea Mîkolaiv","name:ru":"Николаевская область","name:sh":"Mikolajivska oblast","name:sk":"Mykolajivská oblasť","name:sr":"Миколајивска област","name:sv":"Mykolajiv oblast","name:tr":"Mıkolayiv Oblastı","name:uk":"Миколаївська область","name:vi":"Mykolaiv (tỉnh)","name:zh":"尼古拉耶夫州","boundary":"administrative","name:crh":"Mıkolayiv vilâyeti","name:pnb":"میکولائیف اوبلاست","name:rue":"Миколаївска область","name:sco":"Mykolaiv Oblast","name:war":"Mykolaiv Oblast","timezone":"Europe/Kiev","wikidata":"Q181633","ISO3166-2":"UA-48","wikipedia":"uk:Миколаївська_область","admin_level":"4","name:be-tarask":"Мікалаеўская вобласьць","name:zh-min-nan":"Mykolayiv séng"},"id":72635},{"arcs":[[-22,25,26]],"type":"Polygon","properties":{"ref":"ЛУГ","name":"Луганська область","place":"state","koatuu":"4400000000","ref:en":"LUG","ref:ru":"ЛУГ","name:ar":"لوهانسك أوبلاست","name:be":"Луганская вобласць","name:bg":"Луганска област","name:ca":"Província de Luhansk","name:cs":"Luhanská oblast","name:de":"Oblast Luhansk","name:en":"Luhansk Oblast","name:eo":"Luganska provinco","name:es":"Óblast de Lugansk","name:et":"Luganski oblast","name:eu":"Luhanskeko oblasta","name:fa":"استان لوهانسک","name:fi":"Luhanskin alue","name:fr":"Oblast de Louhansk","name:ga":"Cúige Luhansk","name:hr":"Luhanska oblast","name:hu":"Luhanszki terület","name:hy":"Լուգանսկի մարզ","name:id":"Oblast Luhansk","name:it":"Oblast' di Luhans'k","name:ja":"ルハーンシク州","name:ka":"ლუგანსკის ოლქი","name:ko":"루한시크 주","name:lt":"Luhansko sritis","name:lv":"Luhanskas apgabals","name:mk":"Луганска област","name:mr":"लुहान्स्क ओब्लास्त","name:nl":"Oblast Loehansk","name:nn":"Luhansk oblast","name:no":"Luhansk oblast","name:os":"Лугансчы облæст","name:pl":"Obwód ługański","name:pt":"Oblast de Lugansk","name:ro":"Regiunea Luhansk","name:ru":"Луганская область","name:sh":"Luganska oblast","name:sk":"Luhanská oblasť","name:sr":"Луганска област","name:sv":"Luhansk oblast","name:tr":"Luhansk Oblastı","name:uk":"Луганська область","name:vi":"Luhansk (tỉnh)","name:zh":"盧甘斯克州","boundary":"administrative","name:crh":"Lugansk vilâyeti","name:pnb":"لوہانسک اوبلاست","name:rue":"Луганьска область","name:sco":"Luhansk Oblast","name:war":"Luhansk Oblast","name:xmf":"ლუგანსკიშ ოლქი","timezone":"Europe/Kiev","wikidata":"Q171965","ISO3166-2":"UA-09","wikipedia":"uk:Луганська_область","admin_level":"4","alt_name:de":"Oblast Lugansk","alt_name:en":"Lugansk Oblast","alt_name:eo":"Luhanska provinco","name:be-tarask":"Луганская вобласьць","name:zh-min-nan":"Lugansk séng"},"id":71971},{"arcs":[[27,-12,28,-19]],"type":"Polygon","properties":{"ref":"ЗАП","name":"Запорізька область","place":"state","koatuu":"2300000000","ref:en":"ZAP","ref:ru":"ЗАП","name:ar":"زابوروجييه أوبلاست","name:be":"Запарожская вобласць","name:bg":"Запорожка област","name:bs":"Zaporiška oblast","name:ca":"Província de Zaporíjjia","name:cs":"Záporožská oblast","name:de":"Oblast Saporischschja","name:en":"Zaporizhia Oblast","name:eo":"Zaporiĵa provinco","name:es":"Óblast de Zaporiyia","name:et":"Zaporižžja oblast","name:eu":"Zaporizhiako oblasta","name:fi":"Zaporižžjan alue","name:fr":"Oblast de Zaporijia","name:ga":"Cúige Zaporizhia","name:hr":"Zaporiška oblast","name:hu":"Zaporizzsjai terület","name:hy":"Զապորոժիեի մարզ","name:id":"Oblast Zaporizhia","name:it":"Oblast' di Zaporižžja","name:ja":"ザポリージャ州","name:ka":"ზაპოროჟიეს ოლქი","name:ko":"자포리자 주","name:lt":"Zaporožės sritis","name:lv":"Zaporožjes apgabals","name:mk":"Запорошка област","name:mr":"झापोरिझिया ओब्लास्त","name:nl":"Oblast Zaporizja","name:nn":"Zaporizjzjia oblast","name:no":"Zaporizjzjia oblast","name:os":"Запорожьейы облæст","name:pl":"Obwód zaporoski","name:pt":"Oblast de Zaporíjia","name:ro":"Regiunea Zaporoje","name:ru":"Запорожская область","name:sh":"Zaporiška oblast","name:sk":"Záporožská oblasť","name:sr":"Запорошка област","name:sv":"Zaporizjzja oblast","name:tr":"Zaporijya Oblastı","name:uk":"Запорізька область","name:vi":"Zaporizhia (tỉnh)","name:zh":"扎波羅熱州","boundary":"administrative","name:crh":"Zaporijjâ vilâyeti","name:pnb":"زاپوریژینا اوبلاست","name:rue":"Запорізька область","name:sco":"Zaporizhia Oblast","name:war":"Zaporizhia Oblast","timezone":"Europe/Zaporozhye","wikidata":"Q171334","ISO3166-2":"UA-23","wikipedia":"uk:Запорізька_область","admin_level":"4","name:be-tarask":"Запароская вобласьць","name:zh-min-nan":"Zaporizhzhya séng"},"id":71980},{"arcs":[[29,30,31,32,33]],"type":"Polygon","properties":{"ref":"ІВФ","flag":"http://upload.wikimedia.org/wikipedia/commons/a/a2/Flag_of_Ivano-Frankivsk_Oblast.svg","name":"Івано-Франківська область","place":"state","koatuu":"2600000000","ref:en":"IVF","ref:ru":"ИВФ","name:ar":"إيفانو فرانكيفسك أوبلاست","name:be":"Івана-Франкоўская вобласць","name:bg":"Ивано-Франковска област","name:ca":"Província d'Ivano-Frankivsk","name:cs":"Ivanofrankivská oblast","name:de":"Oblast Iwano-Frankiwsk","name:en":"Ivano-Frankivsk Oblast","name:eo":"Ivano-Frankivska provinco","name:es":"Óblast de Ivano-Frankivsk","name:et":"Ivano-Frankivski oblast","name:eu":"Ivano-Frankivskeko oblasta","name:fa":"استان ایوانو فرانکیسوک","name:fi":"Ivano-Frankivskin alue","name:fr":"Oblast d'Ivano-Frankivsk","name:hr":"Ivano-Frankivska oblast","name:hu":"Ivano-frankivszki terület","name:hy":"Իվանո-Ֆրանկովսկի մարզ","name:id":"Oblast Ivano-Frankivsk","name:it":"Oblast' di Ivano-Frankivs'k","name:ja":"イヴァーノ＝フランキーウシク州","name:ka":"ივანო-ფრანკოვსკის ოლქი","name:ko":"이바노프란키우시크 주","name:lt":"Ivano Frankivsko sritis","name:lv":"Ivanofrankivskas apgabals","name:mk":"Ивано-Франковска област","name:mr":"इव्हानो-फ्रांकिव्ह्स्क ओब्लास्त","name:nl":"Oblast Ivano-Frankivsk","name:nn":"Ivano-Frankivsk oblast","name:no":"Ivano-Frankivsk oblast","name:pl":"Obwód iwanofrankiwski","name:pt":"Oblast de Ivano-Frankivsk","name:ro":"Regiunea Ivano-Frankivsk","name:ru":"Ивано-Франковская область","name:sh":"Ivano-Frankivska oblast","name:sk":"Ivanofrankivská oblasť","name:sv":"Ivano-Frankivsk oblast","name:tr":"İvano-Frankivsk Oblastı","name:uk":"Івано-Франківська область","name:vi":"Ivano-Frankivsk (tỉnh)","name:zh":"伊万诺-弗兰科夫斯克州","boundary":"administrative","name:crh":"İvano-Frankivsk vilâyeti","name:pnb":"ایوانو فرانکیوسک اوبلاست","name:rue":"Івано-Франківска область","name:sco":"Ivano-Frankivsk Oblast","name:szl":"Iwanofrankiwski uobwůd","name:war":"Ivano-Frankivsk Oblast","timezone":"Europe/Kiev","wikidata":"Q178269","ISO3166-2":"UA-26","wikipedia":"uk:Івано-Франківська_область","admin_level":"4","name:be-tarask":"Івана-Франкоўская вобласьць","name:zh-min-nan":"Ivano-Frankivsk séng"},"id":72488},{"arcs":[[-5,34,35,36]],"type":"Polygon","properties":{"ref":"ЧРГ","flag":"http://upload.wikimedia.org/wikipedia/commons/f/f7/Flag_of_Chernihiv_Oblast.svg","name":"Чернігівська область","place":"state","koatuu":"7400000000","ref:en":"CRH","ref:ru":"ЧРГ","name:ar":"تشرنيهيف أوبلاست","name:be":"Чарнігаўская вобласць","name:bg":"Черниговска област","name:ca":"Província de Txerníhiv","name:cs":"Černihovská oblast","name:de":"Oblast Tschernihiw","name:en":"Chernihiv Oblast","name:eo":"Ĉernihiva provinco","name:es":"Óblast de Chernihiv","name:et":"Tšernigivi oblast","name:eu":"Txernihiveko oblasta","name:fa":"استان چرنیهیو","name:fi":"Tšernihivin alue","name:fr":"Oblast de Tchernihiv","name:he":"מחוז צ'רניהיב","name:hr":"Černigivska oblast","name:hu":"Csernyihivi terület","name:hy":"Չեռնիգովի մարզ","name:id":"Oblast Chernihiv","name:it":"Oblast' di Černihiv","name:ja":"チェルニーヒウ州","name:ka":"ჩერნიგოვის ოლქი","name:ko":"체르니히우 주","name:lt":"Černigovo sritis","name:lv":"Čerņigovas apgabals","name:mk":"Черниговска област","name:mr":"चेर्निहिव्ह ओब्लास्त","name:nl":"Oblast Tsjernihiv","name:nn":"Tsjernihiv oblast","name:no":"Tsjernihiv oblast","name:os":"Черниговы облæст","name:pl":"Obwód czernihowski","name:pt":"Oblast de Chernigov","name:ro":"Regiunea Cernigău","name:ru":"Черниговская область","name:sh":"Černigivska oblast","name:sk":"Černihivská oblasť","name:sv":"Tjernihiv oblast","name:tr":"Çernigov Oblastı","name:uk":"Чернігівська область","name:vi":"Chernihiv (tỉnh)","name:zh":"切爾尼戈夫州","boundary":"administrative","name:crh":"Çernigiv vilâyeti","name:pnb":"چرنیہیف اوبلاست","name:rue":"Чернїгівска область","name:sco":"Chernihiv Oblast","name:szl":"Czerńihowski uobwůd","name:war":"Chernihiv Oblast","name:xmf":"ჩერნიგოვიშ ოლქი","timezone":"Europe/Kiev","wikidata":"Q167874","ISO3166-2":"UA-74","wikipedia":"uk:Чернігівська_область","admin_level":"4","alt_name:ro":"Regiunea Cernigov","name:be-tarask":"Чарнігаўская вобласьць","name:zh-min-nan":"Chernigiv séng"},"id":71249},{"arcs":[[-29,-11,-25,37,-1,38,-20]],"type":"Polygon","properties":{"ref":"ДНП","flag":"http://upload.wikimedia.org/wikipedia/commons/c/cf/Flag_of_Dnipropetrovsk_Oblast.svg","name":"Дніпропетровська область","place":"state","koatuu":"1200000000","ref:en":"DNP","ref:ru":"ДНП","name:ar":"دنيبروبتروفسك أوبلاست","name:az":"Dnepropetrovsk vilayəti","name:be":"Днепрапятроўская вобласць","name:bg":"Днепропетровска област","name:ca":"Província de Dnipropetrovsk","name:cs":"Dněpropetrovská oblast","name:cv":"Днепропетровск облаçĕ","name:de":"Oblast Dnipropetrowsk","name:en":"Dnipropetrovsk Oblast","name:eo":"Dnipropetrovska provinco","name:es":"Óblast de Dnipropetrovsk","name:et":"Dnipropetrovski oblast","name:eu":"Dnipropetrovskeko oblasta","name:fa":"استان دنیپروپتروفسک","name:fi":"Dnepropetrovskin alue","name:fr":"Oblast de Dnipropetrovsk","name:hr":"Dnjipropetrovska oblast","name:hu":"Dnyipropetrovszki terület","name:hy":"Դնեպրոպետրովսկի մարզ","name:id":"Oblast Dnipropetrovsk","name:it":"Oblast' di Dnipropetrovs'k","name:ja":"ドニプロペトロウシク州","name:ka":"დნეპროპეტროვსკის ოლქი","name:ko":"드니프로페트로우시크 주","name:lt":"Dniepropetrovsko sritis","name:lv":"Dņepropetrovskas apgabals","name:mk":"Днепропетровска област","name:mr":"द्नेप्रोपेत्रोव्स्क ओब्लास्त","name:nl":"Oblast Dnjepropetrovsk","name:nn":"Dnipropetrovsk oblast","name:no":"Dnipropetrovsk oblast","name:pl":"Obwód dniepropetrowski","name:pt":"Oblast de Dnipropetrovsk","name:ro":"Regiunea Dniepropetrovsk","name:ru":"Днепропетровская область","name:sh":"Dnjipropetrovska oblast","name:sk":"Dnepropetrovská oblasť","name:sr":"Дњепропетровска област","name:sv":"Dnipropetrovsk oblast","name:tr":"Dnipropetrovsk Oblastı","name:uk":"Дніпропетровська область","name:vi":"Dnipropetrovsk (tỉnh)","name:zh":"第聂伯罗彼得罗夫斯克州","boundary":"administrative","name:crh":"Dnipropetrovsk vilâyeti","name:pnb":"دنیپروپترووسک اوبلاست","name:rue":"Днїпропетровска область","name:sco":"Dnipropetrovsk Oblast","name:szl":"Dńepropetrowski uobwůd","name:war":"Dnipropetrovsk Oblast","name:xmf":"დნეპროპეტროვსკიშ ოლქი","timezone":"Europe/Kiev","wikidata":"Q170672","ISO3166-2":"UA-12","wikipedia":"uk:Дніпропетровська_область","population":"3261974","admin_level":"4","name:be-tarask":"Днепрапятроўская вобласьць","name:zh-min-nan":"Dnipropetrovsk séng"},"id":101746},{"arcs":[[-6,-37,39,40]],"type":"Polygon","properties":{"ref":"СУМ","name":"Сумська область","place":"state","koatuu":"5900000000","ref:en":"SUM","ref:ru":"СУМ","name:ar":"سومي أوبلاست","name:be":"Сумская вобласць","name:bg":"Сумска област","name:ca":"Província de Sumy","name:cs":"Sumská oblast","name:de":"Oblast Sumy","name:en":"Sumy Oblast","name:eo":"Sumia provinco","name:es":"Óblast de Sumy","name:et":"Sumõ oblast","name:eu":"Sumyko oblasta","name:fa":"استان سومی","name:fi":"Sumyn alue","name:fr":"Oblast de Soumy","name:ga":"Cúige Shumy","name:hr":"Sumska oblast","name:hu":"Szumi terület","name:hy":"Սումիի մարզ","name:id":"Oblast Sumy","name:it":"Oblast' di Sumy","name:ja":"スームィ州","name:ka":"სუმის ოლქი","name:ko":"수미 주","name:lt":"Sumų sritis","name:lv":"Sumu apgabals","name:mk":"Сумска област","name:mr":"सुमी ओब्लास्त","name:nl":"Oblast Soemy","name:nn":"Sumy oblast","name:no":"Sumy oblast","name:os":"Сумыйы облæст","name:pl":"Obwód sumski","name:pt":"Oblast de Sumi","name:ro":"Regiunea Sumî","name:ru":"Сумская область","name:sh":"Sumska oblast","name:sk":"Sumská oblasť","name:sr":"Сумска област","name:sv":"Sumy oblast","name:tr":"Sumi Oblastı","name:uk":"Сумська область","name:vi":"Sumi (tỉnh)","name:zh":"蘇梅州","boundary":"administrative","name:crh":"Sumı vilâyeti","name:pnb":"سومی اوبلاست","name:rue":"Сумска область","name:sco":"Sumy Oblast","name:war":"Sumy Oblast","name:xmf":"სუმაშ ოლქი","timezone":"Europe/Kiev","wikidata":"Q170446","ISO3166-2":"UA-59","wikipedia":"uk:Сумська_область","admin_level":"4","name:be-tarask":"Сумская вобласьць","name:zh-min-nan":"Sumy séng"},"id":71250},{"arcs":[[41,42,43]],"type":"Polygon","properties":{"ref":"ВОЛ","flag":"http://upload.wikimedia.org/wikipedia/commons/5/52/Volyn_flag.svg","name":"Волинська область","place":"state","koatuu":"0700000000","ref:en":"VOL","ref:ru":"ВОЛ","name:ar":"فولين أوبلاست","name:be":"Валынская вобласць","name:bg":"Волинска област","name:bs":"Volinjska oblast","name:ca":"Província de Volínia","name:cs":"Volyňská oblast","name:cv":"Волынь облаçĕ","name:de":"Oblast Wolhynien","name:en":"Volyn Oblast","name:eo":"Volina provinco","name:es":"Óblast de Volinia","name:et":"Volõõnia oblast","name:eu":"Voliniako oblasta","name:fa":"استان ولین","name:fi":"Volynian alue","name:fr":"Oblast de Volhynie","name:hr":"Volinjska oblast","name:hu":"Volinyi terület","name:hy":"Վոլինի մարզ","name:id":"Oblast Volyn","name:it":"Oblast' di Volinia","name:ja":"ヴォルィーニ州","name:ka":"ვოლინის ოლქი","name:ko":"볼린 주","name:lt":"Voluinės sritis","name:lv":"Volīnijas apgabals","name:mk":"Волинска област","name:mr":"व्होलिन ओब्लास्त","name:ms":"Oblast Volyn","name:nl":"Oblast Wolynië","name:nn":"Volyn oblast","name:no":"Volyn oblast","name:pl":"Obwód wołyński","name:pt":"Oblast de Volínia","name:ro":"Regiunea Volîn","name:ru":"Волынская область","name:sh":"Volinjska oblast","name:sk":"Volynská oblasť","name:sr":"Волињска област","name:sv":"Volyn oblast","name:tr":"Volın Oblastı","name:uk":"Волинська область","name:vi":"Volyn (tỉnh)","name:yi":"וואהלינער גובערניע","name:zh":"沃倫州","boundary":"administrative","name:crh":"Volın vilâyeti","name:pnb":"ولین اوبلاست","name:rue":"Волиньска область","name:sco":"Volyn Oblast","name:szl":"Wołyński uobwůd","name:war":"Volyn Oblast","name:xmf":"ვოლინიშ ოლქი","timezone":"Europe/Kiev","wikidata":"Q167859","ISO3166-2":"UA-07","wikipedia":"uk:Волинська_область","admin_level":"4","name:be-tarask":"Валынская вобласьць","name:zh-min-nan":"Volyn séng"},"id":71064},{"arcs":[[44,45,46,47,48]],"type":"Polygon","properties":{"ref":"ЖИТ","flag":"http://upload.wikimedia.org/wikipedia/commons/6/69/Flag_of_Zhytomyr_Oblast.svg","name":"Житомирська область","place":"state","koatuu":"1800000000","ref:en":"ZHI","ref:ru":"ЖИТ","name:ar":"زيتومير أوبلاست","name:be":"Жытомірская вобласць","name:bg":"Житомирска област","name:bs":"Žitomirska oblast","name:ca":"Província de Jytómyr","name:cs":"Žytomyrská oblast","name:cu":"Житомирьска область","name:cv":"Житомир облаçĕ","name:de":"Oblast Schytomyr","name:en":"Zhytomyr Oblast","name:eo":"Ĵitomira provinco","name:es":"Óblast de Zhytomyr","name:et":"Žõtomõri oblast","name:eu":"Zhytomyrko oblasta","name:fa":"استان ژیتومیر","name:fi":"Žytomyrin alue","name:fr":"Oblast de Jytomyr","name:hr":"Žitomirska oblast","name:hy":"Ժիտոմիրի մարզ","name:id":"Oblast Zhytomyr","name:it":"Oblast' di Žytomyr","name:ja":"ジトームィル州","name:ka":"ჟიტომირის ოლქი","name:ko":"지토미르 주","name:lt":"Žytomyro sritis","name:lv":"Žitomiras apgabals","name:mk":"Житомирска област","name:mr":"झितोमिर ओब्लास्त","name:nl":"Oblast Zjytomyr","name:nn":"Zjytomyr oblast","name:no":"Zjytomyr oblast","name:pl":"Obwód żytomierski","name:pt":"Oblast de Jitomir","name:ro":"Regiunea Jîtomîr","name:ru":"Житомирская область","name:sh":"Žitomirska oblast","name:sk":"Žytomyrská oblasť","name:sr":"Житомирска област","name:sv":"Zjytomyr oblast","name:tr":"Jitomir Oblastı","name:uk":"Житомирська область","name:vi":"Zhytomyr (tỉnh)","name:yi":"זשיטאמירער גובערניע","name:zh":"日托米爾州","boundary":"administrative","name:crh":"Jıtomır vilâyeti","name:pnb":"ژیتومیر اوبلاست","name:rue":"Жытомирьска область","name:sco":"Zhytomyr Oblast","name:war":"Zhytomyr Oblast","timezone":"Europe/Kiev","wikidata":"Q40637","ISO3166-2":"UA-18","wikipedia":"uk:Житомирська_область","admin_level":"4","name:be-tarask":"Жытомірская вобласьць","name:zh-min-nan":"Zhytomyr séng"},"id":71245},{"arcs":[[49,50,51,52,53,-45,54,55]],"type":"Polygon","properties":{"ref":"ВІН","flag":"http://upload.wikimedia.org/wikipedia/commons/0/03/Flag_of_Vinnytsia_Oblast.svg","name":"Вінницька область","place":"state","koatuu":"0500000000","ref:en":"VIN","ref:ru":"ВИН","name:ar":"فينيتسا أوبلاست","name:be":"Вінніцкая вобласць","name:bg":"Виницка област","name:ca":"Província de Vínnytsia","name:cs":"Vinnycká oblast","name:de":"Oblast Winnyzja","name:en":"Vinnytsia Oblast","name:eo":"Vinica provinco","name:es":"Óblast de Vinnytsia","name:et":"Vinnõtsja oblast","name:eu":"Vinnytsiako oblasta","name:fa":"استان وینیتسیا","name:fi":"Vinnytsjan alue","name:fr":"Oblast de Vinnytsia","name:gl":"Oblast de Vinnitsia","name:he":"מחוז ויניצה","name:hr":"Vinička oblast","name:hu":"Vinnicjai terület","name:hy":"Վիննիցայի մարզ","name:id":"Oblast Vinnytsia","name:it":"Oblast' di Vinnycja","name:ja":"ヴィーンヌィツャ州","name:ka":"ვინიცის ოლქი","name:ko":"빈니차 주","name:lt":"Vinycios sritis","name:lv":"Vinnicas apgabals","name:mk":"Виничка област","name:mr":"व्हिनित्सिया ओब्लास्त","name:nl":"Oblast Vinnytsja","name:nn":"Vinnytsia oblast","name:no":"Vinnytsia oblast","name:os":"Винницæйы облæст","name:pl":"Obwód winnicki","name:pt":"Oblast de Vinnitsa","name:ro":"Regiunea Vinnița","name:ru":"Винницкая область","name:sh":"Vinička oblast","name:sk":"Vinnycká oblasť","name:sv":"Vinnytsja oblast","name:tr":"Vinnitsa Oblastı","name:uk":"Вінницька область","name:vi":"Vinnytsia (tỉnh)","name:zh":"文尼察州","boundary":"administrative","name:crh":"Vinnıtsâ vilâyeti","name:pnb":"وینیتسیا اوبلاست","name:rue":"Віницька область","name:sco":"Vinnytsia Oblast","name:war":"Vinnytsia Oblast","timezone":"Europe/Kiev","wikidata":"Q166709","ISO3166-2":"UA-05","wikipedia":"uk:Вінницька область","admin_level":"4","alt_name:de":"Oblast Winniza","alt_name:en":"Vinnitsa Oblast","wikipedia:ru":"Винницкая область","name:be-tarask":"Віньніцкая вобласьць","name:zh-min-nan":"Vinnycya séng"},"id":90726},{"arcs":[[-30,56,57,-53,58]],"type":"Polygon","properties":{"name":"Чернівецька область","place":"state","koatuu":"7300000000","ref:en":"CRV","ref:ru":"ЧРВ","ref:uk":"ЧРВ","name:ar":"تشيرنيفتسي أوبلاست","name:be":"Чарнавіцкая вобласць","name:bg":"Черновицка област","name:ca":"Província de Txernivtsí","name:cs":"Černovická oblast","name:de":"Oblast Tscherniwzi","name:en":"Chernivtsi Oblast","name:eo":"Ĉernivca provinco","name:es":"Óblast de Chernivtsi","name:et":"Tšernivtsi oblast","name:eu":"Txernivtsiko oblasta","name:fa":"استان چرنیوتسی","name:fi":"Tšernivtsin alue","name:fr":"Oblast de Tchernivtsi","name:hr":"Černivecka oblast","name:hu":"Csernyivci terület","name:hy":"Չեռնովցիի մարզ","name:id":"Oblast Chernivtsi","name:it":"Oblast' di Černivci","name:ja":"チェルニウツィー州","name:ka":"ჩერნოვცის ოლქი","name:ko":"체르니우치 주","name:lt":"Černivcių sritis","name:lv":"Černivcu apgabals","name:mk":"Черновечка област","name:mr":"चेर्निव्हत्सी ओब्लास्त","name:ms":"Oblast Chernivtsi","name:nl":"Oblast Tsjernivtsi","name:nn":"Tsjernivtsi oblast","name:no":"Tsjernivtsi oblast","name:os":"Черновцыйы облæст","name:pl":"Obwód czerniowiecki","name:pt":"Oblast de Chernivtsi","name:ro":"Regiunea Cernăuți","name:ru":"Черновицкая область","name:sh":"Černivecka oblast","name:sk":"Černovická oblasť","name:sr":"Чернивачка област","name:sv":"Tjernivtsi oblast","name:tr":"Çernovtsi Oblastı","name:uk":"Чернівецька область","name:vi":"Chernivtsi (tỉnh)","name:zh":"切爾諾夫策州","boundary":"administrative","name:crh":"Çernivtsi vilâyeti","name:pnb":"چرنیوتسی اوبلاست","name:rue":"Чернівецька область","name:sco":"Chernivtsi Oblast","name:szl":"Czerńowjecki uobwůd","name:war":"Chernivtsi Oblast","timezone":"Europe/Kiev","wikidata":"Q168856","ISO3166-2":"UA-77","wikipedia":"uk:Чернівецька_область","admin_level":"4","name:be-tarask":"Чарнавіцкая вобласьць","name:zh-min-nan":"Chernivci séng"},"id":72526},{"arcs":[[-24,59,-50,60,-2,-38]],"type":"Polygon","properties":{"ref":"КІР","flag":"http://upload.wikimedia.org/wikipedia/commons/0/09/Flag_of_Kirovohrad_Oblast.svg","name":"Кіровоградська область","place":"state","koatuu":"3500000000","ref:en":"KIR","ref:ru":"КИР","name:ar":"كيروفوهراد أوبلاست","name:be":"Кіраваградская вобласць","name:bg":"Кировоградска област","name:ca":"Província de Kirovohrad","name:cs":"Kirovohradská oblast","name:de":"Oblast Kirowohrad","name:en":"Kirovohrad Oblast","name:eo":"Kirovohrada provinco","name:es":"Óblast de Kirovogrado","name:et":"Kirovogradi oblast","name:eu":"Kirovohradeko oblasta","name:fa":"استان کیرووهراد","name:fi":"Kirovohradin alue","name:fr":"Oblast de Kirovohrad","name:hr":"Kirovogradska oblast","name:hu":"Kirovohradi terület","name:hy":"Կիրովոգրադի մարզ","name:id":"Oblast Kirovohrad","name:it":"Oblast' di Kirovohrad","name:ja":"キロヴォフラード州","name:ka":"კიროვოგრადის ოლქი","name:ko":"키로보흐라드 주","name:lt":"Kirovohrado sritis","name:lv":"Kirovogradas apgabals","name:mk":"Кировоградска област","name:mr":"किरोव्होराद ओब्लास्त","name:nl":"Oblast Kirovohrad","name:nn":"Kirovohrad oblast","name:no":"Kirovohrad oblast","name:pl":"Obwód kirowohradzki","name:pt":"Oblast de Kirovogrado","name:ro":"Regiunea Kirovohrad","name:ru":"Кировоградская область","name:sh":"Kirovogradska oblast","name:sk":"Kirovohradská oblasť","name:sr":"Кировоградска област","name:sv":"Kirovohrad oblast","name:tr":"Kirovograd Oblastı","name:uk":"Кіровоградська область","name:vi":"Kirovohrad (tỉnh)","name:zh":"基洛夫格勒州","boundary":"administrative","name:crh":"Kirovograd vilâyeti","name:pnb":"کیرووہراد اوبلاست","name:rue":"Кіровоградьска область","name:sco":"Kirovohrad Oblast","name:war":"Kirovohrad Oblast","timezone":"Europe/Kiev","wikidata":"Q180981","ISO3166-2":"UA-35","wikipedia":"uk:Кіровоградська_область","admin_level":"4","name:be-tarask":"Кіраваградзкая вобласьць","name:zh-min-nan":"Kirovograd séng"},"id":101859},{"arcs":[[-56,61,-3,-61]],"type":"Polygon","properties":{"ref":"ЧРК","name":"Черкаська область","place":"state","koatuu":"7100000000","ref:en":"CRK","ref:ru":"ЧРК","name:ar":"محافظة تشيركاسي","name:be":"Чаркаская вобласць","name:bg":"Черкаска област","name:ca":"Província de Txerkassy","name:cs":"Čerkaská oblast","name:de":"Oblast Tscherkassy","name:en":"Cherkasy Oblast","name:eo":"Ĉerkasa provinco","name:es":"Óblast de Cherkasy","name:et":"Tšerkassõ oblast","name:eu":"Txerkasyko oblasta","name:fa":"استان چرکاسی","name:fi":"Tšerkasyn alue","name:fr":"Oblast de Tcherkassy","name:ga":"Cúige Cherkasy","name:hr":"Čerkaška oblast","name:hu":"Cserkaszi terület","name:hy":"Չերկասիի մարզ","name:id":"Oblast Cherkasy","name:it":"Oblast' di Čerkasy","name:ja":"チェルカースィ州","name:ka":"ჩერკასის ოლქი","name:ko":"체르카시 주","name:lt":"Čerkasų sritis","name:lv":"Čerkasu apgabals","name:mk":"Черкаска област","name:mr":"चेर्कासी ओब्लास्त","name:ms":"Oblast Cherkasy","name:nl":"Oblast Tsjerkasy","name:nn":"Tsjerkasy oblast","name:no":"Tsjerkasy oblast","name:pl":"Obwód czerkaski","name:pt":"Oblast de Tcherkássi","name:ro":"Regiunea Cerkasî","name:ru":"Черкасская область","name:sh":"Čerkaška oblast","name:sk":"Čerkaská oblasť","name:sr":"Черкашка област","name:sv":"Tjerkasy oblast","name:tr":"Çerkası Oblastı","name:uk":"Черкаська область","name:vi":"Cherkasy (tỉnh)","name:zh":"切爾卡瑟州","boundary":"administrative","name:crh":"Çerkası vilâyeti","name:pnb":"چرکیسی اوبلاست","name:rue":"Черкаска область","name:sco":"Cherkasy Oblast","name:szl":"Czerkaski uobwůd","name:war":"Cherkasy Oblast","name:xmf":"ჩერკასიშ ოლქი","timezone":"Europe/Kiev","wikidata":"Q161808","ISO3166-2":"UA-71","wikipedia":"uk:Черкаська_область","admin_level":"4","name:be-tarask":"Чаркаская вобласьць","name:zh-min-nan":"Cherkasy séng"},"id":91278},{"arcs":[[62]],"type":"Polygon","properties":{"flag":"http://upload.wikimedia.org/wikipedia/commons/3/35/Flag_of_Kyiv_Kurovskyi.svg","name":"Київ","place":"city","koatuu":"8000000000","name:ab":"Кыив","name:af":"Kiëf","name:be":"Кіеў","name:de":"Kiew","name:en":"Kyiv","name:eo":"Kievo","name:es":"Kiev","name:fi":"Kiova","name:fr":"Kiev","name:fy":"Kiev","name:ia":"Kiev","name:io":"Kyiv","name:it":"Kiev","name:la":"Kiovia","name:nl":"Kiev","name:pl":"Kijów","name:pt":"Kiev","name:ro":"Kiev","name:ru":"Киев","name:uk":"Київ","name:vi":"Kiev","boundary":"administrative","int_name":"Kiew","name:ast":"Kiev","name:bar":"Kiew","name:szl":"Kijůw","name:tzl":"Kíiv","timezone":"Europe/Kiev","wikidata":"Q1899","ISO3166-2":"UA-30","wikipedia":"uk:Київ","population":"2908249","addr:region":"Київ","admin_level":"4","alt_name:en":"Kiev","alt_name:vi":"Kyiv","name:be-tarask":"Кіеў"},"id":421866},{"arcs":[[-4,-62,-55,-49,63,-35],[-63]],"type":"Polygon","properties":{"ref":"КИЇ","flag":"http://upload.wikimedia.org/wikipedia/commons/b/be/Flag_of_Kiev_Oblast.svg","name":"Київська область","place":"state","koatuu":"3200000000","ref:en":"KYI","ref:ru":"КИЕ","name:ar":"كييف أوبلاست","name:be":"Кіеўская вобласць","name:bg":"Киевска област","name:bs":"Kijevska oblast","name:ca":"Província de Kíev","name:cs":"Kyjevská oblast","name:cv":"Кейӳ облаçĕ","name:de":"Oblast Kiew","name:en":"Kyiv Oblast","name:eo":"Kieva provinco","name:es":"Óblast de Kiev","name:et":"Kiievi oblast","name:eu":"Kieveko oblasta","name:fa":"استان کیف","name:fi":"Kiovan alue","name:fr":"Oblast de Kiev","name:hr":"Kijevska oblast","name:hy":"Կիևի մարզ","name:id":"Oblast Kiev","name:it":"Oblast' di Kiev","name:ja":"キエフ州","name:ka":"კიევის ოლქი","name:ko":"키예프 주","name:lt":"Kijevo sritis","name:lv":"Kijevas apgabals","name:mk":"Киевска област","name:mr":"क्यीव ओब्लास्त","name:ms":"Oblast Kiev","name:nl":"Oblast Kiev","name:nn":"Kiev oblast","name:no":"Kiev oblast","name:os":"Киевы облæст","name:pl":"Obwód kijowski","name:pt":"Oblast de Kiev","name:ro":"Regiunea Kiev","name:ru":"Киевская область","name:sh":"Kijevska oblast","name:sk":"Kyjevská oblasť","name:sr":"Кијевска област","name:sv":"Kiev oblast","name:tr":"Kiev Oblastı","name:uk":"Київська область","name:vi":"Kiev (tỉnh)","name:zh":"基辅州","boundary":"administrative","name:crh":"Kiyev vilâyeti","name:pnb":"کیف اوبلاست","name:rue":"Київска область","name:sco":"Kiev Oblast","name:war":"Kiev Oblast","name:xmf":"კიევიშ ოლქი","timezone":"Europe/Kiev","wikidata":"Q170036","ISO3166-2":"UA-32","wikipedia":"uk:Київська_область","admin_level":"4","name:be-tarask":"Кіеўская вобласьць","name:zh-min-nan":"Kyyiv séng"},"id":71248},{"arcs":[[64,-51,-60,-23]],"type":"Polygon","properties":{"ref":"ОДЕ","name":"Одеська область","place":"state","koatuu":"5100000000","ref:en":"ODE","ref:ru":"ОДЕ","name:ar":"أوديسا أوبلاست","name:az":"Odessa vilayəti","name:be":"Адэская вобласць","name:bg":"Одеска област","name:ca":"Província d'Odessa","name:cs":"Oděská oblast","name:de":"Oblast Odessa","name:en":"Odessa Oblast","name:eo":"Odesa provinco","name:es":"Óblast de Odesa","name:et":"Odessa oblast","name:eu":"Odesako oblasta","name:fa":"استان اودسا","name:fi":"Odessan alue","name:fr":"Oblast d'Odessa","name:hr":"Odeška oblast","name:hu":"Odesszai terület","name:hy":"Օդեսայի մարզ","name:id":"Oblast Odessa","name:it":"Oblast' di Odessa","name:ja":"オデッサ州","name:ka":"ოდესის ოლქი","name:ko":"오데사 주","name:lt":"Odesos sritis","name:lv":"Odesas apgabals","name:mk":"Одеска област","name:mr":"ओदेसा ओब्लास्त","name:nl":"Oblast Odessa","name:nn":"Odessa oblast","name:no":"Odessa oblast","name:os":"Одессæйы облæст","name:pl":"Obwód odeski","name:pt":"Oblast de Odesa","name:ro":"Regiunea Odesa","name:ru":"Одесская область","name:sh":"Odeška oblast","name:sk":"Odeská oblasť","name:sr":"Одешка област","name:sv":"Odessa oblast","name:tr":"Odessa Oblastı","name:uk":"Одеська область","name:ur":"اودیسا اوبلاست","name:vi":"Odessa (tỉnh)","name:zh":"敖德萨州","boundary":"administrative","name:crh":"Ades vilâyeti","name:pnb":"اودیسا اوبلاست","name:rue":"Одеска область","name:sco":"Odessa Oblast","name:war":"Odessa Oblast","name:xmf":"ოდესაშ ოლქი","timezone":"Europe/Kiev","wikidata":"Q171852","ISO3166-2":"UA-51","wikipedia":"uk:Одеська область","admin_level":"4","name:be-tarask":"Адэская вобласьць","name:zh-min-nan":"Odesa séng","is_in:country_code":"UA"},"id":72634},{"arcs":[[-58,65,66,-46,-54]],"type":"Polygon","properties":{"ref":"ХМЕ","name":"Хмельницька область","place":"state","koatuu":"6800000000","ref:en":"KHM","ref:ru":"ХМЕ","name:ar":"خملنيتسكي أوبلاست","name:be":"Хмяльніцкая вобласць","name:bg":"Хмелницка област","name:ca":"Província de Khmelnytskyi","name:cs":"Chmelnycká oblast","name:de":"Oblast Chmelnyzkyj","name:en":"Khmelnytskyi Oblast","name:eo":"Ĥmelnicka provinco","name:es":"Óblast de Jmelnitski","name:et":"Hmelnõtskõi oblast","name:eu":"Khmelnytskyko oblasta","name:fa":"استان خملنیتسکی","name:fi":"Hmelnitskyin alue","name:fr":"Oblast de Khmelnitski","name:hr":"Hmeljnička oblast","name:hu":"Hmelnickiji terület","name:hy":"Խմելնիցկու մարզ","name:id":"Oblast Khmelnytskyi","name:it":"Oblast' di Chmel'nyc'kyj","name:ja":"フメリヌィーツィクィイ州","name:ka":"ხმელნიცკის ოლქი","name:ko":"흐멜니츠키 주","name:lt":"Chmelnyckio sritis","name:lv":"Hmeļņickas apgabals","name:mk":"Хмелничка област","name:mr":"ख्मेल्नित्स्की ओब्लास्त","name:nl":"Oblast Chmelnitski","name:nn":"Khmelnytskyj oblast","name:no":"Khmelnytskyj oblast","name:pl":"Obwód chmielnicki","name:pt":"Oblast de Khmelnitski","name:ro":"Regiunea Hmelnițki","name:ru":"Хмельницкая область","name:sh":"Hmeljnička oblast","name:sk":"Chmeľnycká oblasť","name:sr":"Хмељничка област","name:sv":"Chmelnytskyj oblast","name:tr":"Hmelnitski Oblastı","name:uk":"Хмельницька область","name:vi":"Khmelnytskyi (tỉnh)","name:zh":"赫梅利尼茨基州","boundary":"administrative","name:crh":"Hmelnıtskıy vilâyeti","name:pnb":"خمیلنیتسکی اوبلاست","name:rue":"Хмельницька область","name:sco":"Khmelnytskyi Oblast","name:szl":"Chmjylńicki uobwůd","name:war":"Khmelnytskyi Oblast","timezone":"Europe/Kiev","wikidata":"Q171331","ISO3166-2":"UA-68","wikipedia":"uk:Хмельницька_область","admin_level":"4","alt_name:de":"Oblast Chmelnizki","alt_name:en":"Khmelnitsky Oblast","name:be-tarask":"Хмяльніцкая вобласьць","name:zh-min-nan":"Xmelnyczkyj séng"},"id":90742},{"arcs":[[-57,-34,67,68,-66]],"type":"Polygon","properties":{"ref":"ТЕР","flag":"http://upload.wikimedia.org/wikipedia/commons/d/dc/Flag_of_Ternopil_Oblast.svg","name":"Тернопільська область","place":"state","koatuu":"6100000000","ref:en":"TER","ref:ru":"ТЕР","name:ar":"تيرنوبل أوبلاست","name:be":"Цярнопальская вобласць","name:bg":"Тернополска област","name:ca":"Província de Ternópill","name:cs":"Ternopilská oblast","name:de":"Oblast Ternopil","name:en":"Ternopil Oblast","name:eo":"Ternopila provinco","name:es":"Óblast de Ternópil","name:et":"Ternopili oblast","name:eu":"Ternopilgo oblasta","name:fa":"استان ترنوپیل","name:fi":"Ternopilin alue","name:fr":"Oblast de Ternopil","name:he":"מחוז טרנופול","name:hr":"Ternopiljska oblast","name:hu":"Ternopili terület","name:hy":"Տերնոպոլի մարզ","name:id":"Oblast Ternopil","name:it":"Oblast' di Ternopil'","name:ja":"テルノーピリ州","name:ka":"ტერნოპოლის ოლქი","name:ko":"테르노필 주","name:lt":"Ternopilio sritis","name:lv":"Ternopiļas apgabals","name:mk":"Тернополска област","name:mr":"तेर्नोपिल ओब्लास्त","name:nl":"Oblast Ternopil","name:nn":"Ternopil oblast","name:no":"Ternopil oblast","name:pl":"Obwód tarnopolski","name:pt":"Oblast de Ternopil","name:ro":"Regiunea Ternopil","name:ru":"Тернопольская область","name:sh":"Ternopiljska oblast","name:sk":"Ternopiľská oblasť","name:sr":"Тернопољска област","name:sv":"Ternopil oblast","name:tr":"Ternopil Oblastı","name:uk":"Тернопільська область","name:vi":"Ternopil (tỉnh)","name:zh":"捷爾諾波爾州","boundary":"administrative","name:crh":"Ternopil vilâyeti","name:pnb":"ترنوپل اوبلاست","name:rue":"Тернопільска область","name:sco":"Ternopil Oblast","name:szl":"Tarnopolski uobwůd","name:war":"Ternopil Oblast","timezone":"Europe/Kiev","wikidata":"Q173407","ISO3166-2":"UA-61","wikipedia":"uk:Тернопільська_область","admin_level":"4","name:be-tarask":"Тэрнопальская вобласьць","name:zh-min-nan":"Ternopil séng"},"id":72525},{"arcs":[[-33,69,70,-42,71,-68]],"type":"Polygon","properties":{"ref":"ЛЬВ","name":"Львівська область","place":"state","koatuu":"4600000000","ref:en":"LVI","ref:ru":"ЛЬВ","name:ar":"لفيف أوبلاست","name:az":"Lvov vilayəti","name:be":"Львоўская вобласць","name:bg":"Лвовска област","name:ca":"Província de Lviv","name:cs":"Lvovská oblast","name:cv":"Львов облаçĕ","name:de":"Oblast Lemberg","name:en":"Lviv Oblast","name:eo":"Lviva provinco","name:es":"Óblast de Leópolis","name:et":"Lvivi oblast","name:eu":"Lviveko oblasta","name:fa":"استان لووف","name:fi":"Lvivin alue","name:fr":"Oblast de Lviv","name:he":"מחוז לבוב","name:hr":"Ljvivska oblast","name:hu":"Lvivi terület","name:hy":"Լվովի մարզ","name:id":"Oblast Lviv","name:it":"Oblast' di Leopoli","name:ja":"リヴィウ州","name:ka":"ლვოვის ოლქი","name:ko":"리비우 주","name:lt":"Lvovo sritis","name:lv":"Ļvovas apgabals","name:mk":"Лавовска област","name:mr":"लिव्हिव ओब्लास्त","name:ms":"Oblast Lviv","name:nl":"Oblast Lviv","name:nn":"Lviv oblast","name:no":"Lviv oblast","name:os":"Львовы облæст","name:pl":"Obwód lwowski","name:pt":"Oblast de Lviv","name:ro":"Regiunea Liov","name:ru":"Львовская область","name:sh":"Lavovska oblast","name:sk":"Ľvovská oblasť","name:sr":"Лавовска област","name:sv":"Lviv oblast","name:tr":"Lviv Oblastı","name:uk":"Львівська область","name:vi":"Lviv (tỉnh)","name:zh":"利沃夫州","boundary":"administrative","name:crh":"İlbav vilâyeti","name:pnb":"لویو اوبلاست","name:rue":"Львівска область","name:sco":"Lviv Oblast","name:szl":"Lwowski uobwůd","name:war":"Lviv Oblast","timezone":"Europe/Kiev","wikidata":"Q164193","ISO3166-2":"UA-46","wikipedia":"uk:Львівська_область","admin_level":"4","name:be-tarask":"Львоўская вобласьць","name:zh-min-nan":"Lviv séng","name:zh-simplified":"利沃夫州","name:zh-traditional":"利維夫州"},"id":72380},{"arcs":[[-47,-67,-69,-72,-44,72]],"type":"Polygon","properties":{"ref":"РІВ","flag":"http://upload.wikimedia.org/wikipedia/commons/3/3c/Flag_of_Rivne_Oblast.svg","name":"Рівненська область","place":"state","koatuu":"5600000000","ref:en":"RIV","ref:ru":"РОВ","name:ar":"ريفنا أوبلاست","name:be":"Ровенская вобласць","name:bg":"Ровненска област","name:ca":"Província de Rivne","name:cs":"Rovenská oblast","name:de":"Oblast Riwne","name:en":"Rivne Oblast","name:eo":"Rivna provinco","name:es":"Óblast de Rivne","name:et":"Rivne oblast","name:eu":"Rivneko oblasta","name:fa":"استان ریونه","name:fi":"Rivnen alue","name:fr":"Oblast de Rivne","name:hr":"Rivnenska oblast","name:hy":"Ռովնոյի մարզ","name:id":"Oblast Rivne","name:it":"Oblast' di Rivne","name:ja":"リウネ州","name:ka":"როვნოს ოლქი","name:ko":"리우네 주","name:lt":"Rivnės sritis","name:lv":"Rivnes apgabals","name:mk":"Ровненска област","name:mr":"रिव्ह्ने ओब्लास्त","name:ms":"Oblast Rivne","name:nl":"Oblast Rivne","name:nn":"Rivne oblast","name:no":"Rivne oblast","name:pl":"Obwód rówieński","name:pt":"Oblast de Rivne","name:ro":"Regiunea Rivne","name:ru":"Ровненская область","name:sh":"Rivnenska oblast","name:sk":"Rivnenská oblasť","name:sr":"Ривањска област","name:sv":"Rivne oblast","name:tr":"Rivne Oblastı","name:uk":"Рівненська область","name:vi":"Rivne (tỉnh)","name:zh":"羅夫諾州","boundary":"administrative","name:crh":"Rivne vilâyeti","name:pnb":"ریون اوبلاست","name:rue":"Рівненьска область","name:sco":"Rivne Oblast","name:war":"Rivne Oblast","timezone":"Europe/Kiev","wikidata":"Q174187","ISO3166-2":"UA-56","wikipedia":"uk:Рівненська_область","admin_level":"4","addr:country":"UA","is_in:country":"Ukraine","name:be-tarask":"Ровенская вобласьць","name:zh-min-nan":"Rivne séng"},"id":71236},{"arcs":[[73,-70,-32]],"type":"Polygon","properties":{"ref":"ЗАК","flag":"http://upload.wikimedia.org/wikipedia/commons/3/3c/Flag_of_Transcarpathian_Oblast.svg","name":"Закарпатська область","place":"state","koatuu":"2100000000","ref:en":"ZAK","ref:ru":"ЗАК","name:ar":"زاكارباتيا أوبلاست","name:be":"Закарпацкая вобласць","name:bg":"Закарпатска област","name:bs":"Zakarpatska oblast","name:ca":"Transcarpàcia","name:cs":"Zakarpatská oblast","name:de":"Oblast Transkarpatien","name:en":"Zakarpattia Oblast","name:eo":"Transkarpata provinco","name:es":"Óblast de Zakarpatia","name:et":"Taga-Karpaatia","name:eu":"Transkarpatiako oblasta","name:fi":"Taka-Karpatian alue","name:fr":"Oblast de Transcarpatie","name:he":"זקרפטיה","name:hr":"Zakarpatska oblast","name:hu":"Kárpátalja","name:hy":"Անդրկարպատյան մարզ","name:id":"Oblast Zakarpattia","name:it":"Oblast' di Transcarpazia","name:ja":"ザカルパッチャ州","name:ka":"ტრანსკარპატიის ოლქი","name:ko":"자카르파탸 주","name:la":"Ruthenia Subcarpathanea","name:lt":"Užkarpatės sritis","name:lv":"Aizkarpatu apgabals","name:mk":"Закарпатска област","name:mr":"झाकारपत्तिया ओब्लास्त","name:nl":"Oblast Transkarpatië","name:nn":"Zakarpattja oblast","name:no":"Zakarpattja oblast","name:os":"Фæскарпаты облæст","name:pl":"Obwód zakarpacki","name:pt":"Oblast da Transcarpátia","name:ro":"Regiunea Transcarpatia","name:ru":"Закарпатская область","name:sk":"Zakarpatská oblasť","name:sr":"Закарпатска област","name:sv":"Zakarpatska oblast","name:tr":"Zakarpatya Oblastı","name:uk":"Закарпатська область","name:uz":"Zakarpatye viloyati","name:zh":"外喀爾巴阡州","boundary":"administrative","name:crh":"Zakarpattâ vilâyeti","name:pnb":"زاکارپاتیا اوبلاست","name:rue":"Закарпатьска область","name:sco":"Zakarpattia Oblast","name:szl":"Zakarpacki uobwůd","name:war":"Zakarpattia Oblast","name:xmf":"ტრანსკარპატიაშ ოლქი","timezone":"Europe/Uzhgorod","wikidata":"Q170213","ISO3166-2":"UA-21","wikipedia":"uk:Закарпатська область","admin_level":"4","name:simple":"Zakarpattia Oblast","name:be-tarask":"Закарпацкая вобласьць","name:zh-min-nan":"Zakarpattya séng"},"id":72489},{"arcs":[[-21,-39,-7,-41,74,-26]],"type":"Polygon","properties":{"ref":"ХАР","flag":"http://upload.wikimedia.org/wikipedia/commons/4/41/Flag_of_Kharkiv_Oblast.svg","name":"Харківська область","place":"state","koatuu":"6300000000","ref:en":"KHA","ref:ru":"ХАР","name:ar":"خاركيف أوبلاست","name:be":"Харкаўская вобласць","name:bg":"Харковска област","name:ca":"Província de Khàrkiv","name:cs":"Charkovská oblast","name:de":"Oblast Charkiw","name:en":"Kharkiv Oblast","name:eo":"Ĥarkiva provinco","name:es":"Óblast de Járkov","name:et":"Harkivi oblast","name:eu":"Kharkiveko oblasta","name:fa":"استان خارکف","name:fi":"Harkovan alue","name:fr":"Oblast de Kharkiv","name:hr":"Harkivska oblast","name:hu":"Harkivi terület","name:hy":"Խարկովի մարզ","name:id":"Oblast Kharkiv","name:it":"Oblast' di Charkiv","name:ja":"ハルキウ州","name:ka":"ხარკოვის ოლქი","name:ko":"하르키우 주","name:lt":"Charkovo sritis","name:lv":"Harkovas apgabals","name:mk":"Харковска област","name:mr":"खार्कीव्ह ओब्लास्त","name:nl":"Oblast Charkov","name:nn":"Kharkiv oblast","name:no":"Kharkiv oblast","name:os":"Харьковы облæст","name:pl":"Obwód charkowski","name:pt":"Oblast de Kharkiv","name:ro":"Regiunea Harkov","name:ru":"Харьковская область","name:sh":"Harkivska oblast","name:sk":"Charkovská oblasť","name:sr":"Харковска област","name:sv":"Charkiv oblast","name:tr":"Harkiv Oblastı","name:uk":"Харківська область","name:vi":"Kharkiv (tỉnh)","name:zh":"哈爾科夫州","boundary":"administrative","name:crh":"Harkiv vilâyeti","name:pnb":"خارکیف اوبلاست","name:rue":"Харківска область","name:sco":"Kharkiv Oblast","name:szl":"Charkowski uobwůd","name:war":"Kharkiv Oblast","name:xmf":"ხარკოვიშ ოლქი","timezone":"Europe/Kiev","wikidata":"Q170666","ISO3166-2":"UA-63","wikipedia":"uk:Харківська область","admin_level":"4","name:be-tarask":"Харкаўская вобласьць","name:zh-min-nan":"Xarkiv séng"},"id":71254}]}}}