{"transform":{"scale":[0.00171428723872387,0.0008413744974497464],"translate":[55.99857810000001,37.1772144]},"objects":{"admin_level_4":{"geocoding":{"license":"ODbL (see http://www.openstreetmap.org/copyright)","generator":{"package":"fences-builder","author":{"name":"Mapzen"},"version":"0.1.2"},"creation_date":"2016-01-09"},"geometries":[{"properties":{"name:ja":"サマルカンド州","admin_level":"4","name:ru":"Самаркандская область","name:en":"Samarkand Province","ISO3166-2":"UZ-SA","wikipedia":"ru:Самаркандская область","name":"Samarqand Viloyati","boundary":"administrative","timezone":"Asia/Samarkand","wikidata":"Q487532","name:de":"Provinz Samarkand"},"id":196249,"arcs":[[-1,-2,-3,-4]],"osm_type":"relation","name":"Samarqand Viloyati","type":"Polygon"},{"properties":{"name:ja":"ブハラ州","admin_level":"4","name:ru":"Бухарская область","name:en":"Bukhara Province","ISO3166-2":"UZ-BU","wikipedia":"ru:Бухарская_область","name":"Buxoro Viloyati","boundary":"administrative","timezone":"Asia/Samarkand","name:de":"Provinz Buchara"},"id":1670973,"arcs":[[-5,-6,-7,-8,-9]],"osm_type":"relation","name":"Buxoro Viloyati","type":"Polygon"},{"properties":{"name:ja":"スルハンダリヤ州","admin_level":"4","name:ru":"Сурхандарьинская область","name:en":"Surxondaryo Province","boundary":"administrative","wikipedia":"ru:Сурхандарьинская область","name":"Surxondaryo Viloyati","name:de":"Provinz Surxondaryo","timezone":"Asia/Samarkand","ISO3166-2":"UZ-SU","name:fa":"سرخان‌در"},"id":196248,"arcs":[[-10,-11]],"osm_type":"relation","name":"Surxondaryo Viloyati","type":"Polygon"},{"properties":{"name:ja":"ナマンガン州","admin_level":"4","name:ru":"Наманганская область","name:en":"Namangan Province","ISO3166-2":"UZ-NG","wikipedia":"ru:Наманганская_область","name":"Namangan Viloyati","boundary":"administrative","timezone":"Asia/Tashkent","name:de":"Provinz Namangan"},"id":178017,"arcs":[[11,12,13,14,15],[16]],"osm_type":"relation","name":"Namangan Viloyati","type":"Polygon"},{"properties":{"name:ja":"アンディジャン州","admin_level":"4","name:ru":"Андижанская область","name:en":"Andijan Province","ISO3166-2":"UZ-AN","wikipedia":"ru:Андижанская область","int_ref":"UZ-AN","name":"Andijon Viloyati","boundary":"administrative","timezone":"Asia/Tashkent","name:de":"Provinz Andijon"},"id":178016,"arcs":[[17,-12,18]],"osm_type":"relation","name":"Andijon Viloyati","type":"Polygon"},{"properties":{"admin_level":"4","name:ru":"Ферганская область","name":"Farg'ona Viloyati","timezone":"Asia/Tashkent","name:de":"Provinz Fargʻona","name:ja":"フェルガナ州","wikipedia":"ru:Ферганская область","name:en":"Fergana Province","ISO3166-2":"UZ-FA","population":"3229200","wikidata":"Q487089","boundary":"administrative"},"id":178018,"arcs":[[[19]],[[20]],[[21]],[[22,-13,-18]]],"osm_type":"relation","name":"Farg'ona Viloyati","type":"MultiPolygon"},{"properties":{"admin_level":"4","name:lt":"Navojo vilajetas","name":"Navoiy Viloyati","name:uz":"Navoiy Viloyati","timezone":"Asia/Samarkand","name:de":"Provinz Navoiy","name:ja":"ナヴァーイー州","wikipedia":"uz:Navoiy viloyati","name:en":"Navoiy province","ISO3166-2":"UZ-NW","name:ko":"나보이 주","name:ru":"Навоийская область","boundary":"administrative"},"id":196246,"arcs":[[3,23,4,24,25,26]],"osm_type":"relation","name":"Navoiy Viloyati","type":"Polygon"},{"properties":{"name:ja":"ジザフ州","admin_level":"4","name:ru":"Джизакская область","name:en":"Jizzakh Province","ISO3166-2":"UZ-JI","wikipedia":"ru:Джизакская область","name":"Jizzax Viloyati","boundary":"administrative","timezone":"Asia/Tashkent","name:de":"Provinz Jizzax"},"id":196254,"arcs":[[-28,0,-27,-29,-30]],"osm_type":"relation","name":"Jizzax Viloyati","type":"Polygon"},{"properties":{"admin_level":"4","timezone":"Asia/Samarkand","int_ref":"UZ-QR","name":"Qaraqalpaqstan Respublikasi","name:uz":"Qoraqalpogʻiston Respublikasi","name:lt":"Karakalpakistano Respublika","name:ja":"カラカルパクスタン共和国","wikipedia":"ru:Каракалпакстан","name:en":"Republic of Karakalpakstan","ISO3166-2":"UZ-QR","wikidata":"Q484245","name:ru":"Республика Каракалпакстан","boundary":"administrative"},"id":196241,"arcs":[[-25,8,-31,-32,-33,-34]],"osm_type":"relation","name":"Qaraqalpaqstan Respublikasi","type":"Polygon"},{"properties":{"name:ja":"ホラズム州","admin_level":"4","name:ru":"Хорезмская область","name:en":"Khorezm Province","ISO3166-2":"UZ-XO","wikipedia":"ru:Хорезмская_область","name":"Xorazm Viloyati","boundary":"administrative","timezone":"Asia/Samarkand","name:de":"Provinz Xorazm"},"id":196242,"arcs":[[[34,30,7]],[[32,35]]],"osm_type":"relation","name":"Xorazm Viloyati","type":"MultiPolygon"},{"properties":{"name:ja":"カシュカダリヤ州","admin_level":"4","name:ru":"Кашкадарьинская область","name:en":"Qashqadaryo Province","ISO3166-2":"UZ-QA","wikipedia":"ru:Кашкадарьинская_область","name":"Qashqadaryo Viloyati","boundary":"administrative","timezone":"Asia/Samarkand","name:de":"Provinz Qashqadaryo"},"id":1670974,"arcs":[[10,36,5,-24,2,37]],"osm_type":"relation","name":"Qashqadaryo Viloyati","type":"Polygon"},{"properties":{"border_type":"region","name:it":"Tashkent","name:el":"Τασκένδη","name:simple":"Tashkent","name":"Toshkent","name:mzn":"تاشکند","name:no":"Tasjkent","name:pt":"Tashkent","name:gd":"Tashkent","name:nl":"Tasjkent","name:hsb":"Taškent","name:en":"Tashkent","ISO3166-2":"UZ-TK","name:tr":"Taşkent","name:oc":"Tashkent","name:vep":"Taškent","name:ca":"Taixkent","name:cv":"Ташкент","name:id":"Tashkent","name:pl":"Taszkent","population":"3000000","name:cs":"Taškent","name:kn":"ತಾಷ್ಕೆಂಟ್","name:ug":"Tashkent","name:uk":"Ташкент","name:sh":"Taškent","name:hif":"Tashkent","name:bs":"Taškent","name:hi":"ताशकन्द","name:ml":"താഷ്കന്റ്","alt_name:vi":"Toshkent","name:ms":"Tashkent","name:ku":"Taşkent, Ûzbêkistan","name:pnb":"تاشقند","admin_level":"4","name:ga":"Tashkent","name:ckb":"تاشکەند","name:vi":"Tashkent","name:mhr":"Ташкент","name:he":"טשקנט","name:fa":"تاشکند","name:sah":"Ташкент","capital":"yes","name:vec":"Taškent","name:tt":"Ташкент","name:ru":"Ташкент","name:fr":"Tachkent","name:nn":"Tasjkent","name:bo":"ཐ་ཧྲི་ཀན།","name:ro":"Tașkent","name:am":"ታሽኬንት","addr:postcode":"100000","name:ht":"Tachkènt","name:ja":"タシュケント","name:cy":"Tashkent","wikipedia":"ru:Ташкент","name:pms":"Tashkent","name:tl":"Tashkent","name:ky":"Ташкен","name:sv":"Tasjkent","name:br":"Tochkent","name:lt":"Taškentas","name:be-tarask":"Ташкент","name:es":"Taskent","name:az":"Daşkənd","name:mr":"ताश्कंद","name:te":"తాష్కెంట్","old_name:vi":"Khang Cư","name:io":"Tashkent","name:lmo":"Taškent","name:sk":"Taškent","name:fi":"Taškent","addr:country":"UZ","name:lv":"Taškenta","name:kv":"Ташкент","name:udm":"Ташкент","is_in:country":"O'zbekiston","boundary":"administrative","name:ie":"Tashkent","name:zh":"塔什干","name:is":"Taskent","name:bn":"তাশখন্দ","name:la":"Lithopolis","alt_name:ru":"Ташкентъ","name:hr":"Taškent","name:de":"Taschkent","name:sr":"Ташкент","name:th":"ทาชเคนต์","addr:region":"Toshkent Viloyati","name:tg":"Тошканд","place":"city","name:sw":"Tashkent","int_name":"Tashkent","name:fy":"Tasjkent","name:af":"Tasjkent","name:da":"Tasjkent","name:bg":"Ташкент","name:eo":"Taŝkento","name:hu":"Taskent","name:mk":"Ташкент","name:yi":"טאשקענט","name:sq":"Tashkenti","name:uz":"Toshkent","name:eu":"Tashkent","name:tk":"Daşkent","old_name:ru":"Ташкентъ; Чач; Шаш; Джадж; Бинкент","name:ps":"تاشكند","name:ta":"தாஷ்கந்து","name:ar":"طشقند","name:nov":"Tashkent","name:et":"Toshkent","name:sco":"Tashkent","name:zh-min-nan":"Tashkent","name:hy":"Տաշքենդ","old_name":"Chach","name:kk":"Ташкент","name:ur":"تاشقند","name:yo":"Tashkent","name:ace":"Tashkent","name:vo":"Toshkent","alt_name:uz":"Тошкент","name:myv":"Ташкент ош","name:mn":"Ташкент","name:gl":"Tashkent","name:ko":"타슈켄트","name:os":"Ташкент","name:war":"Tashkent","name:ka":"ტაშკენტი","name:be":"Ташкент","name:crh":"Taşkent"},"id":2216724,"arcs":[[[38]],[[39],[40]]],"osm_type":"relation","name":"Toshkent","type":"MultiPolygon"},{"properties":{"name:ja":"シルダリヤ州","admin_level":"4","name:ru":"Сырдарьинская область","name:en":"Sirdarya Province","ISO3166-2":"UZ-SI","wikipedia":"ru:Сырдарьинская область#Regione_di_Syrdarya","name":"Sirdaryo Viloyati","boundary":"administrative","timezone":"Asia/Tashkent","name:de":"Provinz Sirdaryo"},"id":196253,"arcs":[[41,29,42,43]],"osm_type":"relation","name":"Sirdaryo Viloyati","type":"Polygon"},{"properties":{"name:ja":"タシュケント州","admin_level":"4","name:ru":"Ташкентская область","name:en":"Tashkent Province","ISO3166-2":"UZ-TO","wikipedia":"ru:Ташкентская область","name":"Toshkent Viloyati","boundary":"administrative","timezone":"Asia/Tashkent","wikidata":"Q487585","name:de":"Provinz Taschkent"},"id":196251,"arcs":[[[-41]],[[-15,44,-44,45],[-40],[-39]]],"osm_type":"relation","name":"Toshkent Viloyati","type":"MultiPolygon"}],"type":"GeometryCollection"}},"arcs":[[[6672,2759],[-4,-10],[-16,20],[-39,54],[-13,21],[-9,19],[-2,11],[0,8],[-1,41],[0,42],[2,7],[40,104],[5,10],[5,8],[9,11],[19,16],[8,4],[7,4],[12,4],[13,0],[4,3],[-1,20],[-19,105],[-9,9],[-8,11],[-130,48],[-46,6],[-15,2],[-27,16],[-3,3],[-70,74],[-2,13],[-1,33],[-2,28],[2,6],[15,6],[3,3],[2,6],[4,21],[1,16],[-1,6],[-17,49],[-24,33],[-10,81],[-1,13],[-1,50],[0,14],[1,8],[1,7],[7,24],[2,5],[2,7],[-1,22],[-3,10],[-9,32],[-2,1],[-4,1],[-52,0],[-72,12],[-26,6]],[[6614,2530],[4,4],[13,1],[12,5],[17,-1],[20,-1],[8,8],[6,5],[0,12],[-2,12],[2,14],[6,22],[2,5],[-3,32],[-1,6],[-12,15],[1,18],[-4,4],[1,3],[1,1],[2,7],[1,1],[1,6],[-1,7],[-3,9],[0,5],[-2,3],[-2,4],[-2,6],[0,3],[-1,2],[0,1],[-4,6],[-2,4]],[[5400,2751],[4,-3],[5,-1],[103,-5],[12,-1],[106,-4],[12,1],[7,3],[10,5],[6,5],[6,7],[10,11],[2,4],[3,5],[0,7],[55,-18],[41,-76],[35,-92],[1,-19],[1,-11],[2,-4],[9,-5],[27,-12],[12,-4],[16,-1],[4,2],[18,19],[9,9],[39,31],[3,2],[95,37],[4,-1],[4,-2],[15,-15],[11,-17],[9,-12],[14,-16],[7,-7],[9,-6],[4,0],[3,2],[40,26],[3,3],[5,9],[5,10],[14,36],[5,10],[5,9],[7,4],[4,1],[15,1],[8,-1],[34,-10],[61,-17],[5,-2],[6,-8],[2,-5],[5,-21],[1,-6],[0,-12],[-1,-13],[-6,-27],[0,-13],[1,-5],[1,-6],[3,-4],[7,-8],[4,-3],[13,-3],[11,0],[49,5],[7,2],[4,2],[5,10],[1,7],[0,12],[-1,11],[0,12],[3,7],[3,3],[3,1],[8,0],[8,-3],[39,-18],[9,-4],[33,-22],[13,-7],[28,14],[11,-16]],[[6196,3943],[-16,69],[-24,52],[-12,22],[-7,5],[-27,-38],[-29,-25],[-18,-2],[-23,5],[-13,15],[-13,31],[-15,1],[-14,-3],[-11,-21],[-28,-92],[-6,-73],[-1,-24],[3,-7],[7,-4],[5,-14],[-3,-44],[-11,-121],[-11,-26],[-29,-120],[3,-19],[10,-2],[18,18],[10,-1],[3,-9],[-2,-22],[-5,-13],[-36,-53],[-9,-12],[-20,-14],[-60,-26],[-2,0],[-1,1],[-1,0],[-1,1],[-48,-15],[-4,0],[-11,4],[-47,32],[-21,14],[-20,16],[-6,6],[-3,6],[-3,15],[-10,26],[-3,4],[-69,41],[-13,4],[-3,-2],[-3,-4],[-5,-11],[-2,-14],[1,-19],[-4,-107],[-1,-8],[-23,-109],[-4,-15],[-2,-6],[-3,-5],[-3,-3],[-4,-3],[-7,0],[-9,3],[-4,2],[-23,12],[-13,10],[-109,-58],[-3,-3],[-3,-4],[-1,-7],[2,-11],[2,-4],[7,-14],[12,-17],[12,-16],[4,-9],[5,-10],[3,-9],[16,-93],[1,-11],[-1,-13],[-1,-6],[-7,-29],[-7,-19],[-8,-28],[0,-12],[2,-17],[10,-36],[11,-29],[2,-5],[14,-41]],[[5312,2700],[-3,66],[-4,23],[-56,187],[-4,5],[-58,68],[-40,-15],[-14,1],[-30,53],[-22,38],[-19,34],[-33,76],[-8,19],[3,48],[28,50],[33,40],[11,8],[31,30],[3,16],[2,52],[13,17],[4,11],[21,3],[11,5],[6,6],[2,18],[3,23],[1,11],[-1,7],[-3,24],[-2,37],[-1,14],[-1,9],[-5,12],[-23,42],[12,28],[6,11],[5,7],[5,5],[6,4],[7,2],[6,1],[14,0],[13,-4],[5,-3],[13,-11],[9,-5],[28,-5],[19,-7],[39,-6],[2,23],[10,52],[24,35],[19,120],[62,5],[10,14],[-6,62],[1,67],[11,71],[-100,-53],[-75,12],[-109,24],[-13,6],[-10,8],[-14,22],[-27,198],[-10,55],[-12,4],[-6,-4],[-9,-40],[-14,-53],[-29,-7],[-48,-2],[-63,-11],[-7,-3],[-11,-88],[-2,-10],[-96,17],[-108,20],[-2,149],[-21,37],[-11,3],[-15,-12],[-13,-10],[-13,-22],[-68,-238],[-7,-4],[-33,-4],[-40,-3],[-3,1],[6,44],[-4,29],[-7,20],[-27,33],[-95,139],[-136,62],[-68,45],[-40,18],[-25,-1],[-6,-7],[-11,-2],[-7,27],[-18,100],[-26,84],[-20,31],[-29,25],[-16,12],[-30,30],[-27,45],[-18,40],[-42,130],[-13,-2],[-174,-35],[-27,-5]],[[4888,2103],[3,8],[67,118],[150,88],[69,40],[7,2],[3,3],[2,5],[2,7],[-3,10],[-11,23],[-10,18],[-6,14],[-3,10],[-2,11],[0,6],[2,14],[2,7],[3,5],[16,23],[44,65],[2,2],[10,0],[7,26],[8,29],[8,5],[1,2],[16,12],[25,27],[9,11],[3,6]],[[3617,3970],[5,-11],[17,-17],[16,-11],[4,-8],[12,-20],[17,-17],[5,-1],[12,-9],[0,-11],[-4,-24],[-6,-30],[1,-10],[9,-21],[1,-1],[8,-11],[6,-9],[4,-11],[2,-5],[3,-10],[1,-9],[0,-11],[-1,0],[-4,-18],[0,-12],[2,-15],[1,-22],[2,-8],[3,-18],[3,-15],[1,-24],[5,-20],[1,-25],[-2,-27],[-9,-23],[0,-13],[3,-8],[6,-12],[9,-21],[2,-35],[3,-13],[0,-11],[2,-18],[2,-11],[11,-25],[15,-22],[181,-209],[88,-94],[26,-30],[51,-56],[53,-59],[53,-56],[6,-6],[18,-22],[23,-25],[9,-9],[36,-35],[20,-18],[32,-35],[12,-15],[5,-5],[1,-1],[25,-43],[45,-69],[18,-18],[2,-2],[6,-51],[1,-6],[21,-24],[20,-18],[6,-8],[7,-8],[28,-32],[23,-23],[27,-32],[30,-39],[29,-34],[13,-13],[23,-27],[18,-24],[19,-25],[11,-8],[17,-4],[3,1],[10,0],[13,5],[27,24],[14,6],[6,0],[23,-40],[4,-7]],[[3644,4542],[9,-18],[28,-47],[75,-130],[8,-23],[0,-30],[-10,-74],[-58,-100],[-79,-150]],[[3628,5058],[105,-319],[30,-64],[16,-34],[-53,-38],[-82,-61]],[[6226,938],[3,-5],[4,-17],[0,-18],[-3,-17],[-5,-8],[-27,-23],[-2,-4],[-2,-5],[-5,-10],[-7,-26],[-9,-15],[-10,-23],[-6,-27],[-3,-10],[-5,-50],[-1,-13],[0,-12],[4,-31],[-2,-25],[-2,-23],[-3,-67],[3,-31],[4,-9],[54,-104],[5,-23],[0,-15],[-4,-15],[-14,-9],[-24,-10],[-14,-12],[-11,-13],[-2,-4],[-4,-8],[-1,-8],[-1,-6],[7,-11],[3,0],[4,-4],[2,-6],[5,-9],[4,8],[2,2],[1,1],[1,1],[3,3],[1,1],[1,0],[2,1],[6,0],[2,-1],[2,-2],[0,-1],[2,-2],[1,0],[2,-1],[0,-2],[1,-1],[0,-1],[1,-2],[1,-2],[0,-10],[1,-2],[1,-1],[1,-2],[1,-2],[2,-3],[0,-2],[1,-3],[0,-4],[1,-1],[1,-2],[1,-1],[1,-1],[10,0],[0,-1],[2,0],[0,-2],[1,-1],[1,-2],[0,-1],[1,0],[1,1],[2,1],[1,1],[1,1],[0,1],[2,1],[0,1],[1,2],[1,2],[0,1],[1,4],[0,7],[2,2],[1,2],[5,7],[2,3],[0,1],[1,1],[0,1],[1,1],[4,0],[3,-1],[4,0],[4,2],[2,1],[1,2],[1,1],[2,1],[2,2],[1,0],[1,-1],[1,-2],[1,-2],[1,-2],[0,-2],[1,-1],[2,-1],[2,-1],[1,0],[2,1],[1,1],[1,1],[1,2],[2,1],[2,1],[2,1],[1,0],[2,1],[2,-1],[2,1],[3,1],[1,0],[3,1],[4,0],[2,-1],[1,-1],[1,0],[1,-1],[1,0],[2,-2],[1,-2],[2,0],[3,-2],[4,0],[3,1],[3,0],[1,-1],[1,-1],[1,-1],[3,0],[2,4],[1,1],[2,2],[2,2],[1,1],[2,3],[1,0],[0,1],[1,1],[1,0],[1,1],[1,1],[2,0],[3,2],[1,0],[6,3],[1,1],[1,1],[1,1],[1,0],[2,3],[1,2],[0,2],[1,1],[2,2],[2,2],[2,1],[1,0],[1,2],[1,1],[2,3],[3,4],[1,1],[1,1],[3,2],[1,1],[2,0],[1,-1],[1,0],[2,-1],[2,-2],[2,-1],[1,-1],[1,-2],[1,-1],[1,-1],[1,0],[1,-1],[1,0],[0,-1],[1,-2],[1,-1],[2,0],[1,-1],[3,0],[1,-1],[1,0],[1,-1],[1,-4],[1,-2],[1,-1],[1,-1],[3,0],[1,-1],[1,-2],[1,-1],[1,0],[2,1],[3,0],[1,1],[4,3],[1,1],[1,1],[2,0],[1,1],[3,1],[1,0],[0,-1],[2,-1],[1,-1],[1,-2],[1,-1],[2,-2],[1,-2],[1,-2],[1,-2],[1,-1],[2,-7],[0,-2],[1,-1],[4,-5],[1,-1],[1,-1],[1,-2],[1,-1],[2,-1],[0,-1],[1,-1],[0,-1],[-1,-4],[0,-4],[2,-3],[1,-2],[3,-3],[4,0],[1,-2],[1,-3],[1,0],[1,-1],[1,-2],[0,-9],[1,-3],[0,-4],[-1,-3],[0,-1],[-1,-3],[0,-24],[1,-1],[2,-2],[2,-3],[2,-2],[0,-7],[1,-1],[0,-1],[1,-1],[1,-2],[1,-1],[2,0],[1,-1],[2,0],[2,-1],[0,-3],[1,-2],[1,-1],[1,-1],[1,0],[2,-2],[1,-1],[1,0],[4,-2],[2,-1],[7,1],[2,0],[1,2],[7,0],[7,-6],[10,-14],[6,-33],[7,-32],[7,-7],[12,5],[15,11],[11,3],[10,6],[12,6],[10,12],[14,-2],[10,8],[20,14],[2,3],[5,10],[1,4],[4,11],[6,7],[6,4],[5,1],[8,-5],[5,-7],[7,-14],[5,-14],[7,-16],[5,-5],[4,-1],[2,4],[6,17],[6,3],[7,0],[6,-7],[7,-9],[6,-4],[23,-1],[5,-1],[19,0],[12,-8],[7,-6],[8,-15],[4,-11],[4,-6],[3,-4],[0,14],[7,13],[2,4],[2,4],[3,17],[1,6],[4,20],[1,5],[3,12],[3,14],[1,4],[3,15],[5,25],[0,4],[1,3],[-2,23],[0,4],[-2,9],[-1,12],[-3,21],[-3,15],[0,3],[-2,16],[-2,15],[-1,3],[-1,4],[-1,3],[-1,4],[0,8],[2,11],[3,13],[4,19],[4,18],[5,25],[0,6],[2,11],[0,3],[1,5],[1,3],[1,5],[2,5],[0,15],[1,1],[2,1],[2,2],[1,2],[1,4],[1,4],[2,4],[4,8],[1,2],[8,20],[11,32],[1,4],[1,2],[2,5],[4,10],[6,18],[6,15],[6,16],[1,1],[2,2],[4,2],[2,1],[3,2],[2,3],[2,2],[1,2],[2,3],[1,4],[2,4],[0,1],[2,3],[1,2],[3,9],[0,1],[1,2],[0,5],[-1,7],[1,1],[1,0],[2,2],[2,2],[0,8],[1,3],[2,2],[2,2],[4,8],[1,1],[1,3],[0,3],[1,3],[1,4],[1,4],[6,20],[1,3],[0,4],[1,4],[3,9],[3,3],[1,2],[5,11],[1,3],[0,2],[1,1],[0,18],[1,4],[0,2],[2,2],[8,20],[2,3],[1,6],[1,3],[1,4],[3,8],[1,8],[1,3],[3,11],[0,6],[1,2],[0,2],[-1,1],[0,5],[1,20],[0,6],[1,5],[0,1],[2,2],[2,4],[2,1],[1,0],[1,-1],[1,0],[5,-3],[2,0],[1,1],[4,3],[0,1],[1,0],[2,-1],[2,-1],[1,-1],[2,0],[1,1],[2,1],[2,1],[3,0],[1,-2],[1,-1],[2,0],[2,1],[3,0],[2,-1],[1,0],[3,1],[3,-1],[2,-1],[10,-8],[4,-4],[2,-2],[2,-2],[1,-4],[1,-3],[1,-2],[1,-1],[0,-1],[1,-12],[5,9],[3,6],[4,18],[-5,5],[-1,8],[4,7],[1,3],[-1,5],[0,2],[1,2],[1,2],[-1,3],[-1,4],[-1,4],[0,1],[2,2],[2,4],[0,3],[-1,4],[0,5],[1,1],[1,1],[-2,5],[0,2],[2,4],[0,9],[1,3],[1,3],[3,3],[2,4],[0,8],[1,2],[0,3],[2,4],[1,2],[0,4],[1,0],[2,1],[1,1],[1,2],[2,0],[1,-1],[1,1],[0,1],[1,4],[0,2],[5,5],[1,9],[2,4],[2,1],[1,2],[0,4],[1,2],[1,1],[3,0],[2,2],[1,0],[1,2],[1,2],[1,1],[2,0],[2,4],[1,6],[1,5],[3,4],[0,3],[-2,3],[-1,4],[0,1],[1,2],[0,4],[1,1],[1,2],[2,4],[0,2],[-3,5],[1,8],[0,2],[1,1],[2,7],[3,9],[0,3],[-1,6],[1,3],[1,1],[3,-1],[0,13],[1,3],[2,2],[0,1],[-1,2],[-1,3],[1,3],[2,5],[1,4],[1,7],[0,12],[-2,4],[1,1],[0,2],[1,2],[0,1],[-1,1],[-1,1],[-4,3],[-2,1],[-2,2],[-5,-1],[0,16],[-2,4],[-1,4],[0,21],[-2,5],[-1,-1],[-2,-2],[-2,-5],[-4,-2],[-4,0],[-2,1],[-2,-2],[-5,-3],[-2,1],[-6,7],[0,9],[-1,3],[-3,2],[-4,1],[-2,3],[-1,4],[0,5],[-2,9],[-2,15],[-1,8],[-1,5],[2,4],[1,13],[1,8],[-2,1],[-1,3],[-1,5],[-3,0],[-1,1],[-3,-2],[-5,-2],[-3,0],[-3,3],[-2,0],[0,-5],[-4,-1],[-4,2],[-5,2],[-4,8],[0,8],[-2,4],[-2,-2],[-4,0],[-2,2],[2,4],[1,3],[-2,5],[-2,3],[-1,5],[-1,2],[-2,1],[-3,5],[-2,2],[-4,2],[-2,3],[0,1],[-7,-1],[-3,1],[-4,7],[-1,6],[-2,12],[-2,4],[-2,5],[-1,1],[-1,0],[-1,2],[0,2],[-2,10],[-1,1],[-3,-1],[-11,-9],[-1,0],[-4,-6],[-2,-4],[-4,-5],[-2,3],[-5,-5],[-1,3],[-1,-1],[-4,3],[-2,0],[-3,1],[1,13],[1,1],[0,3],[-1,0],[0,1],[1,2],[3,12],[4,3],[2,4],[8,17],[1,4],[0,1],[3,6],[9,22],[-5,18],[-3,6],[-2,3],[0,1],[-1,0],[0,1],[-1,1],[3,7],[1,4],[0,1],[1,0],[0,3],[-1,3],[-1,5],[0,4],[-2,3],[-1,0],[-3,-2],[-3,1],[-1,5],[1,7],[-1,7],[-4,1],[-4,-1],[-2,12],[0,7],[-2,8],[-1,4],[-1,5],[0,9],[3,7],[1,8],[2,1],[4,2],[1,7],[0,6],[-1,9],[1,8],[1,17],[0,7],[2,4],[4,4],[1,4],[-3,6],[-4,7],[0,11],[-2,5],[1,6],[0,3],[-1,3],[-2,7],[0,9],[-1,3],[-3,3],[-2,3],[0,5],[-3,7],[-1,5],[1,5],[1,4],[3,2],[3,4],[7,5],[3,1],[4,-1],[5,0],[7,2],[2,2],[3,1],[2,0],[0,2],[-1,2],[0,7],[-1,5],[-1,7],[-3,4],[-3,6],[-3,9],[-3,5],[0,3],[-1,9],[-2,6],[-3,6],[-2,1],[-4,1],[-2,1],[0,2],[-4,0],[-2,2],[0,4],[1,2],[0,2],[-1,3],[1,2],[0,5],[1,6],[3,-1],[2,-2],[4,-1],[3,-2],[2,0],[3,3],[3,0],[4,2],[2,1],[1,-1],[4,0],[2,1],[2,1],[2,0],[-1,3],[0,5],[1,2],[3,-1],[9,0],[2,2],[2,1],[3,2],[3,0],[0,9],[2,4],[1,4],[2,3],[3,3],[1,2],[3,2],[3,2],[2,1],[0,7],[1,3],[-1,2],[-2,2],[-4,4],[-3,3],[-3,7],[-1,3],[1,3],[0,2],[-1,5],[0,2],[1,1],[3,2],[1,0],[3,1],[2,3],[0,3],[1,4],[0,6],[-1,4],[1,3],[2,2],[3,0],[1,1],[0,4],[-1,2],[-2,3],[-1,6],[-2,6],[-1,3],[-2,1],[-2,2],[-2,2],[-5,3],[-2,3],[-2,1],[-4,0],[-3,1],[-3,3],[-2,3],[-2,3],[-3,4],[-3,0],[-1,3],[1,4],[-1,4],[2,3],[1,4],[0,4],[-2,4],[-1,4],[0,4],[-1,3],[-1,3],[0,4],[-2,2],[-3,2],[-2,4],[0,8],[-2,4],[-2,1],[-2,1],[-3,-1],[-2,2],[-1,4],[-2,4],[-2,-1],[-3,0],[-2,3],[-2,2],[-3,-3],[-2,0],[-1,1],[-2,-4],[-3,-5],[-4,-1],[-3,0],[-4,-1],[-2,-3],[-3,-3],[-3,-1],[-1,2],[-3,3],[-4,1],[-3,2],[-5,3],[-2,2],[-2,5],[0,4],[-2,5],[-3,1],[-2,-1],[-3,-5],[-2,-3],[-4,-3],[-3,1],[-3,0],[-3,-2],[-3,-1],[-3,3],[-3,0],[-3,-1],[-3,1],[-2,3],[-1,-1],[-3,-3],[-3,-3],[-3,-3],[-2,1],[-3,1],[-3,-1],[-1,-3],[-3,-3],[-1,-3],[-2,-7],[-2,-1],[-4,-4],[-2,1],[-4,2],[-5,3],[-4,4],[-2,0],[-3,1],[-1,2],[-4,0],[-2,2],[-1,3],[-3,-2],[-3,-3],[-5,0],[-4,-1],[-2,2],[-3,-1],[-3,3],[-4,0],[-4,2],[-1,-2],[-2,-5],[-3,-5],[-4,-6],[-1,1],[-2,2],[-3,2],[-2,-3],[-5,-2],[-3,0],[-3,2],[-1,2],[-4,-5],[-3,0],[-3,3],[-3,6],[0,6],[-1,1]],[[6821,2183],[-10,-17],[-5,-7],[-7,-4],[-12,-3],[-21,-2],[-9,1],[-8,-1],[-8,-3],[-3,-2],[-7,-5],[-8,-12],[-4,-10],[-2,-7],[-1,-8],[6,-56],[1,-7],[6,-21],[7,-21],[5,-9],[2,-11],[1,-84],[0,-9],[-17,-78],[-3,1],[-3,3],[-12,21],[-6,8],[-13,6],[-5,2],[-13,0],[-14,-7],[-6,-7],[-7,-13],[-11,-26],[-5,-17],[-10,-28],[-68,-110],[-41,-65],[-3,-4],[-1,-6],[-1,-7],[-7,-55],[-1,-16],[-1,-15],[-5,-28],[-1,-6],[-4,-11],[-25,-42],[-6,-8],[-23,-26],[-22,-19],[-10,-8],[-6,-5],[-6,-5],[-62,-103],[-80,-133],[-5,-10],[-3,-13],[-2,-12],[-13,-87],[2,-10],[1,-8]],[[9448,4540],[-15,-97],[-4,4],[-6,-3],[-7,-2],[-6,-9],[-3,-13],[-44,-7],[-4,-1],[-19,3],[-42,15],[-3,2],[-3,5],[-3,4],[-3,3],[-4,2],[-47,0],[-108,-42],[-15,-16],[-26,-37],[28,-52],[-24,-24]],[[9090,4275],[-36,-16],[-7,-4],[-43,-35],[-9,-9],[-16,-15],[-5,-18],[-4,-11],[-10,-19],[-10,-16],[-28,-40],[-6,-6],[-3,-2],[-5,2],[-67,50],[-4,3],[-23,36],[-11,39],[17,32],[5,11],[0,4],[-85,-2],[-43,-12],[-61,-24],[-1,-1],[-2,-3],[-1,-2]],[[8632,4217],[0,5],[-1,2],[0,1],[1,0],[0,1],[-1,0],[0,2],[-1,2],[-1,2],[-2,2],[-1,3],[0,1],[-2,2],[-1,1],[-1,2],[0,1],[-1,2],[-2,2],[0,1],[-1,1],[-1,1],[-1,1],[-1,2],[-2,2],[-3,3],[-2,1],[-2,2],[-6,2],[-1,2],[2,1],[2,1],[-1,6],[-1,1],[-1,2],[-3,4],[-4,7],[-2,1],[-1,1],[-1,2],[-2,2],[-1,3],[-1,2],[-1,1],[-1,1],[-2,3],[-1,0],[-1,1],[0,1],[-1,0],[0,1],[2,-1],[3,0],[2,2],[2,-2],[3,3],[1,3],[1,4],[0,1],[-1,2],[-1,1],[0,1],[-2,5],[-2,5],[-2,5],[-1,1],[-1,2],[-2,3],[-1,0],[0,1],[-4,5],[-1,1],[-3,2],[-3,3],[-1,1],[-1,0],[-1,1],[-1,0],[-2,3],[-1,2],[-1,3],[-2,4],[-2,0],[-4,6],[-3,6],[-5,3],[-1,6],[-1,4],[1,6],[-3,7],[-2,4],[-1,3],[-1,4],[-1,2],[-1,2],[-3,1],[-2,2],[-3,2],[-3,5],[-1,3],[-1,5],[-1,6],[-3,5],[-1,7],[-1,7],[-4,6],[-1,4],[-2,6],[-2,7],[-4,4],[-2,4],[-1,4],[-1,6],[-1,3],[-3,3],[-2,3],[-2,3],[-1,2],[-1,1],[-10,0],[-2,2],[-2,2],[-3,4],[-1,3],[0,11],[-1,3],[-2,3],[0,2],[-1,3],[2,2],[-1,1],[-1,1],[-2,1],[-2,3],[-3,2],[-2,3],[0,2],[-1,2],[-2,1],[-1,0],[-1,3],[0,2],[-1,2],[0,1],[-1,2],[-1,3],[-1,0],[0,1],[-2,0],[-1,1],[0,2],[-1,1],[0,3],[-1,1]],[[8443,4593],[1,3],[1,1],[1,5],[0,5],[1,4],[1,3],[2,2],[0,1],[1,5],[2,2],[0,3],[1,1],[1,3],[2,7],[1,4],[0,3],[-1,3],[0,1],[1,2],[2,0],[0,1],[2,2],[2,2],[4,1],[2,2],[-11,14],[-9,15],[-12,10],[-5,5],[-6,10],[-4,13],[8,11],[-1,8],[-9,17],[0,15],[-5,14],[1,30],[6,16],[1,3],[4,4],[1,8],[0,1],[-1,2],[-5,-1],[-4,1],[-6,5],[-9,-5],[-2,1],[-3,0],[-1,-1],[-2,0],[-2,-1],[0,34],[1,3],[2,5],[0,9],[1,4],[2,3],[2,3],[1,-1],[0,-2],[1,0],[2,-1],[2,-2],[2,0],[1,1],[1,3],[0,2],[1,1],[2,2],[2,2],[0,1],[2,1],[1,3],[2,4],[1,3],[4,4],[1,2],[0,1],[1,2],[1,1],[1,1],[0,1],[2,4],[1,2],[3,3],[2,1],[1,1],[2,2],[1,3],[0,7],[1,1],[1,2],[-1,3],[0,4],[4,9],[4,5],[2,12],[2,12]],[[8456,5015],[4,5],[10,-3],[6,2],[13,10],[2,12],[4,8],[6,0],[-2,15],[3,7],[6,-2],[5,16],[9,-5],[7,8],[7,1],[8,-2],[10,12],[12,4],[17,-9],[2,-3],[5,-22],[10,-22],[16,-38],[7,-19],[6,-40],[-3,-23],[-5,-16],[-1,-2],[1,-34],[3,-15],[8,-17],[1,-7],[-2,-12],[-9,-18],[0,-21],[2,-18],[7,-12],[10,-7],[5,3],[3,9],[4,18],[7,22],[6,13],[4,4],[5,2],[3,0],[7,-10],[7,-17],[11,-10],[11,-17],[7,-24],[7,-4],[34,35],[6,1],[2,0],[1,-1],[7,-9],[7,-5],[10,-4],[2,-7],[6,-13],[5,-7],[11,-11],[6,-2],[10,11],[6,10],[4,7],[3,3],[3,0],[3,-1],[3,7],[3,8],[5,5],[4,0],[5,-21],[4,-1],[4,5],[-1,10],[2,8],[3,4],[5,2],[7,-10],[3,4],[6,-7],[3,-8],[3,-28],[-3,-47],[2,-6],[5,-2],[6,3],[10,14],[6,15],[2,28],[3,3],[2,5],[6,5],[7,1],[5,-4],[10,-16],[3,-10],[1,-14],[2,-20],[2,-6],[3,-3],[7,1],[8,12],[5,9],[0,1],[2,3],[0,12],[7,23],[1,14],[-8,12],[-1,22],[13,13],[2,12],[-1,10],[-1,6],[-1,5],[-3,4],[-3,8],[0,10],[4,16],[-4,15],[1,8],[4,11],[9,12],[5,11],[4,1],[11,-10],[9,0],[4,-13],[7,2],[3,1],[2,-1],[3,-4],[1,-5],[4,2],[4,1],[5,3],[3,3],[3,2],[2,4],[2,12],[1,7],[2,0],[0,5],[2,7],[8,9],[4,14],[2,4],[1,1],[4,-5],[3,0],[4,19],[4,14],[1,16],[3,13],[11,25],[-2,4],[-1,4],[1,5],[-3,2],[-2,5],[2,6],[-4,7],[7,10],[-2,13],[-2,9],[-4,7],[-7,4],[-3,1],[-2,5],[4,4],[7,1],[3,2],[1,1],[1,3],[1,2],[2,5],[2,3],[-1,8],[9,11],[0,3],[6,7],[3,2],[1,7],[2,3],[3,3],[4,1],[4,-3],[3,-14],[-5,-5],[-2,-8],[0,-5],[-2,-6],[1,-17],[3,-10],[-1,-9],[-5,-8],[-1,-8],[-11,-22],[-1,-8],[1,-9],[6,-13],[5,-6],[3,4],[1,11],[-2,7],[4,7],[6,4],[-1,6],[4,0],[4,-6],[-1,-7],[3,-8],[4,1],[2,5],[4,8],[2,2],[2,-2],[3,-3],[2,-2],[4,-3],[1,-7],[1,-6],[-1,-4],[0,-6],[-1,-4],[1,-4],[1,-3],[1,-3],[1,-1],[1,-2],[2,-7],[1,-1],[1,2],[1,-4],[2,-5],[1,-1],[3,-1],[4,-4],[2,-7],[0,-1],[1,0],[0,-2],[-1,-1],[4,-9],[-2,-11],[3,-8],[4,-4],[7,-1],[5,-3],[1,2],[0,3],[1,1],[1,0],[1,2],[1,3],[0,1],[1,3],[1,1],[0,3],[1,-1],[0,-2],[2,0],[1,-2],[-1,-2],[0,-2],[5,-8],[1,-9],[-8,-6],[4,-14],[2,-5],[2,-5],[2,-5],[2,-5],[1,-2],[3,-3],[1,-2],[3,-3],[4,-4],[2,-2],[1,-1],[-1,-1],[-1,-2],[-1,-2],[-1,-2],[-1,-2],[-2,-2],[-3,-3],[-2,-1],[0,-1],[1,-2],[1,-2],[-3,-7],[0,-6],[-2,-5],[-2,-4],[0,-1],[-1,0],[-5,-3],[0,-3],[-1,-5],[-1,-16],[-2,-3],[-1,-4],[0,-6],[-5,-9],[-4,-20],[1,-4],[4,-4],[7,-1],[1,-3],[-1,-14],[2,-13],[5,-7],[5,-3],[4,0],[1,1],[2,0],[1,-3],[0,-2],[2,0],[1,-1],[1,1],[1,-1],[0,-1],[2,-1],[1,0],[0,-2],[2,0],[1,-1],[0,-1],[4,-6],[5,1],[5,13],[16,0],[3,1],[4,-1],[4,0],[0,-6],[2,-7],[2,-4],[2,-2],[2,-2],[1,-2],[3,-1],[2,0],[3,-1],[1,-1],[5,-3],[1,0],[1,-1],[1,-2],[1,0],[1,-1],[0,-2],[2,0],[0,-1],[1,-1],[1,-1],[2,-4],[1,-2],[1,-2],[2,-1],[1,5],[3,4],[2,3],[7,9],[0,2],[1,5],[2,6],[2,2],[1,3],[2,3],[2,2],[5,-1],[4,3],[2,4],[2,2],[2,1],[1,-1],[5,-2],[5,1],[5,5],[1,-3],[1,2],[1,0],[3,-7],[1,-1],[0,-1],[-1,-2],[-1,-3],[-1,-2],[-1,-2],[-1,-3],[-2,-2],[-6,-6],[-2,-1],[0,-16],[4,-2],[0,1],[1,-1],[2,-1],[2,-2],[2,-2],[6,-3],[0,-12],[6,-5],[0,-3],[1,-9],[1,-6],[1,-6],[2,-6],[2,-5],[2,-10],[0,-1],[1,-2],[1,-3],[0,-6],[1,-4],[-1,-6],[0,-15],[-1,-5],[-16,-6],[-2,-5],[0,-1],[1,-4],[2,-15],[2,-7],[6,0]],[[8558,4442],[0,4],[-2,3],[-2,8],[-4,5],[-3,6],[-5,8],[-4,9],[-3,7],[-3,10],[-5,10],[-5,8],[-6,7],[-4,4],[-5,5],[-3,5],[-5,7],[-2,3],[-4,-2],[-1,-3],[-2,-4],[-2,-4],[-3,-4],[-1,-4],[2,0],[4,-1],[5,3],[4,1],[5,-4],[5,-6],[5,-8],[5,-5],[4,-7],[3,-7],[3,-6],[3,-7],[3,-7],[4,-6],[4,-9],[4,-6],[4,-8],[3,-4],[3,-2],[1,1]],[[9464,3932],[0,89],[-2,6],[-1,5],[-51,25],[-3,1],[-25,8],[-3,-4],[-5,0],[-97,25],[-19,6],[-5,9],[-1,6],[-8,19],[-15,34],[-7,13],[-4,3],[-7,6],[-28,21],[-52,12],[-1,-6],[-2,-22],[-36,83],[-2,4]],[[9448,4540],[3,2],[5,-1],[3,5],[3,2],[2,2],[6,6],[18,12],[7,5],[10,4],[10,3],[2,0],[2,1],[2,2],[1,2],[2,1],[3,1],[-1,2],[1,1],[1,3],[1,0],[1,2],[1,0],[2,4],[0,2],[1,1],[1,8],[2,4],[0,1],[2,0],[0,-3],[1,-3],[2,-4],[0,-2],[2,-5],[1,-2],[0,-1],[2,-1],[1,-1],[1,0],[3,-1],[2,0],[3,-11],[4,-3],[2,-1],[14,-2],[1,3],[4,6],[4,0],[4,-3],[3,0],[2,-2],[2,-1],[2,-1],[8,-15],[8,-8],[3,-7],[1,-2],[0,-3],[-1,-9],[0,-1],[3,-1],[1,-1],[2,0],[0,-2],[1,-1],[2,1],[-1,-4],[-6,-9],[-1,-1],[0,-1],[1,-5],[1,0],[2,-3],[1,1],[2,-1],[2,3],[1,1],[1,-3],[2,1],[2,0],[2,-1],[5,-11],[2,5],[1,-2],[4,0],[2,2],[1,1],[0,1],[1,1],[2,-2],[2,-3],[0,-2],[-1,-1],[0,-3],[4,-3],[2,-6],[1,0],[0,-3],[-1,-4],[1,0],[1,-1],[0,-4],[2,-3],[1,-2],[1,-3],[0,-1],[2,-4],[2,-7],[2,-2],[2,-3],[3,-7],[1,-6],[1,-2],[-1,-2],[0,-3],[-2,-6],[-1,-2],[-3,-10],[6,-21],[10,3],[4,-4],[8,-6],[8,-3],[10,-6],[10,-4],[9,-1],[3,5],[9,-7],[4,1],[19,2],[12,2],[17,0],[13,-1],[5,5],[1,-1],[4,-3],[15,-11],[8,-8],[7,-9],[4,-9],[0,-8],[7,-7],[3,-3],[6,-3],[7,-5],[5,4],[4,1],[2,1],[0,2],[-1,1],[1,1],[0,9],[1,0],[1,2],[0,-1],[1,0],[-1,2],[1,1],[1,2],[1,0],[2,1],[0,-2],[1,0],[0,1],[1,-1],[0,-1],[2,0],[-1,4],[2,0],[0,1],[1,1],[0,6],[1,0],[1,1],[5,0],[1,1],[1,1],[0,1],[1,1],[1,5],[0,6],[4,-4],[0,2],[1,0],[2,3],[1,0],[0,1],[1,1],[1,0],[1,1],[2,0],[2,-2],[0,-1],[1,-1],[-1,-1],[0,-1],[1,0],[0,-1],[1,0],[0,-1],[1,-1],[1,0],[1,3],[1,1],[1,2],[1,0],[0,1],[1,0],[11,2],[3,4],[3,1],[3,1],[3,-3],[2,1],[1,2],[3,-2],[0,-5],[2,-8],[8,-6],[5,2],[4,5],[2,1],[1,-2],[4,-7],[2,-6],[-1,-27],[2,-24],[-3,-2],[-27,-11],[-14,-6],[-2,1],[-1,0],[-1,-2],[-1,-1],[-1,-3],[-1,0],[-3,1],[-2,1],[-2,2],[-1,1],[-2,0],[0,-1],[-1,-1],[-1,-1],[-1,0],[-3,1],[-3,0],[-5,-2],[-3,-1],[-1,-1],[-3,0],[-5,1],[-14,-17],[-12,-22],[-7,-1],[-5,-4],[-1,0],[-1,-2],[-3,-3],[-7,-2],[-5,-3],[-2,-1],[-1,-1],[-1,-2],[-2,0],[0,-1],[-2,-1],[-2,-2],[-4,-2],[-1,0],[-2,1],[-4,0],[-4,1],[0,-5],[3,0],[0,-1],[1,0],[0,-5],[-1,0],[0,-3],[4,0],[-11,-34],[-5,2],[-5,2],[-6,1],[-3,-1],[-1,2],[-1,0],[-1,-1],[-4,1],[-1,-3],[-1,-4],[-2,-2],[-4,-2],[-2,-2],[4,-16],[-1,-1],[-1,-2],[-4,-3],[-1,-1],[0,-5],[-1,-2],[-1,-1],[0,-1],[-3,-3],[-1,-3],[-3,-6],[0,-1],[-1,-1],[-2,-2],[-1,-3],[0,-6],[-1,0],[-1,-1],[0,-4],[-1,0],[0,-2],[-1,-3],[-1,-3],[0,-2],[1,-4],[0,-1],[-1,-5],[0,-2],[1,-1],[0,-3],[1,-1],[0,-3],[2,-6],[0,-4],[1,-2],[2,-2],[0,-5],[-1,-1],[-2,0],[0,1],[-1,0],[0,1],[-1,0],[0,-2],[-1,-1],[-2,0],[0,4],[-1,0],[1,1],[0,5],[-2,2],[0,1],[-1,0],[0,2],[-3,0],[0,-1],[-1,-1],[-1,1],[-2,2],[0,1],[-1,1],[-1,-1],[-1,2],[-1,1],[-2,0],[0,1],[-1,1],[-1,0],[-1,-2],[-3,1],[-3,-1],[-1,-1],[-1,1],[0,1],[1,1],[0,2],[-1,1],[0,-1],[-1,0],[0,2],[-1,0],[-1,1],[-1,2],[0,3],[-1,0],[0,-2],[-1,0],[-1,-1],[-1,-1],[0,1],[-1,0],[-1,-1],[0,-1],[-2,0],[0,-1],[-1,0],[0,-1],[-1,0],[0,-1],[-1,-1],[-1,0],[-1,-1],[-1,0],[0,-2],[-1,0],[-1,-1],[0,-2],[-2,0],[0,-1],[1,0],[0,-1],[-2,-2],[1,-1],[0,1],[1,0],[0,-1],[-1,-1],[1,-1],[0,-1],[2,0],[0,-2],[1,-2],[-1,-1],[0,-1],[1,-2],[2,-4],[0,-6],[-3,-1],[-1,2],[-2,-2],[-1,-1],[1,-1],[-3,0],[1,-2],[4,-4],[1,-1],[0,-8],[1,-23],[0,-7],[-4,-8],[-2,-5],[-2,1],[0,-3],[-14,0],[-4,3],[-2,1],[-1,0],[-1,1],[-1,1],[-1,-1],[0,1],[-1,1],[0,1],[-18,22],[-7,2],[-6,0],[-5,-1],[-9,8],[-12,17],[-6,3],[-9,-5],[-2,0],[-6,-6],[-7,13],[-6,10],[-2,3],[0,4],[-2,2],[0,1],[-2,5],[-1,6],[-6,16],[-9,10],[-2,8],[-1,2],[-1,1],[-2,-1],[-3,-2],[-2,1],[-1,-1],[-1,-1],[-2,-5],[-3,2],[-1,-2],[1,-1],[0,-8],[-1,-2],[0,-1],[-1,2],[-1,0],[-1,-1],[-1,0],[-1,2],[-4,0],[-1,-1],[-3,1],[0,-1],[-2,0],[0,-1],[-1,0],[-4,2],[-1,0],[-1,-1],[0,-1],[-1,-2],[2,-2],[2,-2],[1,-1],[1,-1],[0,-2],[1,-1],[1,0],[0,-1],[4,-5],[1,-1],[0,-1],[1,-3],[2,-5],[5,-3],[1,-1],[6,-1],[1,0],[1,-2],[-2,-3],[-2,2],[-1,-2],[1,-1],[1,-5],[2,-3],[1,0],[2,-1],[4,0],[1,-2],[1,0],[2,2],[1,0],[2,-1],[1,0],[0,-1],[-1,-1],[-1,-5],[0,-5],[2,-3],[-1,-2],[1,-3],[0,-3],[1,-1],[2,0],[0,-1],[1,-1],[0,-1],[-1,1],[0,-1],[-1,1],[0,-2],[-1,-1],[-2,-4],[-3,-2],[-2,1],[-1,-2],[-1,-3],[-1,0],[0,-2],[1,-2],[-2,-1],[-3,-2],[-3,0],[-1,-1],[-2,0],[-2,1],[-1,-1],[1,-5],[-1,0],[-1,-2],[-1,0],[0,-6],[3,-1],[1,-1],[1,-1],[1,-1],[3,-1],[3,0],[1,1],[3,0],[0,1],[5,0],[0,-3],[3,-3],[0,-2],[3,-9],[2,-5],[4,-6],[3,-14],[-8,-28],[-6,-25],[3,-16],[0,-13],[-3,-3],[-3,-1],[-7,3],[-7,1],[-5,3],[-6,6],[-4,8],[-15,23],[-8,9],[-4,2],[-10,-6],[-4,4],[-3,7],[-8,-1],[-4,3],[-2,0],[0,1],[-4,3],[-1,0],[-6,4],[2,10],[1,3],[1,4],[2,5],[0,3],[-1,0],[-3,4],[-1,1],[-1,1],[0,-2],[-1,-2],[-1,1],[-7,1],[-3,1]],[[8776,3656],[0,-5],[-1,-4],[-1,-3],[0,-9],[1,-1],[0,-7],[-2,-2],[-1,0],[-1,1],[0,5],[-2,3],[-1,3],[0,15],[1,2],[0,1],[1,2],[1,1],[1,2],[0,1],[1,1],[2,0],[1,-1],[0,-5]],[[9252,3336],[0,-1],[-1,-1],[0,-6],[-1,-1],[0,-8],[-1,-2],[-1,-3],[-1,-2],[-1,-1],[0,-2],[-1,-1],[0,-14],[-1,-2],[0,-2],[-1,0],[-1,1],[-2,4],[-1,1],[-1,1],[-1,2],[-1,1],[-1,2],[-1,0],[-1,1],[-10,0],[-1,1],[-3,0],[-1,1],[-1,0],[-1,1],[-1,2],[-1,1],[0,2],[-1,2],[0,1],[-1,1],[-3,0],[-1,-1],[-2,-2],[-1,-1],[-1,-1],[0,-10],[-1,-2],[0,-2],[-1,-1],[-1,-1],[-1,-1],[-1,-1],[-1,-1],[0,-2],[-1,-1],[-1,-1],[0,-1],[-1,-1],[-1,-1],[-2,-3],[-1,-2],[0,-1],[-1,-1],[-1,1],[-1,0],[-2,-2],[-1,0],[0,1],[-1,1],[0,5],[1,2],[0,2],[1,2],[0,6],[1,1],[0,4],[-1,1],[-2,1],[-1,1],[-3,0],[-2,1],[-1,0],[-1,1],[-1,0],[0,1],[-3,0],[-1,-1],[0,-5],[-1,-1],[0,-1],[-1,0],[0,10],[-1,2],[0,6],[2,1],[3,1],[2,2],[2,1],[2,3],[1,1],[0,1],[1,1],[1,1],[7,0],[2,-1],[3,0],[1,1],[1,0],[0,1],[1,1],[0,2],[1,0],[0,1],[1,0],[1,1],[1,1],[1,2],[0,1],[1,1],[1,2],[1,1],[3,0],[1,1],[1,0],[0,1],[1,1],[0,1],[-1,1],[-2,0],[-1,1],[0,3],[1,1],[1,2],[1,1],[0,1],[1,1],[0,2],[1,1],[-1,1],[0,2],[-1,2],[-1,2],[0,1],[-1,1],[0,2],[-1,2],[0,1],[-1,1],[0,1],[-1,1],[-1,1],[0,2],[2,0],[1,-1],[0,-2],[2,-2],[0,-1],[1,-1],[1,-1],[0,-1],[1,-2],[0,-1],[1,-1],[1,-2],[0,-1],[1,0],[0,-1],[1,-1],[0,-1],[1,-1],[0,-1],[5,0],[0,1],[1,-1],[2,0],[1,-1],[1,0],[0,-1],[1,-1],[0,-1],[1,-3],[0,-10],[1,-1],[2,-2],[2,-1],[10,0],[1,-1],[7,0],[0,-1]],[[8883,3267],[-1,-1],[0,-1],[-2,-2],[0,1],[-1,1],[-1,0],[0,-3],[-3,0],[1,-1],[0,-3],[2,-2],[0,-3],[-1,-1],[0,-1],[-1,0],[-1,1],[-1,1],[-1,0],[-1,-1],[-2,0],[-1,-1],[-1,0],[-1,-1],[-1,0],[-1,-1],[0,-1],[-1,-2],[0,-4],[1,0],[1,-1],[1,-1],[0,-3],[-1,-1],[0,-2],[-1,-1],[-1,-1],[-2,-1],[-2,0],[-1,-1],[-4,0],[-1,1],[-1,0],[-1,-1],[-1,-1],[-1,-2],[-1,-1],[0,-2],[-1,-2],[0,-1],[-2,0],[0,1],[-1,1],[-1,0],[-1,-1],[-2,-2],[-1,0],[0,1],[-1,1],[-3,0],[-1,-1],[-1,-1],[-7,0],[-1,1],[0,13],[1,1],[0,2],[1,2],[0,3],[1,1],[0,3],[-1,2],[-1,2],[-1,2],[-1,2],[-1,2],[0,2],[-1,2],[-1,1],[0,1],[-1,1],[-1,-1],[-2,-2],[-1,0],[-1,-1],[-1,-1],[0,-1],[-1,-1],[0,-2],[-1,-1],[0,-6],[-1,-1],[0,-1],[-2,0],[0,3],[-1,1],[-1,-1],[0,-1],[-1,-2],[0,-2],[1,-2],[0,-2],[-1,-1],[0,-1],[-1,-1],[0,-7],[2,-1],[0,-1],[1,-1],[0,-3],[-1,-2],[-1,-1],[0,-1],[-1,0],[-1,1],[0,5],[-1,1],[-1,1],[-2,0],[-1,1],[0,1],[-1,1],[-1,1],[0,1],[-4,0],[0,-1],[-5,0],[-1,1],[-1,1],[-4,0],[0,2],[-1,1],[-1,0],[0,2],[1,1],[1,1],[0,1],[1,1],[1,1],[2,0],[0,1],[1,1],[0,1],[2,2],[1,0],[1,1],[1,1],[1,2],[1,0],[1,1],[1,1],[0,5],[-1,2],[0,3],[-1,1],[0,6],[1,4],[0,4],[1,2],[0,2],[1,1],[0,1],[1,2],[1,1],[1,2],[2,1],[0,1],[1,2],[1,1],[2,2],[1,1],[0,1],[1,1],[1,0],[1,-1],[1,1],[1,1],[1,1],[0,1],[2,2],[1,1],[1,0],[1,1],[2,0],[0,1],[-1,1],[0,8],[-1,1],[-1,1],[-1,-1],[-2,-2],[-1,0],[0,1],[-1,1],[-1,1],[-1,0],[0,1],[-1,2],[0,1],[-1,2],[0,3],[1,0],[0,2],[-2,-1],[0,1],[-1,1],[-1,1],[1,3],[-2,2],[0,2],[-1,3],[-1,2],[1,1],[1,1],[0,4],[1,0],[1,1],[1,1],[0,1],[1,1],[1,0],[1,-2],[0,-3],[1,-1],[0,-2],[1,-1],[0,-1],[1,0],[1,1],[1,1],[1,1],[1,1],[0,3],[-1,2],[0,10],[1,2],[0,1],[-1,3],[0,1],[1,2],[-1,1],[0,2],[-1,2],[0,1],[-1,1],[0,1],[-2,0],[-1,-1],[-2,-1],[-3,0],[-2,2],[-2,1],[-1,1],[-1,0],[-1,1],[-1,0],[-1,1],[-13,0],[-1,-1],[-6,0],[-2,2],[-2,2],[-3,4],[-2,3],[-3,3],[-1,1],[-1,2],[-1,1],[-2,5],[-1,3],[-2,4],[-1,3],[-1,4],[0,3],[-1,8],[0,7],[-1,6],[0,9],[2,2],[1,1],[1,1],[0,2],[1,3],[0,1],[1,2],[0,10],[1,7],[0,6],[1,4],[0,10],[-1,6],[-1,5],[0,4],[-1,5],[0,4],[-1,6],[0,4],[-1,11],[-1,6],[-1,4],[-1,3],[-2,4],[0,2],[-1,1],[0,5],[-1,1],[1,1],[0,1],[2,-1],[1,-1],[1,-1],[2,0],[1,-1],[1,-1],[2,-2],[1,0],[0,-1],[4,0],[1,1],[2,0],[1,1],[1,0],[1,1],[0,-1],[1,-1],[0,-1],[1,-2],[1,1],[1,1],[-1,2],[0,2],[1,1],[0,1],[1,0],[1,-1],[1,-2],[2,-2],[1,-2],[1,-2],[2,-2],[1,-3],[2,-2],[1,-2],[1,-2],[1,-1],[1,-4],[2,-3],[1,-4],[0,-4],[1,-3],[0,-2],[1,-2],[-1,-3],[1,-3],[0,-3],[1,-2],[0,-6],[1,-3],[0,-10],[1,-2],[1,-2],[1,-3],[1,-2],[1,-3],[0,-5],[1,-3],[1,-1],[0,-8],[-1,-2],[0,-4],[1,-1],[1,0],[1,-2],[1,-1],[1,-2],[1,-3],[0,-2],[-1,-1],[0,-2],[-1,-1],[0,-3],[1,-1],[0,-15],[1,-2],[0,-10],[1,-2],[1,-3],[1,-2],[0,-1],[1,-2],[1,-2],[1,-3],[0,-3],[1,-3],[0,-2],[1,-3],[0,-10],[-1,-2],[0,-3],[1,-1],[0,-1],[2,-2],[1,0],[1,-1],[1,0],[1,1],[1,0],[1,1],[1,0],[2,2],[1,1],[0,2],[1,1],[0,2],[1,2],[0,1],[5,0],[2,-1],[2,0],[1,1],[1,0],[2,1],[1,1],[1,1],[1,0],[2,-1],[6,0],[0,2],[1,1],[0,1],[1,1],[1,1],[1,0],[1,1],[0,1],[1,0],[1,1],[2,0],[0,1],[1,0],[2,2],[3,0],[0,-3],[-1,-2],[-1,-3],[0,-3],[-1,-1],[-1,-1],[0,-3],[-1,-1],[0,-2],[-1,-1],[0,-4],[-1,-2],[0,-1],[-1,-1],[-1,0],[-1,-1],[0,-1],[-1,-1],[-1,-1],[0,-3],[-1,-1],[0,-5],[1,-1],[-1,-1],[-1,-1],[-6,0],[0,-1],[-1,0],[-1,1],[0,1],[-2,0],[0,-1],[-11,0],[-1,1],[-1,0],[-1,-1],[0,-1],[1,-1],[0,-1],[1,-1],[1,0],[1,-1],[1,-1],[1,-2],[1,-1],[1,0],[1,-1],[1,0],[1,-1],[1,-1],[0,-1],[1,-1],[1,-1],[1,-1],[0,-5],[-1,-2],[0,-2],[-1,-2],[0,-10],[-1,-1],[-1,-1],[0,-1],[-1,-1],[-1,0],[-1,-1],[-1,-1],[-3,-2],[-2,-2],[-1,-1],[-1,0],[-2,-2],[-3,0],[0,-1],[-1,0],[0,-4],[1,0],[1,-1],[1,-1],[1,-1],[1,-1],[6,0],[1,1],[2,0],[2,-2],[2,0],[1,-1],[2,0],[0,1],[1,0],[0,1],[2,1],[6,0],[2,-1],[3,0],[1,-1],[1,0],[2,1],[1,0],[1,1],[1,0],[1,1],[2,0],[2,-1],[1,0],[0,-2],[-1,-1],[-1,0],[-2,-2],[-1,-1],[-9,0],[1,-2],[1,-1],[1,-2],[1,-2],[2,0],[2,-1],[2,-1],[2,-1],[1,-2],[3,-2],[2,-2],[1,-1],[1,-1],[0,-6],[1,-1]],[[9464,3932],[-5,1],[-6,0],[-2,1],[0,-2],[-1,-5],[-3,0],[-3,3],[0,2],[-1,8],[0,5],[-6,-5],[0,3],[-1,1],[-1,0],[0,-12],[-8,-3],[-6,-12],[-10,-12],[0,-1],[-1,-1],[-1,-2],[1,-3],[-2,1],[0,-1],[-2,0],[-2,2],[-9,-3],[-8,-5],[-2,-1],[1,-6],[1,-8],[1,-10],[-2,-20],[-2,-3],[1,-2],[1,-5],[-4,-5],[-3,-1],[-5,-6],[-1,0],[-2,-6],[-1,-5],[-3,-1],[-1,-5],[0,-1],[-4,0],[-2,-2],[0,-2],[2,-4],[0,-3],[-1,-2],[-4,-3],[-3,-3],[0,-1],[-1,-1],[-3,-3],[-4,-7],[-3,-3],[-2,-3],[-2,-2],[-1,-1],[-3,-4],[-1,-2],[1,-1],[-2,-2],[0,-1],[-1,-1],[-3,-2],[-2,-3],[-1,-1],[-3,-3],[-2,-2],[-6,-10],[2,-7],[5,-6],[7,-9],[8,-3],[6,-6],[2,0],[2,-1],[3,0],[3,-1],[6,-2],[1,-2],[2,-1],[2,-1],[1,-3],[0,-7],[-1,-2],[-2,-1],[-1,-1],[-1,1],[-1,-1],[-2,0],[-2,-1],[-2,-2],[-5,-5],[0,-1],[1,-1],[0,-2],[-1,0],[-2,2],[-1,2],[-1,0],[0,1],[-3,4],[-2,3],[-1,0],[-1,1],[-2,-2],[-2,-2],[-3,-4],[-2,-1],[-2,-6],[-1,-3],[-1,-1],[-2,-2],[0,-2],[-12,0],[-4,-1],[-1,0],[-4,-4],[-1,-2],[-1,-1],[6,-2],[1,1],[3,-1],[0,-2],[1,-1],[0,1],[2,-1],[3,-1],[-1,-1],[0,-3],[-1,-1],[-4,0],[-1,-1],[-3,-1],[-1,-1],[-1,0],[-2,-1],[-1,0],[-1,1],[0,1],[-1,1],[-1,0],[0,1],[-1,-1],[0,1],[-2,2],[-2,0],[0,10],[-1,1],[0,1],[-1,1],[-1,0],[0,1],[-1,1],[-3,0],[0,2],[-2,1],[-4,0],[-1,-1],[-1,1],[-1,0],[0,1],[-2,0],[-1,2],[-1,0],[0,-1],[-1,1],[-3,0],[0,2],[-1,1],[-2,0],[-1,-1],[-1,1],[-2,0],[0,-1],[-1,0],[-1,-1],[0,-2],[-1,0],[-2,-2],[-5,0],[0,-1],[-2,-1],[0,-1],[-1,0],[-1,-1],[-1,0],[-1,-1],[-2,0],[-1,1],[-1,0],[0,-2],[-1,0],[0,-5],[-4,-3],[0,-3],[-2,-2],[1,-16],[1,-11],[-4,-3],[-6,-4],[0,1],[-2,-1],[0,-1],[-3,-2],[-11,-8],[-1,-1],[-2,-3],[-6,-12],[-1,-3],[-1,-2],[-1,-2],[-2,-1],[-1,-2],[-2,-1],[-1,-1],[0,-1],[-1,-2],[-1,-2],[0,-1],[-1,-1],[-1,0],[-1,-1],[-1,0],[0,-1],[-1,-1],[2,-2],[0,-2],[-2,-1],[0,-1],[-1,-1],[-3,-3],[-1,0],[-1,-1],[0,-5],[-1,-5],[0,-3],[-1,-2],[0,-1],[-1,0],[-1,-1],[0,2],[-1,2],[0,3],[-1,2],[0,4],[-1,1],[0,2],[1,1],[0,6],[-1,4],[-1,2],[0,1],[-1,2],[-1,2],[-1,1],[-1,2],[-1,1],[-1,-3],[-2,0],[-1,1],[0,-1],[-1,1],[-1,0],[-1,1],[-1,1],[0,2],[-1,1],[-1,1],[-1,1],[0,1],[-1,1],[-1,1],[-2,0],[-1,2],[0,1],[-1,-1],[0,1],[-1,0],[1,1],[0,5],[-3,1],[0,2],[2,0],[1,-1],[0,-1],[1,1],[1,0],[0,-1],[1,1],[0,-1],[1,0],[1,-1],[2,0],[3,-2],[0,1],[-2,2],[0,2],[-1,0],[0,1],[1,0],[-1,1],[0,4],[-1,1],[0,3],[2,1],[1,0],[0,1],[1,0],[1,-2],[0,-2],[1,-1],[2,-2],[0,3],[-1,1],[0,2],[-1,1],[1,1],[-1,2],[-1,1],[0,2],[-1,1],[0,4],[-1,1],[0,5],[-1,1],[0,2],[-1,0],[0,4],[1,1],[0,2],[1,1],[0,1],[1,1],[0,1],[1,3],[0,2],[-1,2],[0,4],[-1,2],[-2,5],[0,3],[-2,0],[0,1],[-2,2],[-1,1],[-1,0],[-1,1],[-1,3],[-1,2],[0,1],[1,1],[0,11],[-1,0],[-3,-2],[-1,1],[-2,2],[-9,0],[-2,-1],[-3,0],[0,-2],[-1,-1],[-1,-1],[-3,-2],[-3,0],[0,1],[-1,2],[-4,0],[-1,-1],[-1,-1],[0,-10],[1,0],[-1,-2],[-1,0],[0,-1],[1,0],[0,-6],[1,-1],[1,0],[0,-1],[-1,-1],[0,-4],[-1,-7],[1,-2],[1,-5],[1,-2],[0,-7],[1,-3],[-1,-1],[1,-1],[0,-1],[2,-2],[0,-7],[-2,0],[-1,1],[0,5],[-1,1],[0,1],[-1,1],[-1,1],[-1,0],[-1,1],[-1,0],[0,-1],[-1,-1],[0,-1],[2,-1],[0,-2],[1,0],[0,-1],[1,0],[1,-1],[0,-1],[-1,-5],[0,-2],[-1,-1],[-1,0],[-1,1],[-2,0],[-2,2],[-1,0],[-1,1],[-3,0],[-1,1],[-1,0],[0,1],[-1,0],[0,7],[-5,0],[0,1],[-3,0],[0,-5],[-1,0],[0,3],[-2,0],[0,-2],[-1,0],[0,1],[-1,-2],[-1,0],[-4,2],[-2,0],[-3,2],[-2,1],[-3,2],[-3,3],[-2,1],[-2,1],[-2,1],[-1,0],[-2,1],[-1,0],[-3,1],[0,1],[-1,1],[0,1],[-1,0],[-1,1],[0,1],[1,2],[0,1],[1,2],[0,2],[1,2],[-4,6],[1,5],[0,4],[-1,1],[0,6],[1,0],[-1,1],[0,1],[1,5],[0,3],[-1,0],[0,3],[-1,2],[-1,1],[-1,0],[0,3],[-1,2],[-1,2],[-2,0],[-1,-1],[-1,-1],[-1,0],[-2,-1],[-3,3],[-3,-2],[-2,0],[-3,2],[-7,0],[-3,2],[-3,1],[-4,2],[-2,0],[-7,4],[-1,1],[-1,2],[-4,4],[-2,1],[-7,12],[-1,1],[-1,0],[0,2],[-1,3],[0,1],[-1,0],[-2,2],[-1,0],[-5,-3],[-1,1],[-2,1],[-1,-1],[-1,-1],[-3,0],[0,4],[1,0],[2,2],[2,1],[0,1],[1,1],[-1,2],[0,1],[-2,-1],[-1,3],[-1,1],[-1,0],[-2,-2],[-1,0],[-2,-1],[-1,2],[0,1],[-2,0],[0,2],[-2,-1],[0,-1],[-2,-1],[0,-4],[-2,0],[-1,-1],[-2,-1],[-1,0],[-1,1],[1,4],[-1,0],[-1,1],[-5,0],[-1,-1],[0,-2],[-3,-5],[0,-1],[-1,0],[-1,-1],[-1,0],[0,-1],[-1,-2],[-1,0],[0,2],[-3,4],[-2,2],[-1,1],[-1,2],[0,2],[-1,2],[0,2],[-1,5],[1,2],[2,2],[1,2],[-1,1],[-1,1],[-2,3],[-2,2],[0,1],[-2,2],[-1,2],[-1,1],[-2,1],[-2,1],[-2,0],[0,-2],[-1,-2],[-1,-1],[0,-1],[-1,0],[0,-1],[-1,-1],[0,-1],[-1,0],[0,-1],[-1,-1],[-1,-1],[-1,-1],[-1,0],[0,-1],[-1,-1],[-1,1],[0,-2],[-1,-2],[0,-1],[-1,-1],[-1,-1],[0,-3],[-1,0],[0,2],[-1,-1],[-1,0],[0,-1],[-2,-1],[0,1],[1,1],[1,1],[0,1],[1,0],[1,1],[1,0],[0,1],[2,3],[0,4],[-1,0],[-2,2],[-1,1],[-2,2],[-4,3],[-2,1],[-3,1],[-1,1],[-3,0],[-2,1],[-2,0],[-1,1],[-2,0],[-2,1],[-3,-1],[-12,-4],[-6,-2],[-5,-2],[-2,-1],[-3,0],[-3,-1],[-9,3],[0,-1],[-1,-1],[-1,0],[-1,-1],[0,-1],[-1,-1],[0,-1],[-8,-17],[-2,-1],[-1,-2],[-1,-2],[-1,-2],[-1,-3],[-1,-2],[-1,-2],[-2,-2],[-1,-1],[-1,0],[-1,-2],[-2,-3],[-1,-2],[-2,-3],[-1,-3],[-1,-2],[-2,-3],[-2,0],[-1,-1],[-6,-1],[-1,0],[-1,-1],[-1,-2],[-1,0],[-2,-1],[-3,-1],[-2,-2],[-1,-2],[-1,-1],[-2,0],[-3,2],[-3,3],[6,6],[-7,9],[-20,-12],[-7,3],[-5,0],[-3,-4],[1,-21],[9,-13],[0,-6],[-1,-2],[3,-8],[0,-5],[2,-8],[0,-8],[-7,-5],[-13,-1],[-32,0],[-11,1],[-6,0],[-9,-5],[-6,-6],[-2,-2],[-10,-3],[-10,-4],[-5,-1],[-2,-2],[-8,-6],[-5,-6],[-4,-4],[-4,-1],[-5,0],[-10,2],[-5,1],[-3,0],[-6,-2],[-7,-4],[-7,-2],[-10,-3],[-9,-3],[-9,-1],[-3,4],[-6,17],[-3,7],[-3,5],[-6,9],[-6,13],[-3,13],[-3,6],[-1,3],[0,22],[1,15],[0,12],[-3,11],[-2,11],[0,3],[-2,2],[-1,4],[-1,3],[0,5],[1,1],[3,11],[4,8],[2,3],[1,3],[-4,5],[-6,4],[0,8],[-1,2],[-3,1],[-16,-3],[-11,-1],[-10,-1],[-4,0],[-6,3],[-6,5],[-3,3],[-3,2],[1,1],[1,2],[-3,4],[-4,1],[-5,0],[-2,1],[-3,8],[-3,3],[-3,0],[-8,2],[-10,4],[-4,3],[-6,8],[-3,5],[-3,8],[-2,2],[-1,1],[-2,3],[0,3],[-1,17],[-2,4],[-5,6],[-5,13],[2,17],[1,4],[8,3],[3,1],[1,2],[18,11],[6,7],[2,0],[9,6],[10,3],[15,12],[6,5],[10,0],[6,8],[2,16],[5,8],[2,15],[0,3],[2,8],[5,4],[6,1],[2,0],[10,-1],[6,7],[9,1],[5,3],[12,20],[2,6],[2,5],[2,9],[1,3],[1,4],[1,2],[1,3],[2,5],[3,7],[2,5],[3,5],[2,0],[5,-1],[3,2],[4,7],[3,7],[2,5],[4,5],[3,3],[4,1],[2,4],[2,4],[2,3],[2,2],[4,0],[3,-3],[2,-3],[1,-3],[2,-1],[3,1],[1,2],[2,4],[-1,5],[-1,5],[-2,6],[-1,8],[0,4],[1,2],[1,1],[1,1],[2,-1],[1,-1],[4,-3],[2,-1],[2,-1],[2,0],[2,1],[2,3],[2,3],[1,5],[0,9],[2,4],[0,2],[1,3],[0,5],[1,3],[1,3],[1,1],[1,1],[3,1],[1,0],[2,1],[4,0],[-1,6]],[[5400,2751],[-2,-5],[-3,-4],[-7,-4],[-10,-4],[-23,-4],[-10,-4],[-7,-3],[-10,-8],[-7,-6],[-9,-9]],[[3628,5058],[-66,164],[-94,204],[-87,240],[1,13],[3,5],[129,104],[22,18],[12,16],[5,13],[0,6],[-1,7],[-3,8],[-9,16],[-24,84],[-21,113],[3,167],[29,268],[119,335],[19,53],[103,288],[15,44],[-132,53],[-42,16],[-21,10],[-85,218]],[[3503,7521],[139,16],[646,157],[296,-61],[395,-34],[62,52],[48,41],[122,103],[41,-24],[107,-262],[181,-193],[21,-21],[16,-30],[107,-345],[59,-168],[148,95],[-1,-442],[-15,-271],[-40,27],[-2,-504],[312,-71],[23,-224],[20,-232],[23,-177],[35,-241],[29,-1]],[[6275,4711],[-2,-29],[-40,-2],[-10,-1],[-12,1],[-22,-2],[12,-190],[1,-11],[1,-6],[2,-6],[3,-10],[4,-9],[12,-11],[18,-5],[36,-16],[3,-4],[2,-5],[1,-5],[0,-3],[2,-8],[1,-8],[17,-115],[-3,-12],[-1,-3],[-4,-11],[-7,-17],[-28,-76],[-56,-168],[-7,-22],[-2,-14]],[[6672,2759],[-9,6],[-3,1],[-1,2],[-1,0],[-1,1],[0,-1],[-1,0],[-1,2],[-2,1],[-1,1],[1,4],[-1,2],[-1,5],[-2,1],[1,1],[0,1],[-2,2],[0,3],[1,3],[0,1],[1,2],[1,1],[1,2],[5,0],[2,2],[5,2],[10,1],[7,-3],[2,-2],[7,-2],[1,1],[0,1],[1,2],[0,2],[1,0],[-1,1],[0,5],[-1,1],[-1,1],[-2,0],[-2,-1],[-1,1],[0,1],[-1,2],[-1,1],[0,1],[-1,0],[-1,2],[-1,-1],[-2,0],[-1,1],[0,1],[-1,0],[1,2],[0,6],[2,8],[1,5],[1,3],[1,3],[1,1],[1,0],[-4,4],[1,2],[1,0],[4,-3],[2,-1],[4,3],[5,0],[3,-1],[5,6],[3,2],[4,-4],[2,-1],[3,1],[4,0],[2,5],[2,0],[2,1],[2,5],[7,1],[2,-2],[5,0],[4,7],[6,0],[4,7],[6,-4],[4,1],[9,0],[2,3],[6,1],[1,1],[0,3],[-1,7],[0,3],[4,8],[7,6],[0,6],[3,7],[4,1],[3,6],[6,-3],[3,-1],[2,1],[4,7],[5,7],[3,8],[2,2],[2,0],[2,-2],[13,-8],[5,-6],[5,-4],[4,-3],[3,1],[4,2],[6,5],[2,5],[4,7],[8,-4],[2,-4],[4,-7],[7,-6],[4,-10],[10,-5],[5,-3],[8,4],[8,-11],[2,-2],[4,-7],[8,-2],[15,-12],[6,6],[16,1],[13,-17],[13,-7],[9,-9],[8,-4],[9,-3],[9,5],[3,-3],[15,-11],[2,-4],[11,0],[6,5],[9,-2],[8,5],[8,-8],[5,-7],[10,-3],[13,6],[3,-1],[6,8],[5,-4],[7,-1],[4,2],[4,-1],[8,-12],[6,6],[5,-5],[5,-2],[4,-4],[3,-1],[1,-2],[5,-4],[3,-6],[5,-3],[4,-2],[5,10],[6,4],[2,4],[10,-5],[4,2],[4,-3],[1,-2],[4,1],[8,1],[2,-4],[2,0],[3,-3],[2,1],[3,4],[9,-2],[1,3],[4,1],[1,3],[4,-2],[3,-1],[2,-5],[2,-1],[2,-5],[7,2],[0,2],[6,2],[7,4],[1,7],[-4,6],[2,12],[-5,13],[1,16],[4,5],[1,6],[2,7],[8,-1],[4,6],[3,13],[2,13],[11,0],[4,6],[4,9],[3,-1],[1,12],[0,11],[1,13],[5,17],[-6,6],[-7,6],[-1,25],[0,4],[-5,3],[-5,7],[3,6],[5,7],[2,3],[5,2],[7,17],[2,5],[3,5],[0,79],[-1,6],[-2,6],[2,16],[2,3],[2,-2],[3,-4],[5,-4],[8,-2],[1,-3],[0,-7],[7,-2],[12,15],[2,4],[6,3],[4,5],[3,-1],[4,0],[5,-5],[2,-11],[2,-13],[0,-2],[7,-7],[0,-1],[6,2],[3,5],[0,1],[1,2],[1,4],[0,7],[1,14],[4,8],[12,4],[4,5],[6,6],[8,19],[1,28],[-2,8],[-2,21],[-4,11],[-3,3],[-4,23],[-2,1],[-1,7],[6,5],[-1,8],[2,1],[3,-18],[5,-19],[5,-16],[1,-15],[1,-14],[1,-36],[-1,-21],[13,-7],[3,1],[8,4],[2,0],[5,9],[4,6],[1,1],[2,12],[3,14],[3,10],[6,5],[0,7],[-2,6],[-9,8],[-3,24],[-12,42],[-9,16],[-11,38],[-5,16],[5,3],[3,2],[1,2],[2,1],[7,1],[6,-1],[3,-8],[2,2],[3,20],[0,1],[1,0],[1,1],[1,0],[2,-2],[1,-1],[1,-2],[1,-3],[6,1],[2,-1],[9,0],[1,1],[3,1],[7,2],[3,1],[-7,21],[2,6],[6,5],[6,1],[9,-4],[7,11],[10,22],[0,34],[-2,7],[-4,1],[-6,-1],[-5,-3],[-4,-6],[-4,-3],[-14,2],[-10,2],[-9,-3],[-7,-4],[-10,-3],[-3,-2],[-6,-3],[-4,-4],[-5,-3],[-4,-3],[-4,-1],[-3,-3],[-5,-2],[-2,0],[-1,-1],[-2,-1],[-11,-1],[-5,-3],[-12,-9],[-3,-4],[-2,-5],[-4,-2],[-4,1],[-5,3],[-9,-2],[-8,0],[-12,-6],[-4,1],[-7,-4],[-16,-12],[-10,-5],[-3,-1],[-14,11],[-13,12],[-17,13],[-8,7],[-7,6],[-1,1],[2,30],[12,8],[8,2],[8,2],[5,2],[5,2],[5,4],[4,3],[4,2],[4,2],[3,2],[4,2]],[[7146,4158],[-5,4],[-13,10],[-2,3],[-27,35],[-16,23],[-37,60],[-2,1],[-1,1],[-15,6],[-13,6],[-5,5],[-22,31],[-1,1],[0,4],[1,4],[1,2],[0,1],[-1,3],[-1,1],[-1,0],[0,3],[-2,4],[-1,1],[1,1],[0,2],[-1,2],[0,1],[1,0],[0,1],[1,3],[-1,2],[1,0],[1,-1],[0,1],[1,0],[0,-1],[1,1],[2,0],[0,-1],[4,0],[2,-3],[0,1],[1,1],[1,1],[1,0],[0,-1],[1,0],[1,1],[1,0],[0,-1],[2,1],[1,11],[0,19],[3,5],[-1,3],[0,1],[9,9],[1,2],[2,0],[1,3],[4,5],[5,0],[1,1],[2,3],[11,5],[1,9],[4,-2],[5,3],[4,13],[-3,7],[0,-1],[-4,0],[-12,5],[0,3],[2,3],[3,3],[2,-4],[4,4],[-3,8],[-1,0],[0,1],[1,0],[3,2],[1,1],[0,3],[2,5],[-5,21],[-1,8],[3,8],[-8,8],[-7,-3],[-1,4],[-4,12],[5,3],[10,0],[4,5],[4,6],[4,1],[8,3],[1,2],[2,-1],[8,-3],[0,15],[-1,0],[-1,1],[-3,1],[-2,9],[-1,4],[0,6],[-1,5],[-4,0],[-2,1],[-2,3],[-3,3],[-2,3],[-2,6],[-3,2],[-6,-2],[-2,-3],[-2,-7],[-2,-8],[0,-1],[-1,-3],[0,-5],[-2,-6],[0,-6],[-2,-6],[0,-1],[-2,0],[-4,4],[-3,-1],[-2,-3],[-1,0],[-1,-3],[-2,-1],[-1,0],[-1,-2],[2,-6],[-1,-9],[0,-7],[-2,0],[0,3],[-22,6],[0,4],[1,1],[1,1],[0,25],[-1,4],[0,6],[-1,5],[1,1],[0,3],[1,1],[0,5],[-1,3],[0,2],[2,5],[0,5],[-1,13],[-1,6],[-2,7],[-1,6],[-1,10],[-2,9],[-1,7],[-1,3],[-1,4],[0,1],[-1,5],[-1,6],[-11,0],[-2,2],[0,-2],[-8,0],[-4,1],[-2,0],[-5,1],[-3,1],[-8,0],[-8,-11],[-8,-10],[-32,26],[-45,31],[-20,-8],[-7,-4],[-66,-5],[-122,-49],[-29,8],[-174,4],[-10,4],[-142,0]],[[7374,3557],[1,17],[6,57],[4,42],[-4,14],[-58,-20],[-13,-5],[-19,-8],[-11,-5],[-11,-6],[-7,-4],[-20,-7],[-15,-6],[-16,-3],[-57,-4],[-83,6],[-4,1],[-3,5],[-5,14],[-5,18],[-1,19],[1,23],[1,7],[3,13],[3,12],[9,31],[22,75],[22,73],[3,13],[10,39],[2,16],[-2,4],[-8,2],[-9,-15],[-3,-3],[-11,-7],[-2,6],[5,88],[1,8],[7,4],[19,7],[20,80]],[[3155,4862],[-2,5],[-2,7],[-2,8],[0,10],[1,9],[1,5],[3,8],[4,7],[4,6],[24,24],[14,10],[5,3],[6,3],[10,1],[10,0],[16,-3],[16,-7],[10,-2],[17,-1],[51,1],[10,-1],[10,-3],[12,-8],[7,-5],[23,-25],[10,-14],[5,-8],[9,-21],[14,-28],[10,-21],[20,-35],[11,-26],[20,-35],[12,-25],[34,-56],[4,-7],[7,-18],[9,-16],[19,-31],[12,-17],[6,-6],[6,-3],[7,-1],[26,-4]],[[3151,4794],[4,5],[-1,4],[0,12],[-1,26],[0,14],[2,7]],[[2419,5581],[13,20],[12,13],[15,12],[14,5],[5,5],[3,8],[1,7],[0,7],[-4,22],[0,13],[2,8],[2,4],[5,5],[4,1],[3,-1],[7,-8],[4,-2],[4,-1],[5,2],[13,13],[7,8],[3,5],[8,17],[5,6],[7,5],[10,2],[5,-1],[6,-3],[16,-15],[6,-4],[7,-2],[25,-5],[21,-10],[0,-7],[-1,-11],[0,-19],[5,-33],[3,-44],[3,-16],[4,-14],[8,-25],[5,-13],[2,-11],[5,-2],[4,-3],[4,-5],[2,-8],[2,-24],[2,-8],[2,-3],[2,-3],[5,-4],[4,-48],[0,-16],[10,-21],[3,-23],[10,-14],[3,-5],[0,-10],[4,-5],[10,-10],[9,-4],[3,-4],[8,2],[3,-4],[7,-1],[0,-9],[11,-9],[4,-25],[9,-1],[5,-2],[3,-4],[4,-1],[4,-4],[1,-6],[12,-9],[20,-39],[3,-7],[4,-6],[2,-2],[5,-2],[17,-4],[6,-3],[5,-4],[5,-6],[6,-9],[8,-14],[3,-4],[9,-5],[20,-6],[5,-3],[8,-6],[6,-42],[-1,-10],[-3,-20],[13,-9],[14,-10],[13,-8],[7,-7],[16,-20],[14,-11],[5,-3],[14,-6],[17,-10],[5,-3],[2,-3],[3,-6],[2,-6],[2,-7],[1,-9],[0,-27],[-3,-35],[0,-8],[2,-9],[3,-7],[5,-8],[4,-3],[9,-6],[3,-3],[3,-5],[6,-12],[21,-4],[5,0]],[[3503,7521],[-44,79],[-293,508],[-101,162],[-67,107],[-18,160],[-25,15],[-43,47],[-94,117],[-151,186],[-338,399],[-288,176],[-234,204],[-297,318],[-343,-155],[-182,-82],[-148,-67],[-252,-115],[-150,-72],[-53,-24],[-382,-186],[0,-1482],[2,-2887],[26,-9],[45,-4],[4,0],[2,-1],[12,0],[29,-1],[39,-6],[26,-3],[24,0],[42,-5],[2,0],[18,-4],[26,-4],[27,-5],[3,0],[24,-1],[4,-1],[20,0],[17,-2],[68,-6],[15,-3],[38,-8],[7,-1],[17,-3],[16,-1],[10,-2],[22,-8],[17,0],[7,5],[6,11],[4,13],[1,18],[0,11],[2,9],[3,8],[11,15],[25,14],[1,1],[6,5],[5,8],[4,14],[-1,10],[-5,7],[-15,-6],[-3,-1],[-7,-4],[-11,0],[-3,4],[-8,21],[-13,26],[-5,14],[-3,19],[-6,61],[0,45],[3,24],[-1,15],[-3,22],[-7,20],[-4,3],[0,5],[-2,3],[-3,7],[-5,19],[-5,24],[-2,22],[1,25],[1,27],[-3,38],[-1,14],[0,20],[-1,33],[2,15],[0,1],[4,19],[4,39],[2,11],[8,23],[1,3],[3,4],[6,8],[2,3],[9,9],[28,12],[14,8],[3,2],[9,8],[14,21],[8,16],[2,10],[2,5],[3,21],[3,14],[1,1],[2,13],[9,31],[1,2],[2,9],[2,5],[14,31],[16,21],[2,1],[1,1],[4,6],[2,0],[0,2],[1,2],[18,19],[31,24],[25,14],[6,0],[20,3],[8,1],[11,0],[4,1],[16,0],[29,-3],[24,-8],[15,-14],[5,-4],[8,-1],[9,4],[9,8],[1,1],[12,9],[10,5],[15,8],[8,3],[13,-3],[26,-6],[5,-1],[5,3],[3,8],[-5,17],[-1,4],[-7,16],[-1,7],[4,23],[3,10],[2,2],[4,0],[19,-13],[2,0],[11,-1],[6,3],[4,7],[2,12],[3,31],[-1,12],[-1,17],[1,7],[2,15],[0,26],[4,20],[1,11],[-4,20],[-6,14],[-11,16],[-4,15],[3,29],[3,7],[9,4],[5,-2],[10,-16],[0,-1],[4,-2],[3,15],[1,3],[4,32],[4,5],[6,0],[3,3],[3,2],[7,8],[2,1],[4,2],[12,2],[0,1],[4,0],[8,-4],[11,-14],[3,-23],[4,-7],[8,-7],[3,-5],[3,-14],[2,-2],[5,2],[11,8],[28,22],[10,0],[15,-4],[44,-19],[2,0],[10,-9],[2,-3],[4,-4],[11,-19],[5,-10],[4,-16],[4,-17],[3,-14],[3,-23],[2,-20],[-2,-39],[3,-13],[5,2],[8,2],[10,3],[7,-1],[2,0],[18,-8],[5,0],[5,5],[2,5],[4,15],[-1,13],[-9,11],[-4,5],[-8,6],[-18,18],[-13,13],[-7,-2],[0,1],[-5,7],[0,23],[-1,9],[-1,9],[-8,13],[-16,39],[-10,38],[-8,21],[-4,18],[-1,6],[-11,35],[-5,10],[-3,2],[-14,3],[-13,7],[-11,8],[-19,17],[-4,5],[-3,5],[-7,6],[-9,10],[-4,14],[2,13],[5,7],[8,1],[13,18],[16,19],[14,11],[17,11],[12,0],[15,-5],[16,-4],[5,-2],[19,-8],[15,-10],[16,-5],[0,-1],[8,-6],[8,-5],[14,1],[22,8],[11,2],[12,-7],[3,0],[6,5],[4,10],[5,41],[-3,8],[-8,9],[-1,2],[0,3],[2,4],[1,4],[4,4],[8,0],[6,-6],[6,0],[4,4],[2,10],[0,5],[-4,7],[-6,6],[-2,4],[-1,10],[4,23],[0,11],[1,7],[2,-4],[4,-5],[15,-22],[5,-9],[2,-6],[11,-29],[5,-9],[13,-20],[22,-37],[17,-29],[4,-5],[5,-11],[33,-53],[6,-10],[14,-24],[7,-11],[15,-18],[8,-6],[10,-3],[1,0],[9,-5],[2,-2],[7,-2],[2,-4],[18,-13],[9,-4],[16,-1],[10,-3],[7,1],[7,4],[12,15],[10,5],[4,1],[5,-1],[5,-5],[3,-2],[4,-4],[2,-2],[6,-9],[6,-13],[5,-10],[9,-17],[4,-7],[7,-13],[5,-9],[2,-25],[0,-8],[-6,-11],[8,-21],[1,-10],[14,-19],[1,-2],[0,-5],[3,-7],[4,-3],[5,-2],[4,-2],[5,-2],[16,-12],[11,-10],[8,-4],[13,-7],[0,-17],[1,-3],[0,-3],[6,-7],[2,-9],[2,-2],[6,-1],[9,0],[3,3],[1,0],[6,-3],[4,-1],[1,1],[17,0],[3,3],[5,-2],[3,1],[3,4],[4,-1],[4,-3],[6,-16],[8,0],[1,1],[2,0],[2,-1],[12,3],[19,0],[10,2],[10,5],[24,-1],[7,-4],[3,2],[3,-2],[5,-3],[4,-3],[22,-11],[7,0],[4,7],[6,28],[4,10],[6,-8],[7,-8],[11,-6],[14,-6],[0,-2],[7,-6],[9,-1],[4,-9],[8,-6],[0,-5],[-1,-10],[1,-3],[8,-19],[10,2],[8,-9],[0,-9],[4,-9],[1,0],[2,6],[0,2],[3,-1],[6,-4],[1,-1],[-1,-3],[-1,-17],[5,-4],[1,-5],[-1,-3],[1,-8],[-4,-16],[-28,16],[3,-25],[-4,-8],[-5,-6],[5,-8],[4,-7],[4,-1],[14,-12],[4,-1],[8,-1],[6,-18],[3,-2],[2,-4],[1,0],[3,-3],[1,-2],[0,-2],[1,-1],[1,-2],[1,-3],[-2,-3],[-2,-4],[0,-3],[-1,-1],[0,-4],[-1,-3],[1,-2],[1,-4],[0,-11],[-1,-9],[-2,-5],[0,-2],[-2,-11],[1,-2],[1,-9],[0,-9],[-1,-5],[-2,-2],[-4,-12],[-6,-2],[-24,-2],[-2,-1],[-9,-1],[-7,-8],[-3,-7],[3,-15],[5,-8],[6,-28],[7,-1],[6,11],[11,4],[11,-7],[-1,-9],[10,-30],[11,-10],[24,-12],[6,-4],[7,-8],[6,-11],[5,-7]],[[3617,3970],[-2,4],[-4,12],[-10,12],[-13,15],[-3,3],[-5,10],[-1,1],[-3,11],[-2,5],[-7,20],[-2,7],[-2,12],[0,5],[-1,16],[-3,13],[-1,3],[-4,17],[-6,18],[-2,5],[-6,15],[-3,2],[-1,2],[-5,8],[-4,15],[0,8],[-2,47],[-5,14],[-4,20],[-8,20],[-5,8],[-4,8],[-4,11],[-3,13],[2,11],[3,7],[-4,23],[8,25],[-2,9],[-1,19],[0,8],[-1,10],[-1,18],[1,15],[1,8],[1,9],[-3,8],[-7,4],[-2,14],[1,13],[-4,15],[-4,10],[-5,8],[-1,0],[-4,3],[-13,14],[-14,6],[-2,6],[0,3],[2,10],[-1,9],[0,1],[-6,24],[-2,11],[-2,3],[-4,8],[-12,6],[-2,3],[-22,35],[-14,7],[-5,4],[-14,15],[-6,10],[-6,12],[-1,2],[-13,23],[-6,6],[-16,2],[-8,5],[-6,7],[-6,7],[-3,18],[-3,9],[-2,5],[-4,7],[-7,6],[-6,0],[-5,-4],[-11,-7],[-22,3],[-10,4],[-13,12],[-7,5],[-22,6],[-7,-1],[-6,-6],[-6,-14],[-2,-7]],[[3151,4794],[-1,-8],[0,-2],[1,-1],[-1,-1],[-1,0],[1,-1],[-1,-1],[0,-1],[1,-1],[-1,-1],[0,-1],[-3,-2],[-2,-2],[-4,-7],[-8,-12],[-5,-8],[-17,-26],[-1,1],[-8,-1],[-13,0],[-3,-1],[-14,-1],[-6,0],[-7,-1],[-21,18],[-11,8],[-4,4],[-5,3],[-8,7],[-9,7],[-7,7],[-10,15],[-6,9],[0,1],[-7,22],[-2,-5],[-1,-11],[-1,-2],[-2,2],[-2,12],[-5,16],[-1,4],[0,4],[-1,1],[0,8],[-1,1],[-1,0],[0,-1],[-3,0],[0,4],[-1,0],[0,-3],[-1,-11],[-5,11],[1,11],[-2,1],[-3,-5],[-1,1],[-1,7],[0,2],[-1,-5],[-1,-3],[-1,0],[0,-4],[1,0],[0,-44],[-3,0],[-13,13],[-1,12],[-1,-1],[-19,4],[-13,2],[-17,3],[-19,3],[-39,7],[-28,0],[-49,-2],[-41,-27],[-20,-13],[-6,0],[-9,-2],[-12,-3],[-8,-2],[-4,-1],[-12,1],[-9,5],[-10,8],[-17,15],[-3,3],[-11,11],[-22,30],[-8,11],[-7,10],[-18,19],[-6,7],[-7,7],[-4,3],[-4,5],[-19,4],[-8,4],[-14,15],[-21,23],[-10,13],[-13,18],[-12,13],[-10,9],[-9,25],[-1,9],[1,8],[-2,10],[10,51],[8,44],[0,6],[11,14],[3,-5],[7,7],[0,8],[3,2],[-2,4],[9,14],[4,0],[5,-4],[2,2],[-2,8],[0,4],[3,1],[1,3],[-2,4],[-2,10],[1,3],[2,2],[-3,11],[-1,12],[-6,18],[0,2],[-2,4],[-7,14],[-15,24],[-3,4],[-14,31],[-9,24],[-1,9],[-1,4],[-1,9],[-2,7],[3,16],[2,10],[2,14],[7,27],[3,3],[4,0],[12,-13],[1,7],[0,1],[1,0],[10,-4],[5,-4],[3,-3],[8,-4],[9,-4],[0,1],[6,-6],[8,-4],[16,-21],[4,-1],[11,2],[10,-12],[10,-5],[5,0],[2,1],[1,1],[0,-1],[2,0],[2,-3],[4,12],[0,9],[-6,13],[-15,17],[-6,13],[-6,9],[-2,4],[-16,11],[-21,7],[-7,5],[-10,12],[-5,6],[-5,10],[-4,14],[-2,3]],[[6226,938],[-8,14],[-8,15],[-3,6],[-5,11],[-6,11],[-11,11],[-4,4],[-1,0],[-3,1],[-4,3],[-9,7],[-8,2],[-32,5],[-9,-4],[-24,-13],[-8,-1],[-6,2],[-9,5],[-12,16],[-4,5],[-10,10],[-6,7],[-5,4],[-7,5],[-7,8],[-7,11],[-8,16],[-8,15],[-9,25],[-8,22],[-5,6],[-10,1],[-14,1],[-30,13],[-15,8],[-8,8],[-3,11],[-3,9],[-2,1],[-4,1],[-5,4],[-4,2],[-5,2],[-6,1],[-3,3],[-6,13],[-6,3],[-13,0],[-4,-1],[-11,5],[-11,13],[-6,9],[-6,12],[-12,18],[-12,5],[-13,0],[-12,-5],[-4,-14],[-2,-11],[-1,-2],[-1,0],[0,-2],[-1,1],[-3,0],[0,2],[1,0],[0,1],[-1,2],[-2,1],[0,-1],[-3,1],[-22,4],[-44,10],[-21,4],[-20,5],[-33,11],[-11,5],[-1,1],[-5,-1],[-8,1],[-1,2],[0,3],[-1,1],[1,3],[2,4],[-19,21],[-11,11],[-3,4],[-3,3],[-3,3],[-3,4],[-7,7],[-3,4],[-10,12],[-12,13],[-23,26],[-33,34],[-23,28],[-63,70],[-9,21],[-20,29],[-19,28],[-30,45],[-8,8],[-15,10],[-4,3],[-15,12],[-15,8],[-2,2],[-11,7],[-16,10],[-23,16],[-14,12],[-4,4],[-13,15],[-5,6],[-8,13],[-22,22],[-37,34],[-13,16],[-41,40],[-35,38],[-31,46],[-19,29],[-14,21],[-5,7],[-15,26]],[[6614,2530],[0,-6],[1,-5],[11,-14],[-15,-57],[14,-11],[26,-2],[1,-6],[23,-11],[12,-10],[22,-7],[2,-17],[11,-1],[7,-3],[9,1],[11,3],[9,6],[6,-4],[9,-8],[9,-13],[0,-17],[3,-7],[3,-3],[4,0],[12,-1],[7,2],[1,-9],[1,-10],[-1,-10],[-1,-26],[-4,-17],[2,-7],[1,-8],[-1,-10],[6,-7],[1,-5],[0,-12],[-3,-5],[5,-17],[-3,-8],[4,-3],[2,-2]],[[7860,5036],[-5,-6],[1,-2],[1,0],[0,-1],[1,0],[1,2],[0,-2],[-3,-3],[-4,-3],[-1,-1],[-1,1],[-2,-1],[-2,-2],[-4,-2],[-2,0],[-3,2],[-2,0],[-1,-1],[0,2],[1,3],[0,-1],[1,1],[-1,4],[-1,1],[1,0],[1,1],[2,-1],[0,-2],[-1,-1],[0,-2],[1,-2],[1,0],[2,3],[-1,3],[3,2],[1,-1],[1,-1],[2,-1],[1,-1],[1,0],[5,5],[0,1],[1,1],[0,2],[4,5],[1,-2]],[[7822,4953],[0,-1],[-7,-5],[-2,3],[-3,-3],[-1,2],[-3,0],[0,-2],[-1,-2],[0,-6],[-1,-1],[-1,-2],[-1,-1],[-6,-10],[-3,-4],[-3,-4],[-2,-2],[0,-6],[6,-2],[0,-3],[1,-1],[0,-2],[1,0],[0,-1],[1,0],[1,1],[2,0],[0,1],[1,0],[2,1],[0,3],[2,0],[1,1],[1,-1],[-1,-2],[-2,-1],[-1,-1],[0,-1],[-3,-2],[-2,-2],[2,-5],[2,-1],[0,-2],[2,-1],[0,-4],[-3,-2],[2,-6],[0,-2],[5,-9],[4,-5],[3,0],[1,-1],[0,-3],[-8,-10],[5,-8],[1,-3],[0,-2],[-1,-2],[-3,-4],[-2,4],[0,1],[-4,0],[-2,1],[1,3],[-1,1],[-3,-4],[-2,0],[-7,-12],[-1,-2],[-1,-8],[-1,0],[-1,-1],[0,1],[-2,3],[-1,1],[-1,-1],[0,-3],[-1,0],[0,-1],[-1,0],[0,-1],[-1,0],[0,2],[1,0],[0,1],[-3,0],[0,-1],[-1,-2],[-1,1],[-2,-4],[-1,-1],[0,5],[-1,-1],[-1,-2],[-1,-2],[0,-1],[-3,-4],[-1,-1],[-1,-1],[-3,-2],[-1,0],[0,-1],[-2,-3],[-1,-1],[-3,0],[0,-2],[-1,-1],[-1,0],[0,-1],[-3,0],[-1,-1],[0,-1],[-10,-8],[-2,-2],[-1,-2],[-1,-1],[0,-2],[1,-1],[1,-1],[0,-3],[1,-1],[0,-2],[-1,-16],[-7,1],[0,-1],[-5,1],[-1,0],[0,-1],[-1,-1],[0,-1],[-2,3],[-1,1],[-3,5],[0,2],[1,0],[0,2],[2,3],[1,1],[0,8],[1,1],[-1,0],[-6,-1],[-5,0],[-7,-1],[-3,-3],[-2,-4],[-8,-1],[4,11],[6,5],[1,0],[2,1],[0,1],[1,1],[-1,6],[-6,0],[-1,3],[9,22],[-1,4],[-1,2],[2,2],[4,12],[2,5],[1,1],[0,7],[-1,0],[0,-5],[-2,0],[0,-1],[-1,-1],[0,-1],[-1,0],[0,-1],[-1,0],[0,-3],[-1,1],[-1,0],[0,-2],[-1,-1],[0,-1],[-1,0],[0,-1],[1,0],[0,-2],[-1,0],[0,-2],[-1,-1],[0,-2],[-1,0],[0,-1],[-1,-1],[0,-2],[-1,-1],[0,-2],[-1,0],[0,-2],[-1,-1],[-1,-1],[1,-1],[-1,-1],[0,-1],[-1,0],[0,-4],[1,-1],[0,-1],[-1,0],[0,-1],[-1,-1],[1,-1],[-1,-1],[1,0],[0,-1],[-1,0],[0,-1],[-5,5],[-2,2],[1,1],[1,4],[-1,1],[0,1],[-1,2],[0,1],[-6,12],[1,1],[1,1],[0,10],[-1,4],[-1,3],[-1,1],[0,1],[-2,2],[-1,2],[-1,1],[-3,3],[0,2],[-1,1],[0,16],[-1,0],[0,1],[1,1],[0,5],[-1,-1],[-1,-1],[0,-1],[-1,-2],[-1,-2],[-2,-3],[-2,-2],[-1,-2],[0,-1],[-3,-2],[-2,0],[0,-3],[-1,1],[0,1],[1,2],[0,2],[1,1],[0,2],[2,3],[0,2],[1,0],[0,2],[1,1],[1,0],[0,5],[1,1],[-1,1],[-1,2],[0,2],[1,1],[0,1],[1,0],[0,1],[2,2],[0,3],[1,0],[0,2],[1,2],[0,2],[1,0],[1,1],[-1,1],[1,1],[0,1],[1,1],[1,1],[0,6],[-1,0],[0,5],[1,0],[1,2],[0,3],[1,2],[1,1],[0,7],[1,1],[0,-1],[1,0],[0,2],[1,0],[0,1],[1,2],[0,1],[1,1],[0,3],[1,8],[0,8],[1,3],[0,3],[2,4],[3,5],[5,6],[16,21],[0,3],[2,0],[1,1],[4,5],[3,4],[1,1],[2,2],[1,1],[3,0],[10,-1],[3,0],[1,-2],[1,0],[7,-10],[1,-2],[1,-1],[1,0],[1,-1],[1,0],[1,-1],[1,1],[8,0],[3,1],[4,0],[1,-1],[1,0],[0,-2],[1,-1],[1,-9],[1,-4],[1,-1],[0,-1],[6,-9],[1,-2],[4,-4],[1,1],[2,-2],[3,0],[1,1],[1,2],[1,3],[1,2],[1,1],[4,-1],[3,0],[2,1],[3,1],[1,1],[2,2],[2,0],[1,-1],[1,2],[1,0],[3,3],[1,-2],[-2,-2],[0,-5],[-2,-2],[-1,0],[0,-7],[1,0],[1,1],[1,-2],[0,-2],[1,0],[0,-2],[2,-5],[1,-2]],[[7772,4826],[-3,5],[-2,2],[-1,0],[-1,1],[-44,0],[-3,-1],[-5,0],[0,-1],[-2,-2],[-1,-2],[-1,-1],[0,-2],[1,-2],[1,-4],[3,-10],[0,1],[1,1],[0,3],[1,0],[0,2],[1,0],[0,1],[1,1],[-1,1],[1,1],[1,1],[0,2],[1,0],[0,1],[5,0],[2,-24],[10,8],[6,-10],[1,1],[1,0],[0,1],[1,2],[2,1],[3,2],[9,10],[2,2],[2,1],[0,1],[2,1],[3,5],[2,1],[1,0]],[[7683,3607],[-2,-2],[-1,1],[-3,2],[-3,2],[-3,2],[-14,4],[-10,0],[-12,2],[-5,2],[-1,-2],[-3,0],[-1,1],[-2,1],[-3,0],[-3,1],[-2,3],[-10,3],[-15,-3],[-15,-4],[-6,-1],[-6,-1],[-9,-2],[-8,-2],[-6,-1],[-3,-1],[-7,-1],[-8,-2],[-6,-2],[-12,-2],[-1,-1],[-5,-8],[0,-6],[-3,-3],[-4,-1],[2,-13],[-2,-1],[-3,-2],[-3,0],[0,-1],[-2,0],[-1,-1],[-1,0],[-3,-1],[-4,-1],[-8,-6],[-10,37],[-4,-1],[-7,-3],[-6,-4],[-5,-2],[-18,-10],[-6,-3],[-4,-3],[-4,-4],[-4,0],[-3,-1],[-3,-2],[-4,-1],[-6,-2],[-8,-4]],[[7146,4158],[16,-13],[12,-9],[1,-1],[3,-3],[34,-37],[5,-6],[10,0],[8,-2],[3,0],[1,-1],[2,0],[4,-6],[1,-2],[4,-6],[2,-3],[3,-5],[2,-1],[2,-1],[5,-2],[2,-1],[3,-1],[1,-1],[2,-1],[2,-1],[1,0],[5,-2],[0,-1],[1,0],[6,-14],[1,-2],[0,-1],[1,2],[1,1],[3,4],[1,2],[12,2],[5,2],[2,-4],[10,-1],[6,0],[11,-12],[17,10],[18,27],[13,-1],[-2,8],[-1,3],[-1,3],[-2,2],[-18,21],[3,5],[6,0],[3,4],[0,10],[3,4],[0,32],[3,4],[-1,0],[0,3],[-3,0],[0,4],[-6,1],[4,6],[0,3],[-5,8],[0,-4],[-9,0],[0,3],[-6,9],[-15,1],[1,49],[0,20],[1,11],[0,6],[-1,0],[0,1],[-4,7],[-3,4],[0,1],[-2,4],[0,1],[-1,2],[-1,4],[-1,2],[-1,4],[0,42],[1,9],[2,1],[1,0],[2,2],[4,3],[3,4],[3,8],[0,1],[-1,15],[-1,10],[-3,6],[-3,7],[0,11],[3,13],[0,7],[1,2],[-2,0],[-3,2],[-1,2],[-3,8],[-3,1],[-2,3],[-2,3],[0,2],[-2,1],[0,1],[-1,0],[0,1],[-1,2],[-2,-1],[-3,0],[-10,-4],[-3,0],[0,6],[1,4],[-1,0],[0,1],[-1,1],[0,5],[-1,3],[0,4],[-1,0],[-2,-2],[-2,-2],[-3,-1],[-3,1],[-3,-4],[-1,0],[-2,-1],[-1,-3],[-2,-1],[-2,-1],[-1,1],[-2,1],[-2,1],[-1,1],[0,1],[-1,2],[0,8],[19,12],[0,7],[1,2],[1,3],[0,2],[1,1],[0,4],[1,2],[0,10],[1,4],[4,8],[6,6],[3,-1],[2,3],[1,-2],[0,-1],[2,-1],[2,-1],[2,-1],[2,-1],[2,-2],[3,-2],[2,0],[2,1],[2,1],[2,2],[1,1],[1,3],[2,3],[1,3],[0,2],[1,2],[2,3],[2,2],[2,3],[1,1],[2,1],[2,0],[1,1],[1,0],[2,-1],[1,-2],[1,-2],[0,-18],[1,-2],[2,-3],[2,-5],[1,-2],[2,-3],[2,-2],[1,-1],[13,0],[3,-1],[2,-1],[2,-1],[2,-1],[2,-2],[1,-1],[1,-2],[1,-2],[0,-5],[-1,-1],[-1,-2],[-2,-2],[-3,-2],[-1,-1],[-3,-1],[-3,-1],[-6,0],[-1,-1],[-3,-1],[-1,-2],[-1,-2],[-1,-2],[0,-2],[-1,-2],[1,-1],[0,-2],[1,-2],[1,-4],[0,-2],[1,-2],[1,-2],[1,-3],[2,-6]],[[7374,4478],[1,-3],[2,-6],[2,-2],[2,-3],[1,-2],[1,-2],[1,-1],[1,0],[1,-1],[1,0],[0,-2],[1,-1],[0,-1],[1,-2],[1,-2],[6,-1],[4,-3],[2,-2],[1,-2],[0,-8],[1,-1],[1,-2],[0,-1],[2,-1],[3,-2],[1,-2],[1,-1],[1,-1],[0,-1],[1,-1],[0,-2],[1,-1],[1,-2],[2,-1],[2,0],[1,-1],[1,-1],[0,-3],[-1,-2],[-1,-3],[-1,-4],[-1,-2],[-1,-4],[-2,-2],[0,-7],[-1,-2],[0,-3],[-1,-4],[0,-2],[1,-2],[5,0],[2,2],[1,4],[1,5],[2,5],[1,3],[2,3],[3,0],[2,-1],[0,-4],[1,-6],[-2,-4],[-1,-2],[-1,-2],[-1,-2],[-2,-2],[-2,-2],[0,-6],[1,-2],[2,-2],[2,-1],[2,1],[5,5],[1,0],[1,1],[2,-1],[2,-1],[1,-4],[2,-8],[2,-1],[3,-1],[3,-2],[4,-1],[1,-1],[4,-3],[3,-4],[1,-3],[2,-3],[3,-3],[5,-2],[4,0],[3,-2],[1,-2],[0,-18],[-1,-4],[1,-4],[0,-1],[1,0],[1,-1],[2,-1],[3,1],[2,0],[4,-1],[7,-3],[2,-1],[2,-1],[2,-1],[2,-2],[2,-2],[3,-5],[3,-7],[2,-2],[1,-6],[0,-9],[1,-2],[1,-2],[2,-5],[0,-4],[1,-2],[-1,-2],[2,-3],[1,-3],[-1,-4],[0,-4],[-1,-4],[1,-5],[3,-7],[2,-4],[4,-3],[3,0],[3,2],[1,1],[1,-1],[2,0],[4,-3],[2,0],[1,-2],[0,-16],[2,-2],[1,-2],[2,-4],[0,-3],[1,-1],[1,-2],[0,-5],[-1,0],[-2,-2],[-1,0],[-1,-1],[-1,-2],[-1,-2],[0,-2],[1,-1],[0,-2],[4,-6],[5,0],[6,2],[3,2],[2,1],[3,1],[1,1],[2,0],[1,-1],[1,-1],[1,0],[2,-2],[0,-4],[-1,-4],[-2,-3],[-2,-3],[-4,-6],[-2,-4],[-1,-1],[0,-1],[1,-2],[1,-1],[2,-1],[2,-1],[2,-1],[4,0],[3,1],[3,1],[1,1],[2,2],[2,0],[3,2],[2,1],[2,0],[1,-1],[1,-1],[1,0],[0,-1],[5,0],[1,-1],[1,-1],[3,-5],[1,-2],[0,-4],[-1,-1],[-2,-3],[-2,-2],[0,-6],[1,-2],[1,-1],[0,-2],[1,-1],[2,-2],[1,-2],[2,-4],[2,-3],[3,-2],[2,-1],[2,1],[1,0],[2,-1],[1,-1],[0,-4],[1,-1],[0,-6],[-1,-2],[0,-1],[-1,-2],[-3,-4],[-3,-2],[-2,-3],[-2,-2],[-2,-1],[-1,-2],[-3,-3],[0,-1],[-1,-2],[0,-2],[1,-2],[2,-3],[5,0],[2,1],[1,2],[0,10],[1,1],[1,3],[1,1],[1,1],[4,-4],[3,-5],[2,-5],[4,-10],[-1,-3],[-1,-2],[-1,-1],[-1,0],[-1,2],[-1,3],[-1,4],[-2,2],[-2,1],[-2,1],[-2,-1],[-2,0],[0,-8],[3,-10],[-1,-4],[0,-17],[1,-1],[0,-7],[-1,-7],[0,-8],[-1,-6],[-1,-2],[0,-2],[-2,-2],[-2,-2],[-2,-2],[-1,-2],[0,-2],[1,-2],[5,0],[1,1],[1,2],[4,0],[1,1],[1,2],[2,3],[3,1],[1,0],[4,-5],[1,-4],[0,-3],[-1,-2],[-2,-3],[-1,0],[0,-1],[-4,0],[-2,-1],[-2,-2],[-1,-3],[0,-6],[1,-4],[7,-6],[2,-3],[1,-5],[0,-2],[-1,-3],[1,-9],[1,-2],[1,-2],[3,-3],[1,-1],[0,-1],[1,-3],[0,-11],[2,-4],[0,-2],[-1,-1],[0,-5],[-2,-3],[0,-1],[-1,-2],[-1,-2],[0,-1],[-2,-2],[-3,-4],[-2,-1],[-2,-2],[-2,-6],[-1,-2],[-1,-2],[-1,-2],[-2,-2],[-3,-1],[-1,-1],[0,-3],[1,-2],[0,-2],[1,-1],[0,-3],[-1,-2],[0,-13],[2,-5],[1,0],[0,-1],[1,0],[0,-1],[1,0],[0,-1],[-1,0],[0,-1],[-3,-5],[-1,-3],[-1,-2],[-1,-1],[-1,-1],[0,-25],[1,-22],[0,-3],[1,-1],[0,-1],[4,-12],[0,-1],[1,-2],[17,-26],[7,-16],[0,-1],[1,0],[1,-1],[0,-1],[1,-2],[0,-3],[1,-3],[1,-4],[3,-11],[0,-5],[1,-2],[1,-2],[2,-1],[0,-1],[4,-6],[2,-6],[1,-2],[1,-3],[0,-6],[1,-1],[0,-1],[1,-2],[1,-1],[1,-1],[1,0]],[[8443,4593],[-3,0],[-1,-1],[-2,-2],[-2,-3],[-4,2],[-1,5],[-1,1],[-2,2],[-2,-1],[-2,-2],[-2,-2],[-1,-2],[-2,-2],[-1,-2],[-1,0],[-3,-2],[-4,0],[-2,-2],[-2,-2],[-1,-1],[-1,-1],[-2,-3],[-3,0],[-1,-3],[-2,-8],[0,-3],[-1,-2],[-2,-4],[-3,-3],[-1,-2],[-2,-3],[1,-2],[0,-6],[2,-3],[0,-1],[1,-3],[1,-8],[0,-6],[1,-2],[0,-2],[1,-1],[1,0],[0,-16],[-1,-3],[1,-3],[0,-3],[-1,-2],[0,-2],[-2,-2],[-1,-2],[-1,-1],[-2,0],[-1,-1],[-2,-1],[0,-4],[1,-3],[0,-4],[1,-2],[0,-6],[1,-2],[0,-4],[1,-3],[1,-2],[0,-1],[-1,-2],[0,-3],[-1,-3],[0,-2],[-1,-2],[0,-2],[-1,-2],[0,-6],[-1,-2],[-2,-1],[-3,-3],[-1,-1],[-1,-2],[-2,-3],[-2,-2],[-2,-1],[-1,0],[-1,-1],[-1,-1],[-3,-2],[-1,0],[-1,-2],[-2,2],[0,2],[-1,2],[-2,0],[-1,-1],[-2,-3],[-4,0],[-2,-3],[-1,-1],[-1,-1],[-3,-3],[-1,0],[-3,-1],[-4,0],[-1,-1],[-1,-2],[-1,-1],[-1,0],[0,-1],[-1,0],[-1,-1],[-1,-2],[0,-1],[-1,-1],[0,-1],[-1,-2],[0,-1],[-1,-1],[0,-5],[-1,-5],[-1,-4],[-1,-2],[-2,0],[-2,-2],[0,-1],[-1,-1],[-5,-4],[-2,-2],[-1,-2],[-2,0],[-2,-1],[0,-1],[-2,-2],[-2,0],[-2,-2],[-1,-2],[-2,-1],[-1,-2],[-1,-2],[-1,-1],[-2,0],[-1,-1],[-2,-1],[0,-1],[-1,-1],[-2,-1],[-1,-2],[-1,2],[-2,2],[-2,2],[-2,2],[-1,1],[-1,1],[-1,1],[-1,1],[-1,2],[-3,-1],[-1,-1],[-1,1],[-3,1],[-5,0],[-2,-3],[-1,0],[-1,-1],[-2,-2],[-2,-3],[-1,-2],[-3,-1],[-2,-1],[-1,-1],[-3,0],[-1,-1],[-1,-3],[-2,-3],[0,-2],[1,-5],[1,-1],[0,-2],[-1,-4],[-1,-4],[0,-3],[-1,-2],[-2,-2],[0,-2],[-1,-3],[0,-5],[-2,-1],[-2,-2],[-1,-1],[-2,0],[-2,-2],[-2,-4],[0,-2],[-2,-2],[0,-1],[-2,-2],[-1,-2],[-1,-1],[-2,-1],[0,-3],[-2,-4],[-1,-3],[-3,-3],[-1,-1],[-1,-2],[-1,-1],[-3,1],[-3,0],[-1,-1],[-1,0],[-1,-1],[-1,-1],[-6,0],[0,-3],[-1,-1],[0,-2],[-1,-1],[-1,-2],[-1,-1],[-1,-1],[-2,0],[-2,-1],[-2,0],[-2,-2],[-1,-1],[-1,-2],[-1,-1],[-2,-1],[-1,-1],[-1,-1],[-4,0],[-3,1],[-2,1],[-2,1],[-2,0],[0,-1],[-2,1],[-3,1],[-1,-2],[-2,-2],[0,-2],[-1,-1],[-2,-1],[-1,-5],[0,-2],[-2,0],[-1,-1],[-2,1],[-1,0],[-2,-2],[-4,-6],[-1,-1],[-2,-1],[-2,-1],[-4,2],[-2,2],[-5,0],[-1,1],[-2,-1],[-1,-1],[-1,1],[-1,1],[-2,-1],[-2,0],[-3,2],[-1,4],[-2,-2],[-1,-1],[-1,-1],[-1,-2],[-1,-2],[-2,-2],[-2,-2],[-2,-1],[-2,1],[0,-1],[-2,-1],[-1,-1],[-2,-1],[0,-1],[-3,-1],[-2,-1],[-1,-1],[-3,-2],[-1,-1],[0,-4],[-3,-3],[-1,1],[-5,0],[-1,1],[-1,5],[-1,0],[-2,2],[-3,-1],[-1,-3],[-3,0],[-3,-2],[-3,-1],[-1,-3],[0,-2],[-1,-3],[0,-7],[-3,-6],[-2,-1],[-1,-5],[-3,-5],[0,-6],[-3,-6],[-1,-2],[-1,-1],[-1,-1],[-1,-1],[-1,-1],[1,-2],[0,-5],[1,-3],[-2,-4],[-2,-3],[-2,-2],[-2,1],[0,1],[-1,0],[-2,-2],[-2,-2],[-1,-1],[-1,-3],[-1,-2],[-1,-2],[-2,-1],[-2,-1],[-2,-3],[-3,-3],[-3,2],[-1,0],[-2,-2],[-2,0],[-2,-1],[-2,0],[-1,1],[0,1],[-1,1],[-3,0],[-1,2],[-2,1],[-4,0],[-3,1],[-1,0],[-1,1],[-2,5],[0,12],[-1,2],[-1,1],[0,6],[-1,2],[-2,5],[-1,2],[-2,2],[0,6],[-1,1],[-1,2],[-3,1],[-1,1],[-1,-1],[-3,-1],[-3,3],[-2,1],[-1,0],[-1,4],[-1,3],[-1,2],[-1,2],[-2,6],[-4,0],[-2,1],[0,2],[-1,1],[0,1],[-1,0],[-1,1],[-2,0],[0,1],[-1,0],[0,1],[-1,0],[0,1],[-1,0],[0,1],[-1,0],[0,2],[-1,0],[0,1],[-1,1],[-1,1],[0,1],[-1,0],[0,9],[-1,0],[-1,1],[0,4],[-1,0],[0,1],[-1,1],[0,1],[-1,1],[0,13],[1,1],[-1,3],[-2,4],[-2,7],[-4,9],[-2,5],[-1,2],[-1,2],[-2,3],[-2,3],[-1,0],[-1,1],[-3,2],[-1,1],[-1,1],[-2,2],[-2,3],[-2,0],[-3,1],[-3,0],[-4,-1],[-3,-1],[-1,8],[-2,3],[-2,2],[-3,2],[-5,1],[-5,6],[-5,3],[-10,0],[-6,1],[-4,-2],[-4,-1],[-8,-2],[-8,2],[-3,-2],[-2,-3],[-1,-2],[-1,-3],[-1,-3],[-3,-8],[-7,-6],[0,-3],[-2,-11],[0,-1],[1,-1],[0,-2],[-1,0],[0,-4],[1,-1],[1,-1],[0,-2],[1,-1],[0,-1],[-1,-1],[0,-1],[-1,-1],[-1,-1],[0,-3],[1,0],[0,-3],[1,0],[0,-2],[-1,0],[0,-1],[-5,0],[-1,-1],[0,-2],[1,0],[0,-2],[1,-1],[0,-1],[1,0],[0,-1],[-3,0],[-1,1],[0,-1],[-1,0],[0,-2],[-1,0],[0,-8],[1,-1],[0,-2],[-1,0],[0,-4],[-1,0],[-1,1],[-2,0],[0,-1],[-1,0],[0,-1],[-1,-1],[0,-1],[-1,0],[0,-4],[-1,0],[0,-1],[-1,0],[-1,-1],[0,-5],[1,-1],[0,-2],[2,0],[0,-4],[2,-1],[0,-2],[1,0],[-1,-2],[1,-1],[0,-1],[1,-1],[0,-1],[1,0],[0,-8],[-1,-3],[0,-8],[-1,-2],[0,-14],[1,-1],[0,-5],[-1,-11],[0,-4],[3,-15],[2,-15],[0,-21],[-1,-6],[1,-2],[-1,-5],[-1,-1],[0,-6],[-9,-1],[-2,-2],[-2,2],[-2,-3],[-3,2],[-3,0],[-1,1],[-5,0],[0,-2],[-5,0],[-3,3],[-2,-4],[-1,-2],[-2,-1],[-7,3],[-3,-5],[-5,-8],[-5,-4],[-2,-3],[-3,-6],[0,-1],[-3,-3],[-1,-2],[-3,-1],[0,-1],[-3,-1],[-2,0],[0,-7],[2,-1],[0,-2],[1,-1],[1,-1],[1,0],[0,-7],[2,-4],[3,-2],[0,-1],[1,-3],[5,-3],[5,-12],[1,-1],[4,-2],[2,-5],[1,-2],[0,-2],[8,-6],[2,-2],[0,-4],[-1,-1],[-3,-1],[-1,-3],[0,-3],[1,-3],[0,-1],[-2,-2],[-1,-2],[-1,-1],[2,-6],[2,-2],[-1,-3],[-1,-4],[-1,-2],[0,-2],[2,-2],[1,-3],[3,-2],[1,-2],[2,-7],[1,-3],[0,-5],[-1,-2],[0,-2],[1,-1],[1,-3],[0,-2],[-1,-4],[0,-1],[1,-3],[0,-1],[-1,-2],[-1,-1],[0,-1],[3,-5],[1,0],[1,-1],[3,0],[1,-2],[0,-6],[-1,-2],[-2,-1],[0,-1],[-1,0],[0,-10],[1,0],[0,-2],[2,-3],[1,-1],[2,-1],[1,0],[1,-1],[0,-1],[1,-2],[0,-9],[-2,-4],[0,-10],[2,-4],[2,-3],[2,-4],[2,-2],[2,-3],[3,-3],[3,-2],[3,-2],[1,-1],[0,-2],[1,-3],[1,-4],[0,-1],[-1,-7],[0,-7],[-1,-7],[0,-2],[-2,-2],[0,-5],[-1,-2],[-2,-4],[-1,-1],[0,-9],[1,-1],[0,-3],[-1,-2],[-1,-1],[-2,-2],[-2,0],[-3,-2],[-1,-1],[0,-1],[-1,-1],[0,-1],[-1,-1],[-1,-1],[1,-4],[-1,-1],[-1,1],[-5,4],[-4,3],[-4,3],[-10,7],[-3,0],[-4,6],[-2,2],[-2,-10],[0,-1],[2,-3],[1,-1],[2,-9],[-4,-3],[0,-7],[2,-5],[2,-2],[0,-2],[1,-2],[3,-2],[0,-7],[3,0],[4,-2],[2,-4],[5,-3],[1,-2],[1,-1],[7,-4],[0,-3],[-1,-4],[-1,-3],[-1,-3],[0,-1],[-1,-1],[-1,-4],[-2,-4],[0,-4],[1,-3],[-1,-1],[1,-2],[0,-1],[1,-1],[0,-1],[2,-2],[0,-2],[1,0],[0,-1],[1,-4],[-1,-1],[1,-5],[-1,-3],[2,-3],[-1,0],[1,-1],[2,-1],[0,-9],[-2,1],[-1,0],[-1,1],[-3,3],[-4,5],[-1,1],[-2,2],[-3,3],[-2,1],[-1,0],[-4,-2],[-2,0],[-6,7],[-2,1],[-4,0],[-3,1],[-3,0],[-4,2],[-2,1],[-2,1],[-2,2],[-5,1],[-3,2],[-4,-1],[-1,0],[-2,-1],[-4,0],[-4,-2],[-2,0]],[[7374,4478],[1,-1],[1,-1],[1,0],[1,-1],[2,0],[1,1],[1,2],[1,2],[1,1],[0,2],[1,1],[1,2],[0,1],[1,1],[1,1],[0,2],[1,2],[1,0],[1,1],[2,2],[3,3],[2,0],[2,-1],[0,3],[3,1],[1,1],[1,0],[1,1],[1,0],[1,1],[1,0],[0,-1],[1,-1],[2,1],[0,1],[2,-2],[2,-1],[1,1],[1,1],[1,1],[2,2],[0,-1],[2,1],[2,1],[0,-1],[1,0],[0,1],[1,1],[0,1],[1,0],[0,2],[1,1],[1,0],[0,-1],[1,0],[0,1],[-1,1],[0,1],[2,0],[0,2],[1,2],[0,-1],[1,0],[0,2],[-1,0],[0,1],[1,1],[0,-1],[1,-1],[1,1],[2,0],[0,4],[-1,0],[0,2],[1,1],[0,1],[-1,0],[0,1],[1,0],[0,1],[-1,1],[1,1],[1,0],[0,3],[2,0],[0,3],[1,0],[0,1],[1,0],[0,1],[-1,1],[-1,0],[0,1],[1,0],[0,1],[-1,0],[0,1],[-1,1],[0,2],[1,0],[1,1],[0,-2],[1,1],[0,1],[1,0],[0,1],[1,1],[-3,2],[0,1],[1,0],[0,3],[-1,-1],[0,1],[-1,1],[-1,-1],[0,1],[1,0],[0,1],[-1,0],[0,1],[-3,-10],[-3,0],[-6,11],[-6,16],[-3,2],[-1,1],[-1,2],[5,18],[2,7],[4,6],[6,9],[4,5],[10,20],[1,2],[3,3],[4,6],[3,5],[1,3],[2,3],[3,3],[1,2],[2,2],[2,5],[0,4],[2,-1],[4,3],[8,9],[4,5],[1,2],[2,0],[1,1],[6,7],[3,2],[2,1],[2,4],[6,10],[3,4],[4,4],[3,2],[3,1],[4,4],[1,2],[1,1],[2,1],[1,1],[1,2],[0,7],[1,3],[2,-1],[2,1],[3,1],[3,-1],[0,5],[3,4],[4,5],[4,2],[5,5],[2,1],[1,1],[4,4],[4,4],[1,2],[2,0],[0,1],[1,0],[1,3],[2,1],[0,2],[1,2],[3,9],[-3,6],[3,8],[1,2],[1,0],[2,-5],[1,-2],[3,-6],[3,-1],[1,-1],[3,-2],[2,0],[1,1],[-1,4],[-1,3],[1,5],[1,5],[-1,4],[-4,4],[3,5],[6,3],[2,3],[0,3],[1,4],[0,4],[-2,2],[-2,1],[-1,1],[-2,0],[-2,3],[-2,2],[-3,1],[1,4],[-1,2],[-1,5],[0,2],[-1,7],[1,4],[1,4],[1,3],[4,0],[2,6],[4,-2],[5,10],[-2,11],[-1,2],[0,5],[1,5],[1,5],[2,8],[1,9],[-3,2],[-4,0],[-6,2],[-2,1],[0,3],[1,2],[3,2],[3,6],[4,2],[3,-1],[2,0],[2,5],[2,-1],[0,2],[2,0],[0,2],[3,0],[1,1],[0,2],[7,4],[2,-3],[0,-1],[2,-2],[0,-2],[2,-2],[-1,-2],[-2,-2],[0,-4],[-1,-1],[1,-1],[-1,-1],[-2,-2],[1,-1],[0,1],[3,0],[0,-1],[3,0],[1,1],[3,0],[0,13],[1,0],[0,3],[1,0],[0,5],[1,1],[0,3],[1,1],[0,1],[1,1],[0,2],[1,0],[0,2],[2,4],[0,1],[1,1],[0,2],[1,0],[1,1],[3,0],[1,-1],[1,-1],[2,-2],[1,2],[1,0],[1,1],[2,0],[5,1],[2,1],[1,-1],[1,-5],[0,-2],[2,0],[1,4],[1,1],[1,3],[0,1],[2,1],[1,0],[1,1],[0,5],[2,1],[1,0],[1,2],[0,1],[-1,1],[-1,-2],[-2,2],[-1,5],[0,1],[-2,10],[-1,4],[0,3],[-1,2],[-4,2],[-1,0],[0,4],[-1,0],[0,2],[1,0],[0,-4],[1,0],[0,1],[1,1],[0,1],[-1,1],[1,0],[0,1],[1,0],[0,2],[1,0],[0,-2],[1,1],[1,0],[0,-1],[1,0],[0,1],[1,0],[0,1],[1,0],[0,1],[1,-1],[1,0],[1,-1],[0,1],[1,1],[-1,0],[0,1],[1,1],[0,5],[1,0],[0,-5],[1,-1],[1,1],[0,2],[1,3],[0,3],[1,1],[0,1],[1,0],[0,3],[1,0],[1,1],[-1,1],[0,3],[1,1],[0,-1],[1,0],[0,-1],[1,0],[1,2],[1,0],[0,1],[1,0],[0,-1],[1,-1],[1,0],[1,1],[0,1],[1,1],[0,1],[1,0],[0,-2],[1,0],[1,1],[1,1],[0,2],[1,0],[0,1],[1,-1],[1,0],[0,1],[1,0],[1,1],[0,1],[3,0],[0,1],[1,0],[0,1],[1,1],[0,1],[1,-1],[1,-2],[0,-1],[1,0],[0,-1],[1,1],[1,-1],[1,0],[1,1],[1,1],[0,2],[3,0],[0,2],[1,1],[1,1],[1,0],[0,1],[1,-3],[0,-2],[2,-3],[0,-2],[1,-1],[0,-1],[1,-1],[0,-1],[1,0],[0,-1],[1,0],[0,-1],[1,-1],[4,0],[2,-1],[1,-1],[1,0],[1,-1],[1,-3],[0,-1],[3,-2],[0,-4],[2,0],[0,1],[1,0],[0,-2],[-1,-1],[2,0],[0,-1],[-1,0],[0,-1],[3,0],[0,-2],[1,0],[-1,1],[1,0],[1,1],[0,-1],[1,0],[0,2],[1,0],[1,1],[0,1],[1,0],[0,-1],[-1,0],[0,-1],[1,0],[1,1],[0,-1],[1,0],[1,1],[0,1],[1,0],[0,2],[2,0],[0,3],[1,0],[0,2],[1,0],[0,1],[1,1],[0,2],[3,0],[0,1],[1,0],[0,1],[1,1],[0,1],[1,0],[0,2],[1,0],[0,1],[1,0],[0,2],[1,0],[0,2],[1,0],[0,-1],[1,0],[0,2],[2,0],[0,-1],[1,0],[0,5],[1,1],[1,0],[0,1],[1,1],[1,0],[0,1],[1,1],[0,6],[1,0],[1,-1],[1,0],[0,-2],[2,0],[1,-2],[3,-1],[1,-1],[2,-1],[4,0],[1,1],[4,0],[1,1],[5,0],[1,1],[1,1],[2,1],[1,0],[1,1],[1,0],[0,-1],[-1,0],[0,-2],[1,-1],[1,0],[-1,-1],[1,-1],[0,1],[1,0],[0,-2],[-1,-1],[1,-1],[2,1],[2,0],[0,-2],[2,0],[1,-1],[0,1],[1,0],[0,-1],[2,0],[0,-1],[1,0],[0,1],[1,0],[0,1],[2,0],[0,1],[2,0],[0,1],[1,-1],[0,1],[3,0],[0,-2],[1,0],[0,1],[1,0],[0,1],[1,0],[0,1],[1,0],[0,1],[1,0],[0,1],[1,0],[0,1],[-1,2],[-1,0],[0,2],[1,1],[-1,5],[-1,6],[0,4],[-1,5],[-2,0],[-3,1],[-2,-2],[-2,0],[-1,2],[-2,3],[0,1],[-3,4],[-2,3],[-14,6],[-2,5],[2,8],[1,4],[3,8],[7,12],[5,7],[2,7],[4,11],[2,5],[5,6],[3,1],[0,4],[3,0],[3,-5],[2,-3],[3,-3],[4,-11],[2,0],[9,-4],[16,19],[13,7],[0,4],[-6,6],[-1,5],[0,3],[1,5],[0,2],[6,2],[1,4],[1,1],[1,1],[1,0],[2,3],[0,5],[1,0],[1,3],[1,7],[0,3],[4,3],[2,10],[0,5],[4,5],[8,12],[1,2],[2,2],[2,2],[2,-1],[1,2],[1,6],[1,3],[2,5],[0,1],[1,1],[7,0],[2,2],[1,2],[2,1],[3,0],[4,2],[1,0],[1,-1],[2,2],[4,0],[2,-2],[2,2],[1,1],[0,1],[1,3],[3,3],[1,1],[5,-5],[3,0],[6,6],[1,0],[1,-2],[2,0],[1,2],[0,6],[2,3],[3,0],[1,2],[0,2],[1,4],[1,1],[2,1],[3,5],[4,0],[1,2],[1,0],[1,-1],[1,0],[2,-1],[1,0],[1,-1],[1,-1],[1,0],[1,2],[1,1],[1,0],[4,-3],[1,0],[1,1],[2,2],[1,0],[1,1],[2,0],[0,-1],[1,2],[2,2],[0,1],[1,1],[2,3],[1,1],[3,1],[5,0],[0,1],[2,1],[0,1],[1,0],[4,3],[1,0],[3,3],[1,2],[1,1],[2,1],[4,0],[1,2],[3,-3],[4,-2],[2,-4],[0,-1],[1,0],[0,-2],[1,0],[0,-1],[1,0],[1,-1],[4,0],[1,-2],[2,-2],[1,0],[2,2],[3,0],[0,-1],[2,0],[0,1],[1,1],[3,0],[0,1],[1,0],[1,1],[0,1],[1,1],[1,1],[5,0],[1,1],[0,1],[1,0],[0,1],[1,0],[0,1],[1,0],[0,1],[-1,0],[0,9],[1,0],[1,1],[0,1],[2,0],[1,-1],[0,1],[2,-1],[3,0],[2,3],[3,2],[2,1],[1,1],[3,3],[0,3],[1,2],[0,3],[1,1],[0,3],[-1,3],[-1,2],[0,4],[1,2],[2,3],[1,4],[1,1],[1,2],[2,3],[0,6],[1,3],[0,6],[1,2],[10,7],[3,2],[5,5],[1,3],[0,2],[-2,4],[0,1],[10,0],[0,-11],[-1,-1],[0,-2],[1,-2],[1,-1],[2,1],[1,0],[5,-5],[2,0],[1,-1],[2,1],[1,-1],[1,1],[1,1],[0,4],[-1,4],[1,1],[0,3],[1,2],[0,5],[-1,2],[2,3],[1,1],[0,1],[2,1],[5,0],[2,1],[1,2],[2,2],[1,4],[1,1],[3,1],[0,3],[1,2],[2,4],[1,0],[2,1],[0,4],[1,2],[1,3],[0,2],[1,2],[0,2],[1,3],[1,1],[4,0],[1,-1],[4,0],[0,2],[1,2],[3,2],[1,0],[3,2],[3,0],[1,-1],[1,-1],[2,-3],[0,-2],[1,-1],[0,-1],[1,1],[3,3],[0,2],[1,2],[1,1],[0,6],[3,0],[1,1],[1,4],[2,2],[0,1],[1,0],[0,-1],[1,0],[1,-1],[1,1],[1,2],[2,3],[1,3],[1,3],[0,3],[-1,0],[0,4],[-1,2],[1,2],[0,2],[-1,5],[0,4],[2,0],[2,1],[0,1],[1,0],[1,1],[2,1],[1,1],[-1,3],[0,5],[1,4],[0,3],[-1,2],[0,2],[1,2],[3,0],[0,-1],[3,0],[1,-1],[1,1],[1,2],[1,2],[1,1],[1,6],[2,0],[2,2],[1,1],[1,2],[1,1],[0,3],[-2,3],[-1,4],[0,2],[1,1],[1,2],[0,2],[1,2],[2,1],[0,1],[1,2],[3,2],[1,2],[0,2],[2,1],[1,0],[2,2],[1,1],[1,3],[2,0],[2,1],[0,3],[1,2],[0,1],[2,-3],[2,0],[2,1],[1,0],[2,2],[2,1],[1,2],[1,1],[3,0],[1,2],[0,3],[3,1],[2,0],[1,1],[2,0],[1,2],[1,1],[1,2],[1,0],[2,1],[1,-1],[1,2],[0,1],[2,-1],[2,1],[2,0],[0,3],[2,1],[2,1],[0,2],[1,1],[-1,4],[0,1],[1,2],[0,2],[-1,2],[-1,1],[0,2],[-1,4],[-1,6],[0,11],[2,10],[0,4],[-1,1],[0,3],[-3,3],[-2,4],[0,3],[-1,4],[-1,4],[1,2],[1,2],[2,0],[2,1],[1,3],[0,5],[1,-1],[1,0],[1,1],[2,1],[2,2],[4,0],[1,2],[0,1],[1,2],[0,3],[3,0],[2,1],[1,0],[0,1],[3,4],[2,3],[0,5],[2,1],[1,0],[2,2],[3,0],[3,-4],[3,0],[0,1],[1,0],[1,1],[2,1],[1,1],[3,4],[0,1],[1,1],[0,1],[2,0],[0,1],[2,2],[2,4],[3,3],[3,3],[4,1],[1,3],[2,0],[0,-1],[3,-3],[1,-1],[2,-2],[1,0],[1,-1],[2,5],[1,2],[0,3],[2,1],[1,2],[0,2],[2,3],[1,1],[0,2],[1,5],[0,3],[1,0],[1,-1],[1,-1],[2,-2],[1,0],[1,-1],[2,-1],[1,-3],[1,-2],[1,-1],[3,0],[0,-3],[1,-1],[0,-1],[2,-4],[0,-3],[3,-1],[1,0],[0,-5],[1,-1],[1,-1],[3,1],[3,2],[2,0],[2,-4],[2,-1],[1,-2],[4,-6],[1,-4],[1,-3],[0,-4],[1,-1],[0,-7],[2,-3],[1,-1],[0,-1],[1,-2],[-1,-3],[1,-2],[0,-6],[-1,-2],[-2,-2],[-1,-3],[-1,-2],[2,-6],[1,-2],[2,-3],[1,-3],[0,-1],[3,0],[2,-1],[1,-1],[1,-1],[3,0],[0,-1],[2,-4],[1,-2],[2,-2],[1,-3],[3,0],[4,-2],[3,-1],[1,-1],[1,1],[1,1],[2,4],[6,4],[7,0],[2,2],[1,4],[0,2],[-1,2],[0,3],[2,3],[1,6],[2,6],[1,1],[1,2],[1,8],[2,7],[0,10],[1,1],[2,6],[2,2],[0,2],[1,5],[0,2],[2,3],[1,2],[1,3],[1,2],[2,2],[0,1],[1,3],[-1,3],[0,6],[1,2],[1,6],[1,2],[1,3],[1,7],[0,7],[1,1],[2,2],[1,2],[0,2],[1,0],[1,1],[2,1],[1,1],[3,0],[0,5],[2,2],[1,2],[1,1],[0,1],[1,2],[-1,2],[2,2],[1,2],[2,1],[2,2],[0,4],[-1,1],[0,3],[1,2],[0,1],[1,1],[2,3],[2,2],[1,2],[1,2],[2,1],[2,1],[1,-1],[2,-1],[1,1],[0,3],[1,1],[0,1],[1,0],[-1,2],[0,4],[-1,1],[0,1],[-3,0],[-1,1],[-1,0],[-2,2],[0,5],[2,3],[2,2],[0,1],[1,1],[0,1],[1,2],[1,1],[3,-2],[3,0],[3,2],[1,6],[1,2],[0,1],[1,0],[0,1],[1,0],[1,1],[2,0],[1,2],[2,1],[1,1],[2,0],[1,3],[1,1],[1,0],[2,-2],[4,-2],[3,-1],[3,-2],[1,0],[1,-1],[1,-1],[0,-2],[1,0],[0,-1],[3,0],[0,-1],[2,-2],[1,-2],[2,-1],[2,2],[3,0],[3,2],[1,1],[0,4],[1,1],[0,3],[1,3],[1,1],[3,2],[1,1],[2,1],[7,0],[1,-1],[2,-1],[1,2],[1,0],[1,2],[0,2],[-1,2],[0,4],[2,0],[2,1],[1,0],[0,1],[2,1],[1,3],[3,0],[2,2],[1,0],[0,8],[1,2],[0,1],[2,1],[2,-1],[2,0],[2,1],[0,2],[-1,2],[0,3],[2,3],[1,3],[2,2],[1,1],[0,1],[1,2],[1,3],[1,4],[1,2],[0,2],[1,1],[1,1],[3,-4],[3,-1],[2,-2],[2,-2],[3,-1],[4,0],[1,-1],[3,-1],[2,0],[2,-2],[3,2],[2,2],[2,0],[1,3],[1,2],[0,2],[1,3],[1,1],[0,2],[-1,2],[-1,2],[0,1],[1,0],[1,2],[0,1],[1,3],[0,3],[1,0],[2,1],[2,2],[1,1],[1,5],[1,3],[1,5],[1,0],[1,1],[3,0],[2,-3],[1,1],[1,3],[1,-3],[-1,0],[0,-2],[2,0],[1,1],[3,-1],[1,1],[1,2],[1,1],[2,2],[3,0],[1,-3],[1,-2],[0,-2],[1,-1],[1,0],[1,-2],[1,-2],[1,-2],[1,0],[2,1],[5,-1],[2,-1],[1,-2],[2,-2],[2,-3],[1,-2],[2,-1],[4,0],[3,4],[2,0],[0,1],[1,0],[0,6],[3,-1],[1,-1],[2,0],[1,-2],[1,-2],[2,-2],[-1,-2],[0,-2],[1,-1],[1,-2],[1,-2],[1,-1],[1,0],[1,-3],[1,-1],[0,-2],[1,-1],[2,0],[2,-2],[3,-2],[2,-4],[1,-1],[0,-1],[1,-2],[0,-1],[1,-1],[2,0],[0,1],[1,0],[1,-2],[1,-2],[1,0],[1,-3],[1,-1],[2,-3],[0,-1],[2,-1],[1,1],[2,3],[1,0],[1,-4],[4,-4],[-1,-3],[0,-3],[-1,-3],[-1,-2],[1,-2],[1,-1],[1,-1],[2,-2],[7,0],[1,1],[2,2],[0,2],[2,3],[1,-2],[2,-1],[3,1],[1,0],[0,-12],[3,-5],[0,-3],[3,-2],[3,-3],[4,-2],[-1,-2],[0,-6],[2,-2],[0,-1],[-2,-1],[-1,-1],[-1,-1],[-1,-2],[-1,-3],[-1,-2],[0,-3],[-1,-2],[-1,-1],[-2,0],[0,-1],[1,-3],[0,-3],[1,-2],[1,0],[0,-1],[2,-2],[0,-5],[-1,-1],[0,-1],[-2,-2],[-2,1],[-2,0],[-1,-5],[-1,-1],[-1,-2],[-2,-3],[0,-4],[-2,-1],[-1,1],[0,-1],[-3,-2],[-2,-1],[-1,0],[-2,-1],[1,-2],[0,-1],[2,-2],[1,-1],[-1,-3],[-1,-1],[0,-1],[-2,-2],[-1,0],[0,-1],[-2,0],[-1,-1],[-3,0],[-2,2],[-3,0],[0,3],[-2,4],[-3,-1],[-1,-1],[-1,0],[-2,-1],[-3,1],[-1,2],[-2,0],[-1,-2],[0,-1],[-3,-1],[-1,-2],[-1,-2],[-3,-4],[-3,-4],[-3,1],[-1,2],[-3,1],[-1,-2],[0,-2],[-1,-2],[-1,-3],[0,-3],[-2,-7],[-1,-1],[-2,-1],[-1,-1],[-2,-1],[-1,-1],[-1,-1],[-3,0],[-2,2],[-1,2],[-2,-1],[-1,-3],[0,-1],[-1,-2],[1,-4],[0,-3],[-1,-4],[0,-4],[-1,-4],[-9,0],[0,-1],[-1,-1],[-1,-1],[-1,0],[0,-1],[-2,0],[-1,-2],[-2,-3],[0,-1],[-1,0],[0,-1],[-7,0],[0,-3],[-1,0],[-3,-1],[0,-1],[-1,-2],[0,-3],[-1,-2],[0,-5],[-1,-2],[-1,-1],[-1,-2],[0,-1],[-1,-2],[-3,1],[-1,1],[-2,3],[0,-2],[-1,0],[-1,-2],[0,-1],[-1,-1],[0,-2],[-5,0],[-1,-1],[-4,-4],[1,-1],[2,-2],[1,-3],[-1,-2],[-1,-1],[0,-1],[-3,-3],[-2,-3],[0,-3],[-2,-4],[-1,-4],[-2,-4],[0,-1],[-5,1],[-1,1],[-2,1],[-4,0],[-4,-1],[-3,-1],[-11,0],[-1,2],[-1,0],[-5,2],[-2,3],[-4,3],[-3,3],[-2,-2],[-3,0],[-3,1],[-2,2],[0,1],[-1,2],[0,3],[-1,3],[-3,2],[-1,-3],[-1,-3],[-2,-1],[-2,0],[-1,1],[-1,0],[-1,2],[-1,1],[-1,2],[-2,2],[-1,1],[0,-2],[-1,-2],[-1,-1],[0,-8],[-3,-4],[0,-7],[1,-1],[0,-1],[1,-3],[0,-3],[-4,-5],[-3,-4],[0,-4],[-2,-2],[-1,-2],[0,-8],[-1,-5],[-2,-2],[2,-3],[1,-2],[2,-4],[1,-2],[3,-2],[0,-4],[-1,-2],[-1,-3],[0,-3],[-1,-3],[2,-6],[0,-6],[1,-4],[0,-7],[2,-2],[0,-6],[-2,-2],[-1,-1],[1,-3],[1,-4],[-3,-2],[-1,0],[-1,-2],[0,-3],[-1,-3],[-1,-2],[-3,-6],[-2,-4],[-2,2],[-1,0],[-2,2],[-6,0],[-1,-1],[-1,-2],[-3,-4],[-5,6],[-1,1],[-1,1],[-3,2],[-3,-3],[-2,0],[-2,1],[-2,1],[-2,3],[-2,3],[0,2],[-2,1],[-4,0],[1,-3],[0,-11],[-1,-5],[0,-5],[-1,-1],[0,-2],[-1,-1],[-3,0],[-2,1],[-2,1],[-2,0],[-4,4],[0,4],[-2,-1],[-4,0],[-4,1],[-4,-1],[-1,-2],[-2,-1],[-2,-1],[-3,-3],[-2,0],[-2,2],[0,-1],[-2,-2],[-2,0],[-1,-1],[-1,-1],[-2,-4],[-2,-1],[-3,-1],[0,-1],[-1,-2],[-1,-2],[0,-3],[1,-3],[0,-4],[-1,-2],[-1,-2],[-1,-3],[-1,-2],[0,-1],[-1,-1],[-1,-2],[-2,-1],[0,-3],[-1,-4],[-1,-3],[-1,-1],[-2,-1],[-1,0],[0,-3],[1,-2],[-1,-1],[-1,-1],[-2,-6],[-1,-2],[-1,-5],[-1,-2],[-1,-2],[-3,-1],[-1,0],[-1,1],[-1,0],[0,1],[-1,0],[-3,-1],[-2,-1],[-2,0],[0,-3],[-1,-5],[-1,-6],[0,-2],[-1,-3],[0,-13],[1,-5],[-1,-1],[0,-1],[-5,0],[-3,1],[-3,1],[-1,-1],[-1,-2],[-1,-2],[-1,-3],[-2,-3],[-2,0],[-1,-2],[-2,-1],[-3,0],[-1,-2],[-1,0],[-1,-1],[-2,-2],[-2,-3],[-1,-1],[-3,-2],[-3,-1],[-2,1],[-2,-5],[-2,-6],[-1,-2],[-1,-2],[-1,-2],[0,-5],[-1,-3],[-2,-4],[-1,-3],[0,-13],[-1,-6],[-1,-2],[0,-4],[1,-3],[1,-2],[-1,-3],[0,-9],[-2,-3],[0,-2],[-2,-7],[-1,-6],[-1,-2],[-1,0],[-5,1],[-2,0],[-2,1],[-2,1],[-3,-1],[-1,-1],[-1,0],[-1,-3],[0,-1],[-1,-1],[-2,-3],[-2,-3],[-2,-4],[-1,-2],[-1,-4],[-3,-2],[-3,-1],[-2,0],[-2,-3],[-1,-1],[-2,-2],[-2,-2],[-2,-1],[-1,-3],[-3,1],[-2,-2],[-2,-1],[-2,-3],[-2,0],[-2,-2],[-2,-4],[-2,-3],[-1,-3],[-2,-3],[0,-2],[-1,-4],[-4,-8],[0,-5],[-3,-7],[-2,-5],[-5,-2],[-2,-1],[-3,-2],[-3,-3],[-2,-3],[-3,-1],[-2,0],[-2,-1],[-5,0],[-4,-1],[-1,-1],[-3,-2],[-2,-1],[-1,-1],[-2,-2],[0,-1],[-1,0],[0,-2],[-1,-4],[-1,-1],[-1,-2],[-2,0],[-3,-1],[-1,0],[-2,-1],[-1,-3],[0,-1],[-1,-2],[0,-2],[-1,-1],[-2,-1],[-2,-3],[-1,-1],[0,-1],[-1,0],[-1,2],[-2,2],[0,1],[-1,1],[-1,1],[-2,0],[-2,2],[-1,2],[-2,0],[-4,-2],[-3,-3],[-4,-1],[-4,0],[-1,-1],[-1,0],[-2,2],[0,-7],[-1,-2],[2,-4],[1,-4],[0,-2],[1,-1],[0,-11],[-3,-8],[0,-6],[-1,-1],[-2,-1],[-1,0],[-2,-1],[-1,-2],[-3,0],[-2,-2],[0,-5],[-1,-2],[-3,-4],[-1,0],[-1,-2],[1,-2],[1,-1],[1,-3],[1,-2],[0,-5],[1,-2],[-2,-3],[-1,-8],[-1,-10],[-2,-2],[-2,-2],[-2,-4],[0,-3],[-1,-3],[2,0],[2,-1],[2,-2],[4,-4],[5,-3],[5,-1],[2,-1],[1,-1],[2,0],[2,-3],[1,-3],[1,-4],[2,-2],[4,-3],[7,0],[3,2],[4,3],[3,0],[2,1],[2,1],[1,1],[2,1],[1,1],[0,2],[1,1],[0,2],[1,1],[0,7],[1,1],[3,1],[3,2],[1,2],[2,2],[3,2],[1,1],[2,0],[2,-3],[0,-2],[3,-7],[5,-4],[2,-4],[1,-3],[0,-1],[8,0],[0,-4],[1,-1],[3,-3],[1,-1],[2,0],[4,1],[2,-1],[1,-1],[1,0],[1,-3],[2,-3],[0,-1],[2,-4],[0,-3],[-1,-3],[3,-7],[0,-1],[1,-2],[0,-1],[2,-2],[5,2],[1,0],[2,2],[0,1],[3,-1],[4,1],[0,-3],[1,-2],[1,-7],[2,-2],[1,-2],[2,-3],[2,-3],[1,0],[1,-1],[5,-4],[2,-2],[1,-1],[1,-3],[0,-3],[4,-2],[0,-2],[2,-4],[2,-1],[4,-6],[2,-3],[0,-3],[1,-2],[2,-6],[-1,-7],[0,-1],[1,-1],[2,0],[1,-3],[2,-2],[2,-4],[3,-3],[4,-2]]],"type":"Topology"}
