{"type":"Topology","arcs":[[[1117,2380],[-39,34],[-9,37],[-39,58],[-28,12],[-40,79],[11,81],[-12,46]],[[961,2727],[47,18],[115,16],[68,-14]],[[1191,2747],[26,14],[23,-15],[42,29],[68,-28]],[[1350,2747],[5,-81],[-26,-35],[-27,-8],[-66,-65],[-73,-38],[-23,-26],[13,-67],[-36,-47]],[[1931,4186],[0,-280],[-146,0],[-79,-20],[-80,-71],[-132,-158],[-47,-37],[-10,-25]],[[1437,3595],[-108,9],[-75,20],[-40,-29],[-82,-18]],[[1132,3577],[-65,11],[-68,-27],[-45,31]],[[954,3592],[-11,46],[30,33],[-23,64],[-25,8],[-24,52],[38,70],[23,18],[-9,32],[-41,29],[8,44],[27,29],[-9,37],[73,52],[-57,44],[7,72],[67,57],[38,7],[39,-15],[48,-47],[69,-89],[62,7],[25,-28],[79,-6],[27,54],[32,3],[20,-30],[22,32],[148,20],[46,0],[59,-21],[48,21],[141,-1]],[[1627,1412],[-28,-50],[-34,5],[-13,21],[-31,-16],[-14,24],[-49,20],[-27,-8],[-34,25],[-24,-6],[-7,57],[-31,-22],[-7,40],[-39,-16],[-22,12],[-26,-29],[-30,11],[-6,39]],[[1205,1519],[-2,41],[72,78],[-15,24]],[[1260,1662],[47,65],[50,35],[11,37],[-13,45],[51,30],[31,49],[15,-53],[46,-3],[49,53],[35,-52],[82,-19],[26,-40],[70,-2]],[[1760,1807],[12,-70],[37,-18]],[[1809,1719],[-19,-40],[-57,-49],[3,-56],[-39,-4],[-46,-111],[-26,-8],[2,-39]],[[2085,1570],[-27,-88],[-54,-49],[-78,-58],[-43,0],[18,-104],[-45,17],[-15,-22],[-87,-22],[-43,29]],[[1711,1273],[-1,20],[-43,24],[-36,-7],[17,62],[-21,40]],[[1809,1719],[48,31],[23,-13],[86,25],[29,-12],[40,-58],[0,-36],[31,-6],[23,-38],[-4,-42]],[[1643,2765],[-10,-17],[-55,-11],[-21,-80],[16,-132],[-37,-7],[-42,55],[-15,120],[37,17],[10,42],[50,48],[39,-4],[28,-31]],[[1900,2151],[-52,-48],[-17,-31],[-7,-52],[21,-72],[-17,-8],[-17,-61],[-58,-46],[7,-26]],[[1260,1662],[-44,-26],[-47,47],[-29,-1],[-24,34],[18,29],[-35,124],[35,2]],[[1134,1871],[24,-2],[40,43],[12,30],[40,-16],[77,40],[39,69],[-12,60],[-17,33],[-52,51],[-21,42]],[[1264,2221],[32,16],[35,-10],[27,41],[22,8],[57,65],[50,3],[43,-25],[11,-32],[73,0],[-3,33],[55,-27],[43,15],[19,20],[52,23],[41,-2],[8,-111],[21,-4],[50,-83]],[[1134,1871],[5,60],[-21,102],[-18,23],[-3,57],[21,22],[-23,68],[21,49],[36,19],[3,33],[42,-6]],[[1197,2298],[21,-59],[46,-18]],[[1614,3134],[-49,-11],[-27,-27],[-34,1],[-8,-95],[19,-33],[-49,-76],[5,-60],[-36,-47],[-47,-22],[-32,15],[-6,-32]],[[1191,2747],[22,39],[-17,34],[15,25],[32,-8],[20,61],[-27,55],[1,96],[-8,35],[-32,11],[-39,79],[-6,74],[-29,32],[-3,103],[17,55],[-5,139]],[[1437,3595],[72,-2],[19,-48],[27,-29],[18,-50],[-12,-60],[3,-78],[20,-9],[-16,-76],[8,-42],[33,-32],[5,-35]],[[1943,2186],[-43,-35]],[[1197,2298],[13,25],[-78,33],[-15,24]],[[1614,3134],[133,-33]],[[1747,3101],[20,-5],[31,-90],[16,-120],[16,-43],[42,-26],[3,-38],[-65,-35],[-32,-29],[-63,-16],[-4,-21],[28,-28],[31,3],[43,28],[8,-89],[53,-1],[9,66],[19,-5],[159,-93],[-17,-124],[-63,-88],[-37,-94],[-1,-67]],[[3174,3820],[-1,-439],[-110,-159]],[[3063,3222],[-374,-72],[-205,-40],[-68,-31],[-50,-38],[-59,-99],[-37,-23],[-135,5],[-232,199],[-145,0],[-11,-22]],[[1931,4186],[193,0],[108,-76],[412,-63],[157,-13],[226,38],[147,-252]],[[2621,1774],[-16,-12],[-17,-97],[-19,-14],[-8,-51],[-115,-91],[-29,-35],[-74,-7],[-17,39],[-54,-5],[-50,14]],[[2222,1515],[2,60],[-21,52],[-53,-41],[-15,-26],[-50,10]],[[1943,2186],[72,24],[13,-61],[13,-106],[24,-55],[42,-22],[22,41],[42,-18],[13,32],[32,4],[18,40],[19,-27],[30,-1],[23,87]],[[2306,2124],[70,6],[7,-97],[65,0],[46,-126],[0,-77],[79,14],[48,-70]],[[3063,3222],[-297,-420]],[[2766,2802],[-356,-310],[-60,-68],[-48,-105],[-2,-56],[-13,-35],[-11,-78],[30,-26]],[[2222,1515],[-30,2],[-15,-33],[-5,-53],[-24,4],[-14,-29],[15,-38],[-50,-17],[6,-30],[55,-3],[-21,-61],[-36,-68],[58,-49],[-8,-38],[-41,-29],[-15,-93],[-25,-55],[-36,-47],[13,-96]],[[2049,782],[-75,-7],[-69,-39],[-180,-22],[-25,-15],[-22,-38],[-29,-77],[-54,-188]],[[1595,396],[-225,-29],[-72,30],[-44,45],[-57,18]],[[1197,460],[-60,138],[-10,9],[73,184],[35,11],[-7,83],[32,-5],[59,39],[75,-40],[14,48],[30,-32],[20,11],[0,40],[58,47],[73,-5],[18,20],[-7,44],[4,65],[50,0],[-3,29],[-36,17],[13,27],[54,38],[29,45]],[[2049,782],[105,-88]],[[2154,694],[-12,-102],[-22,-45],[-34,-34],[-60,-26],[-33,1],[-62,-21],[-72,10],[-66,0],[-36,20],[-37,-48],[-125,-53]],[[4128,1469],[-72,-67],[-43,-21],[-66,7],[-37,27],[-51,-5],[-50,19],[-35,35],[-66,-62],[-71,-28],[-119,-136],[-44,-40],[-43,-25],[-98,-35],[-55,-14]],[[3278,1124],[5,229],[-11,133],[-6,139],[-38,23],[-5,77],[-41,8],[-16,-36],[-92,21],[-40,18],[-93,-10],[-28,-51],[-42,-32],[-31,7],[-87,-10],[33,97],[-27,60],[-32,26],[-31,2],[-75,-51]],[[2766,2802],[435,49],[438,39],[47,-6],[-48,-105],[-86,-127],[-26,-122],[6,-25],[-29,-59],[54,-39],[9,-26],[-26,-73],[-86,-49],[-23,-42],[50,-50],[43,-69],[-4,-36],[123,-86],[68,-27],[12,-20],[99,-99],[10,-54],[63,-36],[65,-9],[68,17],[1,-17],[56,-57],[18,-54],[25,-151]],[[3278,1124],[-106,-32],[-43,-35],[-107,-55],[-73,3],[-103,-25],[-116,21],[-100,-13],[-25,4],[-108,-24],[-63,-21],[-26,-29],[-52,-92],[-50,-67],[-58,-39],[-94,-26]],[[6470,208],[-27,-100],[-44,-53],[-41,-18],[-79,-6],[-52,11],[-107,49],[-62,60],[-23,70],[0,44],[15,59],[28,42],[-2,54],[15,56],[40,54],[43,23],[58,-3],[62,-51],[22,-52],[2,-78],[76,-10],[29,-21],[41,-72],[6,-58]],[[7730,476],[-15,-70],[-24,-37],[-70,-61],[-56,-33],[-58,-18],[-73,-55],[-116,-34],[-45,2],[-114,-23],[-66,2],[-86,28],[-2,-62],[-20,-53],[-24,-30],[-39,-25],[-46,-7],[-77,23],[-68,-12],[-34,12],[-73,48],[-40,60],[-11,73],[25,84],[44,45],[51,21],[46,2],[61,-17],[8,18],[-28,44],[-65,40],[-32,67],[-5,58],[27,81],[62,52],[59,2],[37,-20],[77,58],[43,19],[50,3],[83,-13],[68,-49],[31,12],[51,0],[59,38],[56,-1],[80,-30],[57,-40],[80,-36],[60,-16],[37,-33],[24,-47],[11,-70]],[[6118,5373],[-52,-69],[-138,-222],[-48,-157],[-57,-105],[-15,-280],[-15,-67],[-41,-134],[-35,-102],[-59,-140],[-71,-99],[-23,-55],[-56,-24],[-56,-35],[-115,-108],[-14,-50],[-25,-48],[-46,-28],[-85,-16],[-76,-58],[-7,-69],[15,-33],[-19,-30],[-12,-91],[-35,-130],[58,-64],[-34,-65],[-29,-112],[-12,-146],[23,-32],[55,-17],[-8,-90],[52,-15],[121,-59],[29,-29],[28,7],[45,-82],[34,-107],[23,-156]],[[5418,2256],[-98,-21],[-54,-17],[-71,-68],[-55,-20],[-53,-47],[-139,-29],[-42,12],[-175,-65],[-26,-23],[-99,-46],[-48,-33],[-28,-44],[-60,-34],[-6,-40],[-26,-53],[-69,-74],[-34,-53],[-79,-89],[-61,-41],[-67,-2]],[[3174,3820],[108,0],[167,126],[78,253],[147,232],[197,311],[274,170],[275,171],[351,45],[246,32],[384,49],[378,86],[339,78]],[[961,2727],[-10,4],[-1,81],[10,46],[-15,33],[15,32],[2,78],[-67,-11],[-52,-25],[-93,-2],[-42,36],[-117,6],[-315,-2]],[[276,3003],[3,35],[26,62],[-17,26],[-18,63],[-41,-15],[-78,18],[-46,53],[-18,75],[16,0],[216,86],[366,0],[35,-19],[54,12],[14,30],[-1,42],[24,23],[76,9],[16,87],[13,15],[38,-13]],[[6118,5373],[115,-312],[115,-312],[167,-456],[63,-170],[-21,-42],[39,-7],[174,-482],[47,-140],[-89,-28],[-84,-44],[-169,-76],[-30,-19],[-67,-86],[-19,-39],[-23,-83],[23,-106],[-2,-64],[12,-47],[2,-63],[-20,-61],[-54,-60],[-158,-73],[-39,-50],[-73,-26],[-42,-56],[-35,-19],[-66,-11],[-56,-43],[-86,-30],[-100,-44],[-61,-15],[-163,-53]],[[265,2768],[-14,-91],[-23,-37],[-33,-31],[-60,-21],[-41,5],[-59,45],[-29,61],[-6,54],[10,58],[38,64],[48,33],[64,5],[51,-26],[33,-42],[21,-77]],[[1205,1519],[-101,-24],[-9,-47],[-30,-40],[-7,-38],[-70,-29],[-123,-18]],[[865,1323],[-16,57],[-21,-36],[-10,-61],[-43,-82],[-53,-50],[-65,23],[-51,105],[-6,46],[-88,305],[28,64],[52,65],[50,36],[77,2],[-32,111],[-35,80],[-13,91],[16,60],[-18,39],[-17,84],[4,67],[-75,-6],[-83,41],[-18,-69],[-51,-67],[-55,-26],[-41,2],[-51,28],[-28,33],[-43,106],[-12,93],[7,51],[41,74],[51,33],[91,1],[-29,69],[-8,47],[-31,52],[-14,83],[12,66],[-11,63]],[[1197,460],[-63,28],[-61,0],[-65,32],[-28,70],[16,87],[-30,49],[-22,78],[-39,74],[-33,36],[-32,74],[-8,83],[13,62],[7,105],[13,85]]],"transform":{"scale":[0.001698665912031048,0.0013197444072212917],"translate":[41.608250000000005,11.9090133]},"objects":{"admin_level_4":{"type":"GeometryCollection","geometries":[{"arcs":[[0,1,2,3]],"type":"Polygon","properties":{"name":"Al Maḩwīt","place":"state","source":"GNS","capital":"Al Maḩwīt","gns:dsg":"ADM1","gns:uni":"288138","name:ar":"المحويت","name:de":"al-Mahwit","name:en":"Al Mahwit Governorate","name:ru":"Махвит","alt_name":"Muḩāfaz̧at al Maḩwīt","boundary":"administrative","wikidata":"Q388280","ISO3166-2":"YE-MW","population":"494557","admin_level":"4","is_in:country":"Yemen","is_in:country_code":"YE"},"id":383903},{"arcs":[[4,5,6,7]],"type":"Polygon","properties":{"name":"Sa'dah","place":"state","source":"wikipedia","capital":"Sa'dah","gns:dsg":"ADM1","name:ar":"صعدة","name:de":"Sa'da","name:en":"Sa'dah Governorate","name:ru":"Саада","alt_name":"Muḩāfaz̧at Sa'dah","boundary":"administrative","wikidata":"Q275732","ISO3166-2":"YE-SD","population":"693217","admin_level":"4","is_in:country":"Yemen","is_in:country_code":"YE"},"id":383904},{"arcs":[[8,9,10,11,12]],"type":"Polygon","properties":{"name":"Ibb","place":"state","source":"GNS","capital":"Ibb","gns:dsg":"ADM1","gns:uni":"9306984","name:ar":"إب","name:en":"Ibb Governorate","name:ru":"Ибб","alt_name":"Muḩāfaz̧at Ibb","boundary":"administrative","ISO3166-2":"YE-IB","wikipedia":"de:Gouvernement Ibb","population":"2131861","admin_level":"4","is_in:country":"Yemen","is_in:country_code":"YE"},"id":383900},{"arcs":[[13,14,-13,15]],"type":"Polygon","properties":{"name":"Ad Dali'","place":"state","source":"GNS","capital":"Ad Dali'","gns:dsg":"ADM1","gns:uni":"9306973","name:ar":"الضالع","name:de":"ad-Dali'","name:en":"Ad Dali' Governorate","name:fr":"Ad Dali'","name:ru":"Эд-Дали","alt_name":"Muḩāfaz̧at Ad Dali'","boundary":"administrative","wikidata":"Q328187","ISO3166-2":"YE-DA","population":"504533","admin_level":"4","is_in:country":"Yemen","is_in:country_code":"YE"},"id":383902},{"arcs":[[16]],"type":"Polygon","properties":{"name":"Sanʿaʾ","is_in":"Sanʿaʾ, Yemen","place":"city","source":"wikipedia","capital":"yes","gns:dsg":"ADM1","name:ar":"صنعاء","name:en":"Sanʿaʾ","name:ru":"Сана","alt_name":"Amanat Al Asimah","boundary":"administrative","int_name":"Sanʿaʾ","ISO3166-2":"YE-SA","wikipedia":"de:Sanaa","population":"1947139","admin_level":"4","is_in:country":"Yemen","is_in:continent":"Asia","is_in:country_code":"YE"},"id":383890},{"arcs":[[17,-11,18,19,20]],"type":"Polygon","properties":{"name":"Dhamar","place":"state","source":"wikipedia","capital":"Dhamar","gns:dsg":"ADM1","name:ar":"ذمار","name:en":"Dhamar Governorate","name:ru":"Дамар","alt_name":"Muḩāfaz̧at Dhamar","boundary":"administrative","wikidata":"Q328193","ISO3166-2":"YE-DH","population":"1329229","admin_level":"4","is_in:country":"Yemen","is_in:country_code":"YE"},"id":383906},{"arcs":[[21,22,-20]],"type":"Polygon","properties":{"name":"Raymah","place":"state","source":"wikipedia","capital":"Jabin","gns:dsg":"ADM1","name:ar":"ريمه‎","name:de":"Raima","name:en":"Raymah Governorate","name:ru":"Райма","alt_name":"Muḩāfaz̧at Raymah","boundary":"administrative","wikidata":"Q475033","ISO3166-2":"YE-RA","population":"394448","admin_level":"4","is_in:country":"Yemen","is_in:country_code":"YE"},"id":383910},{"arcs":[[23,-3,24,-6,25]],"type":"Polygon","properties":{"name":"‘Amrān","place":"state","source":"GNS","capital":"‘Amrān","gns:dsg":"ADM1","gns:uni":"9306975","name:ar":"عمران","name:en":"'Amran Governorate","name:ru":"Амран","alt_name":"Muḩāfaz̧at ‘Amrān","boundary":"administrative","ISO3166-2":"YE-AM","wikipedia":"de:Gouvernement ʿAmrān","population":"877786","admin_level":"4","is_in:country":"Yemen","is_in:country_code":"YE"},"id":383907},{"arcs":[[26,-21,-23,27,-4,-24,28,29],[-17]],"type":"Polygon","properties":{"name":"Sanʿaʾ","place":"state","source":"GNS","capital":"Sanʿaʾ","gns:dsg":"ADM1","name:ar":"صنعاء","name:en":"Sanʿaʾ Governorate","name:ru":"Сана","alt_name":"Muḩāfaz̧at Sanʿaʾ","boundary":"administrative","wikidata":"Q388291","ISO3166-2":"YE-SN","population":"919215","admin_level":"4","is_in:country":"Yemen","is_in:country_code":"YE"},"id":383891},{"arcs":[[30,31,-29,-26,-5,32]],"type":"Polygon","properties":{"name":"Al Jawf","place":"state","source":"GNS","capital":"Al Hazm Al Jawf","gns:dsg":"ADM1","gns:uni":"-4497331","name:ar":"الجوف","name:de":"al-Dschauf","name:en":"Al Jawf Governorate","name:ru":"Эль-Джауф","alt_name":"Muḩāfaz̧at al Jawf","boundary":"administrative","wikidata":"Q328128","ISO3166-2":"YE-12","population":"443797","admin_level":"4","is_in:country":"Yemen","is_in:country_code":"YE"},"id":383899},{"arcs":[[33,34,-16,-12,-18,-27,35,36]],"type":"Polygon","properties":{"name":"Al Bayḑā’","place":"state","source":"GNS","capital":"Al Bayḑā’","gns:dsg":"ADM1","gns:uni":"-4496460","name:ar":"البيضاء","name:de":"al-Baida'","name:en":"Al Bayda' Governorate","name:ru":"Эль-Бейда","alt_name":"Muḩāfaz̧at al Bayḑā’","boundary":"administrative","wikidata":"Q221212","ISO3166-2":"YE-BA","population":"577369","admin_level":"4","is_in:country":"Yemen","is_in:country_code":"YE"},"id":383901},{"arcs":[[37,38,-36,-30,-32]],"type":"Polygon","properties":{"name":"Ma'rib","place":"state","source":"GNS","capital":"Ma'rib","gns:dsg":"ADM1","name:ar":"مأرب‎","name:en":"Ma'rib Governorate","name:ru":"Мариб","alt_name":"Muḩāfaz̧at Ma'rib","boundary":"administrative","wikidata":"Q498465","ISO3166-2":"YE-MA","population":"241219","admin_level":"4","alt_name:en":"Ma'rib","is_in:country":"Yemen","is_in:country_code":"YE"},"id":383909},{"arcs":[[39,40,41,42,-14,-35]],"type":"Polygon","properties":{"name":"Laḩij","place":"state","source":"GNS","capital":"Laḩij","gns:dsg":"ADM1","gns:uni":"9306986","name:ar":"لحج","name:de":"Lahidsch","name:en":"Lahij Governorate","name:ru":"Лахдж","alt_name":"Muḩāfaz̧at Laḩij","boundary":"administrative","ISO3166-2":"YE-LA","wikipedia":"de:Gouvernement Lahidsch","population":"722694","admin_level":"4","wikipedia:en":"Lahij_Governorate","is_in:country":"Yemen","is_in:country_code":"YE"},"id":383892},{"arcs":[[-41,43,44]],"type":"Polygon","properties":{"name":"‘Adan","place":"state","source":"GNS","capital":"Aden","gns:dsg":"ADM1","gns:uni":"-4495611","name:ar":"عدن","name:en":"‘Adan Governorate","name:ru":"Аден","alt_name":"Muḩāfaz̧at ‘Adan","boundary":"administrative","ISO3166-2":"YE-AD","wikipedia":"de:Gouvernement Adan","population":"589419","admin_level":"4","is_in:country":"Yemen","is_in:country_code":"YE"},"id":383893},{"arcs":[[45,46,-37,-39,47]],"type":"Polygon","properties":{"name":"Shawah","place":"state","source":"GNS","capital":"'Ataq","gns:dsg":"ADM1","gns:uni":"-4512125","name:ar":"شبوة","name:de":"Schabwa","name:en":"Shabwah Governorate","name:ru":"Шабва","alt_name":"Muḩāfaz̧at Shabwah","boundary":"administrative","ISO3166-2":"YE-SH","population":"470440","admin_level":"4","wikipedia:de":"Gouvernement Schabwa","wikipedia:en":"Shabwah_Governorate","is_in:country":"Yemen","is_in:country_code":"YE"},"id":383896},{"arcs":[[48,-44,-40,-34,-47]],"type":"Polygon","properties":{"name":"Abyan","place":"state","source":"GNS","capital":"Zinjibar","gns:dsg":"ADM1","gns:uni":"-4495590","name:ar":"شبوة","name:en":"Abyan Governorate","name:fr":"Abyan","name:ru":"Абьян","boundary":"administrative","ISO3166-2":"YE-AB","wikipedia":"de:Gouvernement Abyan","population":"433819","admin_level":"4","alt_name:en":"Muḩāfaz̧at Abyan","is_in:country":"Yemen","is_in:country_code":"YE"},"id":383898},{"arcs":[[[49]],[[50]]],"type":"MultiPolygon","properties":{"name":"Socotra","capital":"Hadibu","name:ar":"‏محافظة أرخبيل سقطرى‎","name:de":"Sokotra","boundary":"administrative","wikipedia":"ar:‏محافظة أرخبيل سقطرى‎","admin_level":"4","is_in:country":"Yemen","is_in:country_code":"YE"},"id":5486640},{"arcs":[[51,52,-48,-38,-31,53]],"type":"Polygon","properties":{"name":"Ḩaḑramawt","place":"state","source":"GNS","capital":"Al Mukalla","gns:dsg":"ADM1","gns:uni":"-4504321","name:ar":"حضرموت","name:de":"Hadramaut","name:en":"Hadhramaut","name:ru":"Хадрамаут","alt_name":"Muḩāfaz̧at Ḩaḑramawt","boundary":"administrative","wikidata":"Q241135","ISO3166-2":"YE-HD","population":"1028556","admin_level":"4","alt_name:en":"Hadramawt","is_in:country":"Yemen","is_in:country_code":"YE"},"id":383897},{"arcs":[[-2,54,55,-7,-25]],"type":"Polygon","properties":{"name":"Ḩajjah","place":"state","source":"GNS","capital":"Ḩajjah","gns:dsg":"ADM1","gns:uni":"9306982","name:ar":"حجة","name:de":"Haddscha","name:en":"Hajjah Governorate","name:ru":"Хадджа","alt_name":"Muḩāfaz̧at Ḩajjah","boundary":"administrative","ISO3166-2":"YE-HJ","population":"1479568","admin_level":"4","wikipedia:de":"Gouvernement Haddscha","is_in:country":"Yemen","is_in:country_code":"YE"},"id":383905},{"arcs":[[-52,56]],"type":"Polygon","properties":{"name":"Al Mahrah","place":"state","source":"GNS","capital":"Al Ghaydah","gns:dsg":"ADM1","gns:uni":"-449777","name:ar":"المهرة","name:de":"al-Mahra","name:en":"Al Mahrah Governorate","name:ru":"Эль-Махра","alt_name":"Muḩāfaz̧at al Mahrah","boundary":"administrative","ISO3166-2":"YE-MR","wikipedia":"de:Gouvernement al-Mahra","population":"88594","admin_level":"4","is_in:country":"Yemen","is_in:country_code":"YE"},"id":383908},{"arcs":[[[57]],[[58,59,-55,-1,-28,-22,-19,-10]]],"type":"MultiPolygon","properties":{"name":"Al Ḩudaydah","place":"state","source":"GNS","capital":"Al Ḩudaydah","gns:dsg":"ADM1","gns:uni":"-4497105","name:ar":"الحديدة","name:de":"al-Hudaida","name:en":"Al Hudaydah Governorate","name:ru":"Ходейда","alt_name":"Muḩāfaz̧at al Ḩudaydah","boundary":"administrative","wikidata":"Q275755","ISO3166-2":"YE-HU","population":"2157552","admin_level":"4","is_in:country":"Yemen","is_in:country_code":"YE"},"id":383894},{"arcs":[[-43,60,-59,-9,-15]],"type":"Polygon","properties":{"name":"Ta‘izz","place":"state","source":"GNS","capital":"Ta‘izz","gns:dsg":"ADM1","gns:uni":"9306986","name:ar":"تعز","name:en":"Ta'izz Governorate","name:ru":"Таиз","alt_name":"Muḩāfaz̧at Ta‘izz","boundary":"administrative","wikidata":"Q388330","ISO3166-2":"YE-TA","population":"2393425","admin_level":"4","is_in:country":"Yemen","is_in:country_code":"YE"},"id":383895}]}}}